id,toponym,location,Address,Match Type,Match Result,Match Level,Match Error,Province,City,County,Direction,geometry,X,Y
1.0,权县,湖北省荆门县东南,湖北省荆门县东南,Single,[{'city': 4208}],City,[],['湖北'],['荆门'],['NA'],东南,POINT (112.91904233374284 30.873577420683503),112.91904233374284,30.873577420683503
1.0,权国,湖北省荆门县东南,湖北省荆门县东南,Single,[{'city': 4208}],City,[],['湖北'],['荆门'],['NA'],东南,POINT (112.91904233374284 30.873577420683503),112.91904233374284,30.873577420683503
2.0,那处,权县的东南,权县的东南,Single,[],0,['No Match'],[],[],[],东南,,,
2.0,那口城,权县的东南,权县的东南,Single,[],0,['No Match'],[],[],[],东南,,,
3.0,蓼,今河南省唐河县西南,今河南省唐河县西南,Single,[{'county': 411328}],County,[],['河南'],['南阳'],['唐河'],西南,POINT (112.6930589243854 32.480310935376686),112.6930589243854,32.480310935376686
3.0,湖阳,今河南省固始县东北,今河南省固始县东北,Single,[{'county': 411525}],County,[],['河南'],['信阳'],['固始'],东北,POINT (115.79366438346126 32.351915557944004),115.79366438346126,32.351915557944004
4.0,邓国,湖北省襄樊市西北,湖北省襄樊市西北,Single,[{'province': 42}],Province,[],['湖北'],['NA'],['NA'],西北,POINT (110.94024844251913 32.16669177126137),110.94024844251913,32.16669177126137
4.0,邓县,河南省邓州市,河南省邓州市,Single,[{'county': 411381}],County,[],['河南'],['南阳'],['邓州'],,POINT (112.09151462879211 32.70042143298328),112.09151462879211,32.70042143298328
5.0,申国,今河南省南阳市,今河南省南阳市,Single,[{'city': 4113}],City,[],['河南'],['南阳'],['NA'],,POINT (112.17181874534914 33.04812010799885),112.17181874534914,33.04812010799885
5.0,宛城,今河南省南阳市,今河南省南阳市,Single,[{'city': 4113}],City,[],['河南'],['南阳'],['NA'],,POINT (112.17181874534914 33.04812010799885),112.17181874534914,33.04812010799885
6.0,吕国,今河南省南阳市西,今河南省南阳市西,Single,[{'city': 4113}],City,[],['河南'],['南阳'],['NA'],西,POINT (111.73633134517486 33.08097370664178),111.73633134517486,33.08097370664178
6.0,申国,今河南省新蔡县,今河南省新蔡县,Single,[{'county': 411729}],County,[],['河南'],['驻马店'],['新蔡'],,POINT (114.93042439650982 32.79284167208256),114.93042439650982,32.79284167208256
7.0,息国,今河南省息县西南,今河南省息县西南,Single,[{'province': 41}],Province,[],['河南'],['NA'],['NA'],西南,POINT (112.38335199586187 33.07547364435473),112.38335199586187,33.07547364435473
7.0,申国,今河南省申县,今河南省申县,Single,[{'province': 41}],Province,[],['河南'],['NA'],['NA'],,POINT (113.12381458489415 33.90583689978037),113.12381458489415,33.90583689978037
8.0,商县,今陕西省商县东南之商洛县,今陕西省商县东南之商洛县,Single,[{'city': 6110}],City,[],['陕西'],['商洛'],['NA'],,POINT (109.85194239662201 33.78315509072356),109.85194239662201,33.78315509072356
8.0,商密,今河南省淅川县西南,今河南省淅川县西南,Single,[{'county': 411326}],County,[],['河南'],['南阳'],['淅川'],西南,POINT (111.3489013150585 32.89567168150276),111.3489013150585,32.89567168150276
9.0,期思,今河南省淮滨县东南期思乡,今河南省淮滨县东南期思乡,Single,[{'county': 411527}],County,[],['河南'],['信阳'],['淮滨'],,POINT (115.32510049543883 32.445541582065275),115.32510049543883,32.445541582065275
9.0,蒋国,今河南省淮滨县东南期思乡,今河南省淮滨县东南期思乡,Single,[{'county': 411527}],County,[],['河南'],['信阳'],['淮滨'],,POINT (115.32510049543883 32.445541582065275),115.32510049543883,32.445541582065275
10.0,析县,河南省西峡县,河南省西峡县,Single,[{'county': 411323}],County,[],['河南'],['南阳'],['西峡'],,POINT (111.33467951835274 33.464826080571065),111.33467951835274,33.464826080571065
10.0,白羽,河南省西峡县,河南省西峡县,Single,[{'county': 411323}],County,[],['河南'],['南阳'],['西峡'],,POINT (111.33467951835274 33.464826080571065),111.33467951835274,33.464826080571065
10.0,容城,河南省鲁山县东南,河南省鲁山县东南,Single,[{'county': 410423}],County,[],['河南'],['平顶山'],['鲁山'],东南,POINT (112.970959451863 33.63524269716938),112.970959451863,33.63524269716938
12.0,庐,湖北省襄樊市西南,湖北省襄樊市西南,Single,[{'province': 42}],Province,[],['湖北'],['NA'],['NA'],西南,POINT (109.52278362525777 30.07789907618067),109.52278362525777,30.07789907618067
12.0,庐戢,庐县,庐县,Single,[],0,['No Match'],[],[],[],,,,
12.0,庐县,湖北省襄樊市,湖北省襄樊市,Single,[{'province': 42}],Province,[],['湖北'],['NA'],['NA'],,POINT (113.07130359361382 31.151385171454628),113.07130359361382,31.151385171454628
11.0,商密,河南省淅川县西南,河南省淅川县西南,Single,[{'county': 411326}],County,[],['河南'],['南阳'],['淅川'],西南,POINT (111.3489013150585 32.89567168150276),111.3489013150585,32.89567168150276
11.0,宜城,湖北省宜城县东南,湖北省宜城县东南,Single,[{'county': 420684}],County,[],['湖北'],['襄阳'],['宜城'],东南,POINT (112.54872968817955 31.594443674695828),112.54872968817955,31.594443674695828
11.0,鄀,今河南淅川下寺八号楚墓中,今河南淅川下寺八号楚墓中,Single,[{'county': 411326}],County,[],['河南'],['南阳'],['淅川'],,POINT (111.4084641582628 32.97996019624555),111.4084641582628,32.97996019624555
11.0,番,今河南淅川下寺八号楚墓中,今河南淅川下寺八号楚墓中,Single,[{'county': 411326}],County,[],['河南'],['南阳'],['淅川'],,POINT (111.4084641582628 32.97996019624555),111.4084641582628,32.97996019624555
13.0,庸,湖北省竹山县西南,湖北省竹山县西南,Single,[{'county': 420323}],County,[],['湖北'],['十堰'],['竹山'],西南,POINT (110.02967793848985 31.835038804173376),110.02967793848985,31.835038804173376
14.0,宛丘,河南省淮阳县,河南省淮阳县,Single,[{'county': 411603}],County,[],['河南'],['周口'],['淮阳'],,POINT (114.83427319314947 33.6808532217299),114.83427319314947,33.6808532217299
15.0,沈尹,沈县,沈县,Single,[],0,['No Match'],[],[],[],,,,
15.0,沈尹寿,沈县,沈县,Single,[],0,['No Match'],[],[],[],,,,
15.0,沈尹射,沈县,沈县,Single,[],0,['No Match'],[],[],[],,,,
15.0,沈尹赤,沈县,沈县,Single,[],0,['No Match'],[],[],[],,,,
15.0,沈尹戌,沈县,沈县,Single,[],0,['No Match'],[],[],[],,,,
15.0,沈尹朱,沈县,沈县,Single,[],0,['No Match'],[],[],[],,,,
16.0,城父,河南省襄城县西（即宝丰县东）,河南省襄城县西（即宝丰县东）,Single,[{'county': 411025}],County,[],['河南'],['许昌'],['襄城'],西,POINT (113.47257105166725 33.86549012672302),113.47257105166725,33.86549012672302
16.0,成公贾,楚庄王时,楚庄王时,Single,[],0,['No Match'],[],[],[],,,,
17.0,郧国,汉晋云杜县的东南（今湖北省京山、钟祥二县之间）,汉晋云杜县的东南（今湖北省京山、钟祥二县之间）,Single,[],0,['No Match'],[],[],[],东南,,,
17.0,郧县,汉晋江夏郡之竟陵县（今湖北省钟祥县北境）,汉晋江夏郡之竟陵县（今湖北省钟祥县北境）,Single,"[{'county': 350582}, {'county': 420115}]",County,['Multiple Matches'],"['福建', '湖北']","['泉州', '武汉']","['晋江', '江夏']",,,,
18.0,州来,安徽省凤台县,安徽省凤台县,Single,[{'county': 340421}],County,[],['安徽'],['淮南'],['凤台'],,POINT (116.58366822479394 32.778453487255135),116.58366822479394,32.778453487255135
19.0,叶,今河南省叶县南,今河南省叶县南,Single,[{'province': 41}],Province,[],['河南'],['NA'],['NA'],南,POINT (113.34345581508488 32.6592671778409),113.34345581508488,32.6592671778409
19.0,许,今河南省许昌市东,今河南省许昌市东,Single,[{'city': 4110}],City,[],['河南'],['许昌'],['NA'],东,POINT (114.00356960917803 34.02570432708742),114.00356960917803,34.02570432708742
20.0,陈,今河南省舞阳县,今河南省舞阳县,Single,[{'county': 411121}],County,[],['河南'],['漯河'],['舞阳'],,POINT (113.7110591190633 33.57065624825376),113.7110591190633,33.57065624825376
20.0,蔡,今河南省襄城县,今河南省襄城县,Single,[{'county': 411025}],County,[],['河南'],['许昌'],['襄城'],,POINT (113.56219221195806 33.860050741376114),113.56219221195806,33.860050741376114
20.0,不羹,东不羹在今河南省舞阳县西北，西不羹在今河南省襄城县东南,东不羹在今河南省舞阳县西北，西不羹在今河南省襄城县东南,Single,"[{'county': 411025}, {'county': 411121}]",County,['Multiple Matches'],['河南'],"['漯河', '许昌']","['襄城', '舞阳']",东南,,,
21.0,蔡,河南省上蔡县城关一带,河南省上蔡县城关一带,Single,[{'county': 411722}],County,[],['河南'],['驻马店'],['上蔡'],,POINT (114.43567889279541 33.303063368792536),114.43567889279541,33.303063368792536
21.0,蔡,河南省新蔡县西,河南省新蔡县西,Single,[{'county': 411729}],County,[],['河南'],['驻马店'],['新蔡'],西,POINT (114.81566130467922 32.832301356661006),114.81566130467922,32.832301356661006
22.0,白县,今河南省息县东北,今河南省息县东北,Single,[{'province': 41}],Province,[],['河南'],['NA'],['NA'],东北,POINT (114.2408925853659 35.1259759898753),114.2408925853659,35.1259759898753
22.0,白亭,汝阴褒信县西南,汝阴褒信县西南,Single,[],0,['No Match'],[],[],[],西南,,,
22.0,鄢,今河南省漯河市东,今河南省漯河市东,Single,[{'city': 4111}],City,[],['河南'],['漯河'],['NA'],东,POINT (114.00450087102443 33.699766113252736),114.00450087102443,33.699766113252736
22.0,巢,今安徽省寿县南,今安徽省寿县南,Single,[{'province': 34}],Province,[],['安徽'],['NA'],['NA'],南,POINT (117.56613510998999 30.626027625500747),117.56613510998999,30.626027625500747
22.0,巢国,今安徽省桐城县以南,今安徽省桐城县以南,Single,[{'county': 340881}],County,[],['安徽'],['安庆'],['桐城'],南,POINT (116.93379364650234 30.823140315051393),116.93379364650234,30.823140315051393
23.0,巢国,安徽省巢县东北,安徽省巢县东北,Single,[{'province': 34}],Province,[],['安徽'],['NA'],['NA'],东北,POINT (117.76518954679278 32.923234462904105),117.76518954679278,32.923234462904105
23.0,居巢县,今六安县东北,今六安县东北,Single,[{'city': 3415}],City,[],['安徽'],['六安'],['NA'],东北,POINT (116.39834601932587 32.121570977949645),116.39834601932587,32.121570977949645
23.0,巢县,今安徽省桐城县南,今安徽省桐城县南,Single,[{'county': 340881}],County,[],['安徽'],['安庆'],['桐城'],南,POINT (116.93379364650234 30.823140315051393),116.93379364650234,30.823140315051393
24.0,钟离,安徽省凤阳县东北临淮关,安徽省凤阳县东北临淮关,Single,[{'county': 341126}],County,[],['安徽'],['滁州'],['凤阳'],,POINT (117.6495453769205 32.83467915504201),117.6495453769205,32.83467915504201
25.0,阴大夫,湖北省老河口北,湖北省老河口北,Single,[{'county': 420682}],County,[],['湖北'],['襄阳'],['老河口'],北,POINT (111.67915287960474 32.57991280275441),111.67915287960474,32.57991280275441
25.0,阴县,湖北省老河口北,湖北省老河口北,Single,[{'county': 420682}],County,[],['湖北'],['襄阳'],['老河口'],北,POINT (111.67915287960474 32.57991280275441),111.67915287960474,32.57991280275441
26.0,棠县,江苏省六合县西北,江苏省六合县西北,Single,[{'county': 320116}],County,[],['江苏'],['南京'],['六合'],西北,POINT (118.71752407656504 32.498889905780764),118.71752407656504,32.498889905780764
27.0,武城,河南省信阳市东北,河南省信阳市东北,Single,[{'city': 4115}],City,[],['河南'],['信阳'],['NA'],东北,POINT (115.39159126051227 32.36658840647766),115.39159126051227,32.36658840647766
27.0,春秋原属申地,河南省南阳市北,河南省南阳市北,Single,[{'city': 4113}],City,[],['河南'],['南阳'],['NA'],北,POINT (112.12320534830717 33.41761455282723),112.12320534830717,33.41761455282723
27.0,楚武城,河南省南阳市北,河南省南阳市北,Single,[{'city': 4113}],City,[],['河南'],['南阳'],['NA'],北,POINT (112.12320534830717 33.41761455282723),112.12320534830717,33.41761455282723
28.0,蓝县,成臼附近,成臼附近,Single,[],0,['No Match'],[],[],[],,,,
28.0,蓝田,钟祥县西北,钟祥县西北,Single,[{'county': 420881}],County,[],['湖北'],['荆门'],['钟祥'],西北,POINT (112.37189480732293 31.431744100521637),112.37189480732293,31.431744100521637
29.0,苦县,河南省鹿邑县东,河南省鹿邑县东,Single,[{'county': 411628}],County,[],['河南'],['周口'],['鹿邑'],东,POINT (115.48040847576172 33.91043560581133),115.48040847576172,33.91043560581133
29.0,相县,安徽省濉溪县西北,安徽省濉溪县西北,Single,[{'county': 340621}],County,[],['安徽'],['淮北'],['濉溪'],西北,POINT (116.57588881152267 33.823552352605766),116.57588881152267,33.823552352605766
30.0,荀,山西省新绛县东北,山西省新绛县东北,Single,[{'county': 140825}],County,[],['山西'],['运城'],['新绛'],东北,POINT (111.20247282747283 35.707862053057),111.20247282747283,35.707862053057
30.0,郇,山西省新绛县东北,山西省新绛县东北,Single,[{'county': 140825}],County,[],['山西'],['运城'],['新绛'],东北,POINT (111.20247282747283 35.707862053057),111.20247282747283,35.707862053057
31.0,耿,山西省河津县东南,山西省河津县东南,Single,[{'county': 140882}],County,[],['山西'],['运城'],['河津'],东南,POINT (110.7599363290082 35.58005417864533),110.7599363290082,35.58005417864533
31.0,魏,山西省芮城县北,山西省芮城县北,Single,[{'county': 140830}],County,[],['山西'],['运城'],['芮城'],北,POINT (110.66919711236908 34.77537845002612),110.66919711236908,34.77537845002612
32.0,州,河南省温县东北,河南省温县东北,Single,[{'province': 41}],Province,[],['河南'],['NA'],['NA'],东北,POINT (114.2408925853659 35.1259759898753),114.2408925853659,35.1259759898753
32.0,温,河南省温县,河南省温县,Single,[{'province': 41}],Province,[],['河南'],['NA'],['NA'],,POINT (113.12381458489415 33.90583689978037),113.12381458489415,33.90583689978037
32.0,原,河南省温县,河南省温县,Single,[{'province': 41}],Province,[],['河南'],['NA'],['NA'],,POINT (113.12381458489415 33.90583689978037),113.12381458489415,33.90583689978037
32.0,陉,河南省温县,河南省温县,Single,[{'province': 41}],Province,[],['河南'],['NA'],['NA'],,POINT (113.12381458489415 33.90583689978037),113.12381458489415,33.90583689978037
33.0,原,河南省济源市西北,河南省济源市西北,Single,[{'county': 419001}],County,[],['河南'],['直辖级行政单位'],['济源'],西北,POINT (112.24865016245404 35.16917817701757),112.24865016245404,35.16917817701757
33.0,温,未提及,未提及,Single,[],0,['No Match'],[],[],[],,,,
33.0,樊,未提及,未提及,Single,[],0,['No Match'],[],[],[],,,,
33.0,隰郕,未提及,未提及,Single,[],0,['No Match'],[],[],[],,,,
33.0,楼茅,未提及,未提及,Single,[],0,['No Match'],[],[],[],,,,
33.0,向,未提及,未提及,Single,[],0,['No Match'],[],[],[],,,,
33.0,盟,未提及,未提及,Single,[],0,['No Match'],[],[],[],,,,
33.0,州,未提及,未提及,Single,[],0,['No Match'],[],[],[],,,,
33.0,陉,未提及,未提及,Single,[],0,['No Match'],[],[],[],,,,
33.0,怀,未提及,未提及,Single,[],0,['No Match'],[],[],[],,,,
34.0,温,河南省温县西南,河南省温县西南,Single,[{'province': 41}],Province,[],['河南'],['NA'],['NA'],西南,POINT (112.38335199586187 33.07547364435473),112.38335199586187,33.07547364435473
35.0,阳樊,河南省济源市西南,河南省济源市西南,Single,[{'county': 419001}],County,[],['河南'],['直辖级行政单位'],['济源'],西南,POINT (112.25871332697655 35.0338132617584),112.25871332697655,35.0338132617584
36.0,欑茅,河南省修武县北,河南省修武县北,Single,[{'county': 410821}],County,[],['河南'],['焦作'],['修武'],北,POINT (113.3294711579739 35.424176774497866),113.3294711579739,35.424176774497866
36.0,絺,河南省沁阳市西南,河南省沁阳市西南,Single,[{'county': 410882}],County,[],['河南'],['焦作'],['沁阳'],西南,POINT (112.81423673236438 35.0805427573925),112.81423673236438,35.0805427573925
36.0,陉,河南省沁阳市西北,河南省沁阳市西北,Single,[{'county': 410882}],County,[],['河南'],['焦作'],['沁阳'],西北,POINT (112.82207243327667 35.1899388821775),112.82207243327667,35.1899388821775
37.0,阳樊,南阳,南阳,Single,[{'city': 4113}],City,[],['河南'],['南阳'],['NA'],,POINT (112.17181874534914 33.04812010799885),112.17181874534914,33.04812010799885
37.0,温,温县,温县,Single,[{'county': 410825}],County,[],['河南'],['焦作'],['温县'],,POINT (113.04913907377642 34.950776520252376),113.04913907377642,34.950776520252376
37.0,原,原阳,原阳,Single,[{'county': 410725}],County,[],['河南'],['新乡'],['原阳'],,POINT (113.93573852377787 35.02307544697928),113.93573852377787,35.02307544697928
37.0,州,州县,州县,Single,[],0,['No Match'],[],[],[],,,,
37.0,陉,陉县,陉县,Single,[],0,['No Match'],[],[],[],,,,
37.0,鉏,滑县,滑县,Single,[{'county': 410526}],County,[],['河南'],['安阳'],['滑县'],,POINT (114.68738985878632 35.453364984471946),114.68738985878632,35.453364984471946
39.0,瑕,河南省灵宝市西北,河南省灵宝市西北,Single,[{'county': 411282}],County,[],['河南'],['三门峡'],['灵宝'],西北,POINT (110.56884012103086 34.556329794168036),110.56884012103086,34.556329794168036
39.0,瑕县,河南省灵宝市西北,河南省灵宝市西北,Single,[{'county': 411282}],County,[],['河南'],['三门峡'],['灵宝'],西北,POINT (110.56884012103086 34.556329794168036),110.56884012103086,34.556329794168036
40.0,阴地,今河南省卢氏县东北之阴地城,今河南省卢氏县东北之阴地城,Single,[{'county': 411224}],County,[],['河南'],['三门峡'],['卢氏'],,POINT (111.0004383954327 33.98005790891679),111.0004383954327,33.98005790891679
41.0,瓜衍之县,山西省孝义市北,山西省孝义市北,Single,[{'county': 141181}],County,[],['山西'],['吕梁'],['孝义'],北,POINT (111.47384774708357 37.21328035235951),111.47384774708357,37.21328035235951
41.0,瓜城,山西省孝义市北,山西省孝义市北,Single,[{'county': 141181}],County,[],['山西'],['吕梁'],['孝义'],北,POINT (111.47384774708357 37.21328035235951),111.47384774708357,37.21328035235951
42.0,邢丘,河南省温县东北,河南省温县东北,Single,[{'province': 41}],Province,[],['河南'],['NA'],['NA'],东北,POINT (114.2408925853659 35.1259759898753),114.2408925853659,35.1259759898753
42.0,邢侯,河北省邢台市的古邢国,河北省邢台市的古邢国,Single,[{'city': 1305}],City,[],['河北'],['邢台'],['NA'],,POINT (114.82253987107651 37.274786795832874),114.82253987107651,37.274786795832874
43.0,长子,山西省长子县,山西省长子县,Single,[{'county': 140428}],County,[],['山西'],['长治'],['长子'],,POINT (112.74548932043358 36.09314690176834),112.74548932043358,36.09314690176834
43.0,纯留,山西省屯留县,山西省屯留县,Single,[{'county': 140405}],County,[],['山西'],['长治'],['屯留'],,POINT (112.74356974425842 36.371722926534865),112.74356974425842,36.371722926534865
44.0,绛,山西省翼城县东南,山西省翼城县东南,Single,[{'county': 141022}],County,[],['山西'],['临汾'],['翼城'],东南,POINT (111.90592411773997 35.548739989585414),111.90592411773997,35.548739989585414
44.0,绛,山西省侯马市西,山西省侯马市西,Single,[{'county': 141081}],County,[],['山西'],['临汾'],['侯马'],西,POINT (111.32840256273724 35.590361031085344),111.32840256273724,35.590361031085344
45.0,任县,河北省任县东南,河北省任县东南,Single,[{'province': 13}],Province,[],['河北'],['NA'],['NA'],东南,POINT (116.90211093871565 38.376611222714985),116.90211093871565,38.376611222714985
45.0,邢,未mentionedinthetext,未mentionedinthetext,Single,[],0,['No Match'],[],[],[],,,,
45.0,栾,未mentionedinthetext,未mentionedinthetext,Single,[],0,['No Match'],[],[],[],,,,
45.0,鄗,未mentionedinthetext,未mentionedinthetext,Single,[],0,['No Match'],[],[],[],,,,
45.0,逆,未mentionedinthetext,未mentionedinthetext,Single,[],0,['No Match'],[],[],[],,,,
45.0,阴人,未mentionedinthetext,未mentionedinthetext,Single,[],0,['No Match'],[],[],[],,,,
45.0,盂,未mentionedinthetext,未mentionedinthetext,Single,[],0,['No Match'],[],[],[],,,,
45.0,壶口,未mentionedinthetext,未mentionedinthetext,Single,[],0,['No Match'],[],[],[],,,,
46.0,中牟,河南省鹤壁市西,河南省鹤壁市西,Single,[{'city': 4106}],City,[],['河南'],['鹤壁'],['NA'],西,POINT (114.1725383820197 35.747500848241565),114.1725383820197,35.747500848241565
46.0,中牟,河南省中牟县东,河南省中牟县东,Single,[{'county': 410122}],County,[],['河南'],['郑州'],['中牟'],东,POINT (114.07966945428443 34.71724675085047),114.07966945428443,34.71724675085047
48.0,邬县,山西省介休市东北,山西省介休市东北,Single,[{'county': 140781}],County,[],['山西'],['晋中'],['介休'],东北,POINT (112.07477141384096 37.07439019662411),112.07477141384096,37.07439019662411
48.0,祁县,山西省祁县东南,山西省祁县东南,Single,[{'province': 14}],Province,[],['山西'],['NA'],['NA'],东南,POINT (112.64187264646688 36.390949605828496),112.64187264646688,36.390949605828496
48.0,平陵县,山西省文水县东北,山西省文水县东北,Single,[{'county': 141121}],County,[],['山西'],['吕梁'],['文水'],东北,POINT (112.02127509577322 37.50193460664111),112.02127509577322,37.50193460664111
48.0,梗阳县,山西省清徐县,山西省清徐县,Single,[{'county': 140121}],County,[],['山西'],['太原'],['清徐'],,POINT (112.2845892641352 37.61884260531369),112.2845892641352,37.61884260531369
48.0,涂水县,山西省榆次市西南,山西省榆次市西南,Single,[{'county': 140702}],County,[],['山西'],['晋中'],['榆次'],西南,POINT (112.71009031377348 37.580502346661085),112.71009031377348,37.580502346661085
48.0,马首县,山西省寿阳县东南,山西省寿阳县东南,Single,[{'county': 140725}],County,[],['山西'],['晋中'],['寿阳'],东南,POINT (113.23133055966106 37.67516179636428),113.23133055966106,37.67516179636428
48.0,孟县,山西省阳曲县东北,山西省阳曲县东北,Single,[{'county': 140122}],County,[],['山西'],['太原'],['阳曲'],东北,POINT (112.93071204824423 38.2796541976855),112.93071204824423,38.2796541976855
49.0,铜鞮,山西省沁县南,山西省沁县南,Single,[{'province': 14}],Province,[],['山西'],['NA'],['NA'],南,POINT (112.09945586242732 36.112284626374795),112.09945586242732,36.112284626374795
49.0,平阳,山西省临汾市西南,山西省临汾市西南,Single,[{'city': 1410}],City,[],['山西'],['临汾'],['NA'],西南,POINT (110.95940596277902 35.870585002971154),110.95940596277902,35.870585002971154
49.0,杨,山西省洪洞县东南,山西省洪洞县东南,Single,[{'county': 141024}],County,[],['山西'],['临汾'],['洪洞'],东南,POINT (111.76632294684723 36.20937614108381),111.76632294684723,36.20937614108381
50.0,邯郸,河北省邯郸市,河北省邯郸市,Single,[{'city': 1304}],City,[],['河北'],['邯郸'],['NA'],,POINT (114.4378076382752 36.52042550360742),114.4378076382752,36.52042550360742
51.0,原县,河南省济原市西北,河南省济原市西北,Single,[{'province': 41}],Province,[],['河南'],['NA'],['NA'],西北,POINT (112.62221753366683 34.89199036175254),112.62221753366683,34.89199036175254
51.0,冀,山西省河津县东北,山西省河津县东北,Single,[{'county': 140882}],County,[],['山西'],['运城'],['河津'],东北,POINT (110.75907676603538 35.67038169692568),110.75907676603538,35.67038169692568
52.0,甘县,河南省洛阳市南,河南省洛阳市南,Single,[{'city': 4103}],City,[],['河南'],['洛阳'],['NA'],南,POINT (111.89765241251301 33.93810524805977),111.89765241251301,33.93810524805977
53.0,邽县,甘肃省天水市,甘肃省天水市,Single,[{'city': 6205}],City,[],['甘肃'],['天水'],['NA'],,POINT (105.56274238051873 34.60741068424415),105.56274238051873,34.60741068424415
53.0,冀县,甘肃省甘谷县,甘肃省甘谷县,Single,[{'county': 620523}],County,[],['甘肃'],['天水'],['甘谷'],,POINT (105.28859833910805 34.78318052698069),105.28859833910805,34.78318052698069
53.0,杜县,陕西省西安市南,陕西省西安市南,Single,[{'city': 6101}],City,[],['陕西'],['西安'],['NA'],南,POINT (108.65098194791896 33.91365067571057),108.65098194791896,33.91365067571057
53.0,郑县,陕西省华县,陕西省华县,Single,[{'province': 61}],Province,[],['陕西'],['NA'],['NA'],,POINT (109.56737398447608 35.637090531250415),109.56737398447608,35.637090531250415
53.0,上邽,甘肃省天水市,甘肃省天水市,Single,[{'city': 6205}],City,[],['甘肃'],['天水'],['NA'],,POINT (105.56274238051873 34.60741068424415),105.56274238051873,34.60741068424415
53.0,下邽,陕西省渭南市北,陕西省渭南市北,Single,[{'city': 6105}],City,[],['陕西'],['渭南'],['NA'],北,POINT (110.00285855788006 35.40464219324823),110.00285855788006,35.40464219324823
53.0,虢县,陕西省宝鸡县西,陕西省宝鸡县西,Single,[{'city': 6103}],City,[],['陕西'],['宝鸡'],['NA'],西,POINT (106.94687429694063 34.34824100419983),106.94687429694063,34.34824100419983
54.0,叔夷釐邑,莱城,莱城,Single,[],0,['No Match'],[],[],[],,,,
54.0,千家之县,晏子所得之县,晏子所得之县,Single,[],0,['No Match'],[],[],[],,,,
54.0,棠县,山东省平度市东南,山东省平度市东南,Single,[{'county': 370283}],County,[],['山东'],['青岛'],['平度'],东南,POINT (120.07941971168003 36.63274007390064),120.07941971168003,36.63274007390064
54.0,临菑,山东省临沂市,山东省临沂市,Single,[{'city': 3713}],City,[],['山东'],['临沂'],['NA'],,POINT (118.3207752170233 35.31748172630456),118.3207752170233,35.31748172630456
55.0,朱方,江苏省镇江市东南,江苏省镇江市东南,Single,[{'city': 3211}],City,[],['江苏'],['镇江'],['NA'],东南,POINT (119.63161464661293 31.87821961962365),119.63161464661293,31.87821961962365
55.0,卑梁,安徽省天长市西北,安徽省天长市西北,Single,[{'county': 341181}],County,[],['安徽'],['滁州'],['天长'],西北,POINT (118.900476981971 32.86288275409928),118.900476981971,32.86288275409928
57.0,阳翟县,河南省新乡市辉县市,河南省新乡市辉县市,Single,[{'city': 4107}],City,[],['河南'],['新乡'],['NA'],,POINT (113.94680988806608 35.35738055830492),113.94680988806608,35.35738055830492
57.0,栎,河南省新乡市辉县市,河南省新乡市辉县市,Single,[{'city': 4107}],City,[],['河南'],['新乡'],['NA'],,POINT (113.94680988806608 35.35738055830492),113.94680988806608,35.35738055830492
58.0,营丘,山东省淄博市临淄北,山东省淄博市临淄北,Single,[{'county': 370305}],County,[],['山东'],['淄博'],['临淄'],北,POINT (118.34108450023777 36.94218593262121),118.34108450023777,36.94218593262121
58.0,临淄,山东省淄博市临淄,山东省淄博市临淄,Single,[{'county': 370305}],County,[],['山东'],['淄博'],['临淄'],,POINT (118.30075868584656 36.814193981188346),118.30075868584656,36.814193981188346
59.0,高唐,山东省高唐县,山东省高唐县,Single,[{'county': 371526}],County,[],['山东'],['聊城'],['高唐'],,POINT (116.23819619333227 36.851061775997245),116.23819619333227,36.851061775997245
60.0,酅邑,山东省淄博市东北,山东省淄博市东北,Single,[{'city': 3703}],City,[],['山东'],['淄博'],['NA'],东北,POINT (118.26825979565075 36.84534044816272),118.26825979565075,36.84534044816272
60.0,安平,山东省淄博市东北,山东省淄博市东北,Single,[{'city': 3703}],City,[],['山东'],['淄博'],['NA'],东北,POINT (118.26825979565075 36.84534044816272),118.26825979565075,36.84534044816272
61.0,阿,山东省甄城县北,山东省甄城县北,Single,[{'province': 37}],Province,[],['山东'],['NA'],['NA'],北,POINT (117.6629541208103 37.30357282776841),117.6629541208103,37.30357282776841
61.0,甄,山东省甄城县北,山东省甄城县北,Single,[{'province': 37}],Province,[],['山东'],['NA'],['NA'],北,POINT (117.6629541208103 37.30357282776841),117.6629541208103,37.30357282776841
62.0,即墨,山东省平度市东南,山东省平度市东南,Single,[{'county': 370283}],County,[],['山东'],['青岛'],['平度'],东南,POINT (120.07941971168003 36.63274007390064),120.07941971168003,36.63274007390064
62.0,阿,山东省阳谷县东北阿城镇,山东省阳谷县东北阿城镇,Single,[{'county': 371521}],County,[],['山东'],['聊城'],['阳谷'],,POINT (115.89178613584865 36.133166695453625),115.89178613584865,36.133166695453625
63.0,南武城,山东省平邑县东南故县,山东省平邑县东南故县,Single,[{'county': 371326}],County,[],['山东'],['临沂'],['平邑'],,POINT (117.68297262988364 35.44084021918496),117.68297262988364,35.44084021918496
64.0,薛,山东省滕州市南,山东省滕州市南,Single,[{'county': 370481}],County,[],['山东'],['枣庄'],['滕州'],南,POINT (117.17205515742648 34.95714440098712),117.17205515742648,34.95714440098712
66.0,蒙,河南省商丘市东北,河南省商丘市东北,Single,[{'city': 4114}],City,[],['河南'],['商丘'],['NA'],东北,POINT (115.95829282515403 34.421396421455995),115.95829282515403,34.421396421455995
66.0,宋,河南省商丘市,河南省商丘市,Single,[{'city': 4114}],City,[],['河南'],['商丘'],['NA'],,POINT (115.72921911756409 34.27955701910716),115.72921911756409,34.27955701910716
67.0,昌城,山东省淄博市东南昌城,山东省淄博市东南昌城,Single,[{'city': 3703}],City,[],['山东'],['淄博'],['NA'],,POINT (117.96631730640821 36.61950115673082),117.96631730640821,36.61950115673082
68.0,聊城,山东省聊城市西北,山东省聊城市西北,Single,[{'city': 3715}],City,[],['山东'],['聊城'],['NA'],西北,POINT (115.68673769671018 36.7172137829766),115.68673769671018,36.7172137829766
70.0,夜邑,山东省莱州市,山东省莱州市,Single,[{'county': 370683}],County,[],['山东'],['烟台'],['莱州'],,POINT (120.09701381208772 37.238441347532564),120.09701381208772,37.238441347532564
71.0,齐县,山东省沂源县东南,山东省沂源县东南,Single,[{'county': 370323}],County,[],['山东'],['淄博'],['沂源'],东南,POINT (118.33226210224501 36.06688060334014),118.33226210224501,36.06688060334014
72.0,平陆,山东省汶上县北,山东省汶上县北,Single,[{'county': 370830}],County,[],['山东'],['济宁'],['汶上'],北,POINT (116.59295916413201 35.83149372436495),116.59295916413201,35.83149372436495
73.0,平陵县,山东省济南市历城区境内,山东省济南市历城区境内,Single,[{'county': 370112}],County,[],['山东'],['济南'],['历城'],,POINT (117.26284260196135 36.60358954347619),117.26284260196135,36.60358954347619
75.0,安阳,山东阳谷东北,山东阳谷东北,Single,[{'county': 371521}],County,[],['山东'],['聊城'],['阳谷'],东北,POINT (115.97938892166233 36.21495568836853),115.97938892166233,36.21495568836853
76.0,易（阳）,山东省沂水县,山东省沂水县,Single,[{'county': 371323}],County,[],['山东'],['临沂'],['沂水'],,POINT (118.50274072351553 35.906359354284675),118.50274072351553,35.906359354284675
76.0,高密,高密县,高密县,Single,[{'county': 370785}],County,[],['山东'],['潍坊'],['高密'],,POINT (119.70108136939798 36.421014492616436),119.70108136939798,36.421014492616436
76.0,平阿,平阿县,平阿县,Single,[],0,['No Match'],[],[],[],,,,
76.0,平陆,平陆县,平陆县,Single,[{'county': 140829}],County,[],['山西'],['运城'],['平陆'],,POINT (111.25096355141771 34.8659856232955),111.25096355141771,34.8659856232955
77.0,平阳,山西省临汾市西南,山西省临汾市西南,Single,[{'city': 1410}],City,[],['山西'],['临汾'],['NA'],西南,POINT (110.95940596277902 35.870585002971154),110.95940596277902,35.870585002971154
78.0,杨氏县,山西省洪洞县东南,山西省洪洞县东南,Single,[{'county': 141024}],County,[],['山西'],['临汾'],['洪洞'],东南,POINT (111.76632294684723 36.20937614108381),111.76632294684723,36.20937614108381
78.0,长子县,山西省长子县西南,山西省长子县西南,Single,[{'county': 140428}],County,[],['山西'],['长治'],['长子'],西南,POINT (112.73588058097123 36.03588163416039),112.73588058097123,36.03588163416039
79.0,铜鞮,山西省沁县南,山西省沁县南,Single,[{'province': 14}],Province,[],['山西'],['NA'],['NA'],南,POINT (112.09945586242732 36.112284626374795),112.09945586242732,36.112284626374795
80.0,屯留,山西省屯留县南,山西省屯留县南,Single,[{'county': 140405}],County,[],['山西'],['长治'],['屯留'],南,POINT (112.76341635271271 36.273786173312786),112.76341635271271,36.273786173312786
80.0,端氏,未提及,未提及,Single,[],0,['No Match'],[],[],[],,,,
81.0,京,河南省荥阳市东南,河南省荥阳市东南,Single,[{'county': 410182}],County,[],['河南'],['郑州'],['荥阳'],东南,POINT (113.42570874873445 34.69745552403848),113.42570874873445,34.69745552403848
81.0,郑邑,河南省荥阳市东南,河南省荥阳市东南,Single,[{'county': 410182}],County,[],['河南'],['郑州'],['荥阳'],东南,POINT (113.42570874873445 34.69745552403848),113.42570874873445,34.69745552403848
81.0,雍丘,未提及,未提及,Single,[],0,['No Match'],[],[],[],,,,
81.0,郑城,未提及,未提及,Single,[],0,['No Match'],[],[],[],,,,
83.0,邢丘,河南省温县东平皋故城,河南省温县东平皋故城,Single,"[{'county': 131126}, {'county': 370923}, {'province': 41}]",Province,['Multiple Matches'],"['河南', '河北', '山东']","['泰安', '衡水', 'NA']","['东平', 'NA', '故城']",,,,
84.0,卢氏令戈,河南省卢氏县,河南省卢氏县,Single,[{'county': 411224}],County,[],['河南'],['三门峡'],['卢氏'],,POINT (111.0004383954327 33.98005790891679),111.0004383954327,33.98005790891679
84.0,卢氏城,河南省卢氏县,河南省卢氏县,Single,[{'county': 411224}],County,[],['河南'],['三门峡'],['卢氏'],,POINT (111.0004383954327 33.98005790891679),111.0004383954327,33.98005790891679
85.0,新城,河南省伊川县西南,河南省伊川县西南,Single,[{'county': 410329}],County,[],['河南'],['洛阳'],['伊川'],西南,POINT (112.29961447646306 34.31849299958165),112.29961447646306,34.31849299958165
86.0,路,山西省潞城县东北,山西省潞城县东北,Single,[{'county': 140406}],County,[],['山西'],['长治'],['潞城'],东北,POINT (113.31632415797239 36.425033462075554),113.31632415797239,36.425033462075554
86.0,涉,河北省涉县西北,河北省涉县西北,Single,[{'province': 13}],Province,[],['河北'],['NA'],['NA'],西北,POINT (115.09836581648145 40.88935914713104),115.09836581648145,40.88935914713104
86.0,端氏,山西省沁水县东,山西省沁水县东,Single,[{'county': 140521}],County,[],['山西'],['晋城'],['沁水'],东,POINT (112.53527074770693 35.79934202979413),112.53527074770693,35.79934202979413
87.0,修鱼县,今河南原武县东,今河南原武县东,Single,[{'province': 41}],Province,[],['河南'],['NA'],['NA'],东,POINT (114.61564810249254 33.87105993080234),114.61564810249254,33.87105993080234
87.0,修鱼,今河南原武县东,今河南原武县东,Single,[{'province': 41}],Province,[],['河南'],['NA'],['NA'],东,POINT (114.61564810249254 33.87105993080234),114.61564810249254,33.87105993080234
88.0,宜阳,河南省宜阳县西,河南省宜阳县西,Single,[{'county': 410327}],County,[],['河南'],['洛阳'],['宜阳'],西,POINT (111.90286136797484 34.49243289401025),111.90286136797484,34.49243289401025
88.0,上党,河南省宜阳县西,河南省宜阳县西,Single,[{'county': 410327}],County,[],['河南'],['洛阳'],['宜阳'],西,POINT (111.90286136797484 34.49243289401025),111.90286136797484,34.49243289401025
88.0,南阳,河南省宜阳县西,河南省宜阳县西,Single,[{'county': 410327}],County,[],['河南'],['洛阳'],['宜阳'],西,POINT (111.90286136797484 34.49243289401025),111.90286136797484,34.49243289401025
90.0,皋落,山西垣曲县东南,山西垣曲县东南,Single,[{'county': 140827}],County,[],['山西'],['运城'],['垣曲'],东南,POINT (111.95521302567842 35.17184774783355),111.95521302567842,35.17184774783355
90.0,皋落大令,山西垣曲县,山西垣曲县,Single,[{'county': 140827}],County,[],['山西'],['运城'],['垣曲'],,POINT (111.80516116376023 35.22620962544064),111.80516116376023,35.22620962544064
92.0,洱阳,河南商水县附近,河南商水县附近,Single,[{'county': 411623}],County,[],['河南'],['周口'],['商水'],,POINT (114.56711373902762 33.50685568805108),114.56711373902762,33.50685568805108
92.0,汝阳,河南商水县附近,河南商水县附近,Single,[{'county': 411623}],County,[],['河南'],['周口'],['商水'],,POINT (114.56711373902762 33.50685568805108),114.56711373902762,33.50685568805108
93.0,野王,河南省沁阳市,河南省沁阳市,Single,[{'county': 410882}],County,[],['河南'],['焦作'],['沁阳'],,POINT (112.8569483953425 35.141146880639134),112.8569483953425,35.141146880639134
95.0,仑氏,河南登封县西南,河南登封县西南,Single,[{'county': 410185}],County,[],['河南'],['郑州'],['登封'],西南,POINT (112.89006335310043 34.35856422730103),112.89006335310043,34.35856422730103
95.0,纶氏,河南登封县西南,河南登封县西南,Single,[{'county': 410185}],County,[],['河南'],['郑州'],['登封'],西南,POINT (112.89006335310043 34.35856422730103),112.89006335310043,34.35856422730103
95.0,韩县,河南登封县西南,河南登封县西南,Single,[{'county': 410185}],County,[],['河南'],['郑州'],['登封'],西南,POINT (112.89006335310043 34.35856422730103),112.89006335310043,34.35856422730103
96.0,阳翟,河南省禹州市,河南省禹州市,Single,[{'county': 411081}],County,[],['河南'],['许昌'],['禹州'],,POINT (113.35347176959424 34.20811326763051),113.35347176959424,34.20811326763051
96.0,栎邑,河南省禹州市,河南省禹州市,Single,[{'county': 411081}],County,[],['河南'],['许昌'],['禹州'],,POINT (113.35347176959424 34.20811326763051),113.35347176959424,34.20811326763051
96.0,平阳,河南省禹州市,河南省禹州市,Single,[{'county': 411081}],County,[],['河南'],['许昌'],['禹州'],,POINT (113.35347176959424 34.20811326763051),113.35347176959424,34.20811326763051
97.0,阳人县,河南汝州市西,河南汝州市西,Single,[{'county': 410482}],County,[],['河南'],['平顶山'],['汝州'],西,POINT (112.7053794168898 34.140917534817284),112.7053794168898,34.140917534817284
99.0,格氏县,河南荣阳北,河南荣阳北,Single,[{'province': 41}],Province,[],['河南'],['NA'],['NA'],北,POINT (113.46008715066654 35.15062894004727),113.46008715066654,35.15062894004727
99.0,安阳县,安阳,安阳,Single,[{'city': 4105}],City,[],['河南'],['安阳'],['NA'],,POINT (113.91732584485518 35.79206679246907),113.91732584485518,35.79206679246907
99.0,彘县,彘,彘,Single,[],0,['No Match'],[],[],[],,,,
99.0,雍氏县,雍氏,雍氏,Single,[],0,['No Match'],[],[],[],,,,
99.0,阳城县,阳城,阳城,Single,[{'county': 140522}],County,[],['山西'],['晋城'],['阳城'],,POINT (112.3564616316612 35.4637211164236),112.3564616316612,35.4637211164236
99.0,襄城县,襄城,襄城,Single,"[{'county': 411025}, {'county': 420602}]",County,['Multiple Matches'],"['湖北', '河南']","['襄阳', '许昌']",['襄城'],,,,
99.0,喜县,喜,喜,Single,[],0,['No Match'],[],[],[],,,,
99.0,壤阴县,壤阴,壤阴,Single,[],0,['No Match'],[],[],[],,,,
99.0,郎皋县,郎皋,郎皋,Single,[],0,['No Match'],[],[],[],,,,
99.0,涅县,涅,涅,Single,[],0,['No Match'],[],[],[],,,,
99.0,露县,露,露,Single,[],0,['No Match'],[],[],[],,,,
99.0,於正县,於正,於正,Single,[],0,['No Match'],[],[],[],,,,
99.0,来县,来,来,Single,[],0,['No Match'],[],[],[],,,,
99.0,邻县,邻,邻,Single,[],0,['No Match'],[],[],[],,,,
100.0,盂,山西省阳曲县东北,山西省阳曲县东北,Single,[{'county': 140122}],County,[],['山西'],['太原'],['阳曲'],东北,POINT (112.93071204824423 38.2796541976855),112.93071204824423,38.2796541976855
100.0,平陵,山西省文水县东北,山西省文水县东北,Single,[{'county': 141121}],County,[],['山西'],['吕梁'],['文水'],东北,POINT (112.02127509577322 37.50193460664111),112.02127509577322,37.50193460664111
101.0,梗阳,山西省清徐县,山西省清徐县,Single,[{'county': 140121}],County,[],['山西'],['太原'],['清徐'],,POINT (112.2845892641352 37.61884260531369),112.2845892641352,37.61884260531369
102.0,邬,山西省介休市东北,山西省介休市东北,Single,[{'county': 140781}],County,[],['山西'],['晋中'],['介休'],东北,POINT (112.07477141384096 37.07439019662411),112.07477141384096,37.07439019662411
103.0,涂水,山西省榆次市西南,山西省榆次市西南,Single,[{'county': 140702}],County,[],['山西'],['晋中'],['榆次'],西南,POINT (112.71009031377348 37.580502346661085),112.71009031377348,37.580502346661085
104.0,邯郸,河北省邯郸市,河北省邯郸市,Single,[{'city': 1304}],City,[],['河北'],['邯郸'],['NA'],,POINT (114.4378076382752 36.52042550360742),114.4378076382752,36.52042550360742
105.0,祁县,山西省祁县东南,山西省祁县东南,Single,[{'province': 14}],Province,[],['山西'],['NA'],['NA'],东南,POINT (112.64187264646688 36.390949605828496),112.64187264646688,36.390949605828496
106.0,中牟,河南省鹤壁市西,河南省鹤壁市西,Single,[{'city': 4106}],City,[],['河南'],['鹤壁'],['NA'],西,POINT (114.1725383820197 35.747500848241565),114.1725383820197,35.747500848241565
107.0,晋阳,山西省太原市西南,山西省太原市西南,Single,[{'city': 1401}],City,[],['山西'],['太原'],['NA'],西南,POINT (112.21284636381533 37.713281518326276),112.21284636381533,37.713281518326276
108.0,泫氏,山西省高平市,山西省高平市,Single,[{'county': 140581}],County,[],['山西'],['晋城'],['高平'],,POINT (112.90858072608525 35.82211306278013),112.90858072608525,35.82211306278013
109.0,平邑,山西省大同县东,山西省大同县东,Single,[{'city': 1402}],City,[],['山西'],['大同'],['NA'],东,POINT (113.91313429377253 39.90556964159731),113.91313429377253,39.90556964159731
111.0,番吾,河北省平山县东南,河北省平山县东南,Single,[{'county': 130131}],County,[],['河北'],['石家庄'],['平山'],东南,POINT (114.03149041417929 38.314312888660254),114.03149041417929,38.314312888660254
111.0,播吾,河北省平山县东南,河北省平山县东南,Single,[{'county': 130131}],County,[],['河北'],['石家庄'],['平山'],东南,POINT (114.03149041417929 38.314312888660254),114.03149041417929,38.314312888660254
115.0,榆次,山西省榆次市,山西省榆次市,Single,[{'county': 140702}],County,[],['山西'],['晋中'],['榆次'],,POINT (112.79977643532267 37.64636298028531),112.79977643532267,37.64636298028531
115.0,邯郸,赵国,赵国,Single,[],0,['No Match'],[],[],[],,,,
116.0,蔺,山西省离石县西,山西省离石县西,Single,[{'county': 141102}],County,[],['山西'],['吕梁'],['离石'],西,POINT (111.16422734681767 37.586583362886806),111.16422734681767,37.586583362886806
118.0,鄗,河北省柏乡县北,河北省柏乡县北,Single,[{'county': 130524}],County,[],['河北'],['邢台'],['柏乡'],北,POINT (114.72432306018162 37.595459628497046),114.72432306018162,37.595459628497046
120.0,代郡,河北省蔚县东北代王城,河北省蔚县东北代王城,Single,[{'province': 13}],Province,[],['河北'],['NA'],['NA'],,POINT (115.66941329497202 39.352186242076165),115.66941329497202,39.352186242076165
120.0,代县,河北省蔚县东北代王城,河北省蔚县东北代王城,Single,[{'province': 13}],Province,[],['河北'],['NA'],['NA'],,POINT (115.66941329497202 39.352186242076165),115.66941329497202,39.352186242076165
122.0,石邑,河北省获鹿县东南,河北省获鹿县东南,Single,[{'province': 13}],Province,[],['河北'],['NA'],['NA'],东南,POINT (116.90211093871565 38.376611222714985),116.90211093871565,38.376611222714985
122.0,中山邑,河北省获鹿县东南,河北省获鹿县东南,Single,[{'province': 13}],Province,[],['河北'],['NA'],['NA'],东南,POINT (116.90211093871565 38.376611222714985),116.90211093871565,38.376611222714985
122.0,封龙,Unknown,Unknown,Single,[],0,['No Match'],[],[],[],,,,
122.0,东垣,Unknown,Unknown,Single,[],0,['No Match'],[],[],[],,,,
123.0,云中,内蒙古自治区托克托县东北,内蒙古自治区托克托县东北,Single,[{'county': 150122}],County,[],['内蒙古'],['呼和浩特'],['托克托'],东北,POINT (111.3999107187298 40.44634337134528),111.3999107187298,40.44634337134528
123.0,赵县,内蒙古自治区托克托县东北,内蒙古自治区托克托县东北,Single,[{'county': 150122}],County,[],['内蒙古'],['呼和浩特'],['托克托'],东北,POINT (111.3999107187298 40.44634337134528),111.3999107187298,40.44634337134528
123.0,云中郡,内蒙古自治区托克托县东北,内蒙古自治区托克托县东北,Single,[{'county': 150122}],County,[],['内蒙古'],['呼和浩特'],['托克托'],东北,POINT (111.3999107187298 40.44634337134528),111.3999107187298,40.44634337134528
123.0,云中县,内蒙古自治区托克托县东北,内蒙古自治区托克托县东北,Single,[{'county': 150122}],County,[],['内蒙古'],['呼和浩特'],['托克托'],东北,POINT (111.3999107187298 40.44634337134528),111.3999107187298,40.44634337134528
123.0,赵云中县,内蒙古自治区托克托县东北,内蒙古自治区托克托县东北,Single,[{'county': 150122}],County,[],['内蒙古'],['呼和浩特'],['托克托'],东北,POINT (111.3999107187298 40.44634337134528),111.3999107187298,40.44634337134528
124.0,雁门郡,山西省右玉县南,山西省右玉县南,Single,[{'county': 140623}],County,[],['山西'],['朔州'],['右玉'],南,POINT (112.4166967253497 39.85280137508624),112.4166967253497,39.85280137508624
124.0,善无,山西省右玉县南,山西省右玉县南,Single,[{'county': 140623}],County,[],['山西'],['朔州'],['右玉'],南,POINT (112.4166967253497 39.85280137508624),112.4166967253497,39.85280137508624
126.0,南行唐,河北省行唐县东北,河北省行唐县东北,Single,[{'county': 130125}],County,[],['河北'],['石家庄'],['行唐'],东北,POINT (114.50958416363585 38.59820186111166),114.50958416363585,38.59820186111166
127.0,兹氏县,山西省汾阳南,山西省汾阳南,Single,[{'county': 141182}],County,[],['山西'],['吕梁'],['汾阳'],南,POINT (111.74457435494267 37.243478954368506),111.74457435494267,37.243478954368506
128.0,房子,防陵,防陵,Single,[],0,['No Match'],[],[],[],,,,
128.0,安阳,河南安阳西南,河南安阳西南,Single,[{'city': 4105}],City,[],['河南'],['安阳'],['NA'],西南,POINT (113.91732869845356 35.79192687294331),113.91732869845356,35.79192687294331
131.0,武垣县,今河北省肃宁县东南,今河北省肃宁县东南,Single,[{'county': 130926}],County,[],['河北'],['沧州'],['肃宁'],东南,POINT (115.96343126231967 38.36005547829433),115.96343126231967,38.36005547829433
132.0,元氏,河北省元氏县西北,河北省元氏县西北,Single,[{'county': 130132}],County,[],['河北'],['石家庄'],['元氏'],西北,POINT (114.3195516859289 37.85804582595422),114.3195516859289,37.85804582595422
132.0,上原,不详,不详,Single,[],0,['No Match'],[],[],[],,,,
133.0,邢县,河北邢台,河北邢台,Single,[{'city': 1305}],City,[],['河北'],['邢台'],['NA'],,POINT (114.82253987107651 37.274786795832874),114.82253987107651,37.274786795832874
133.0,赵国,河北邢台,河北邢台,Single,[{'city': 1305}],City,[],['河北'],['邢台'],['NA'],,POINT (114.82253987107651 37.274786795832874),114.82253987107651,37.274786795832874
134.0,新城,山西省朔州南,山西省朔州南,Single,[{'city': 1406}],City,[],['山西'],['朔州'],['NA'],南,POINT (112.54093306080638 39.35259770544631),112.54093306080638,39.35259770544631
135.0,狼孟县,山西省阳曲县,山西省阳曲县,Single,[{'county': 140122}],County,[],['山西'],['太原'],['阳曲'],,POINT (112.59400200885749 38.19680881518068),112.59400200885749,38.19680881518068
138.0,柏人,河北省隆尧县西,河北省隆尧县西,Single,[{'county': 130525}],County,[],['河北'],['邢台'],['隆尧'],西,POINT (114.6848694250169 37.40635604434601),114.6848694250169,37.40635604434601
140.0,平原津令,山东省平原县南,山东省平原县南,Single,[{'county': 371426}],County,[],['山东'],['德州'],['平原'],南,POINT (116.40039943129963 37.04393304820331),116.40039943129963,37.04393304820331
140.0,平原令,山东省平原县南,山东省平原县南,Single,[{'county': 371426}],County,[],['山东'],['德州'],['平原'],南,POINT (116.40039943129963 37.04393304820331),116.40039943129963,37.04393304820331
141.0,富昌,内蒙古自治区淮格尔旗,内蒙古自治区淮格尔旗,Single,[{'province': 15}],Province,[],['内蒙古'],['NA'],['NA'],,POINT (119.05918049571122 45.42294460800112),119.05918049571122,45.42294460800112
142.0,武平,文安县北,文安县北,Single,[{'county': 131026}],County,[],['河北'],['廊坊'],['文安'],北,POINT (116.51195935017674 38.97140040235287),116.51195935017674,38.97140040235287
142.0,赵县,文安县北,文安县北,Single,[{'county': 131026}],County,[],['河北'],['廊坊'],['文安'],北,POINT (116.51195935017674 38.97140040235287),116.51195935017674,38.97140040235287
144.0,南轮城,河北省赵县西北,河北省赵县西北,Single,[{'province': 13}],Province,[],['河北'],['NA'],['NA'],西北,POINT (115.09836581648145 40.88935914713104),115.09836581648145,40.88935914713104
144.0,商城,可能为赵县,可能为赵县,Single,[],0,['No Match'],[],[],[],,,,
144.0,商平,可能为赵县,可能为赵县,Single,[],0,['No Match'],[],[],[],,,,
144.0,中阳,可能为赵县,可能为赵县,Single,[],0,['No Match'],[],[],[],,,,
144.0,阳化,可能为赵县,可能为赵县,Single,[],0,['No Match'],[],[],[],,,,
144.0,阳丘,可能为赵县,可能为赵县,Single,[],0,['No Match'],[],[],[],,,,
144.0,阳邑,可能为赵县,可能为赵县,Single,[],0,['No Match'],[],[],[],,,,
144.0,武安,可能为赵县,可能为赵县,Single,[],0,['No Match'],[],[],[],,,,
144.0,西都,可能为赵县,可能为赵县,Single,[],0,['No Match'],[],[],[],,,,
144.0,平周,可能为赵县,可能为赵县,Single,[],0,['No Match'],[],[],[],,,,
144.0,平州,可能为赵县,可能为赵县,Single,[],0,['No Match'],[],[],[],,,,
144.0,寿阴,可能为赵县,可能为赵县,Single,[],0,['No Match'],[],[],[],,,,
144.0,虑虒,可能为赵县,可能为赵县,Single,[],0,['No Match'],[],[],[],,,,
144.0,虑虒半,可能为赵县,可能为赵县,Single,[],0,['No Match'],[],[],[],,,,
144.0,藿人,可能为赵县,可能为赵县,Single,[],0,['No Match'],[],[],[],,,,
144.0,大阴,可能为赵县,可能为赵县,Single,[],0,['No Match'],[],[],[],,,,
144.0,大阴半,可能为赵县,可能为赵县,Single,[],0,['No Match'],[],[],[],,,,
144.0,繁寺（止？）,可能为赵县,可能为赵县,Single,[],0,['No Match'],[],[],[],,,,
144.0,娄番（弁？）,可能为赵县,可能为赵县,Single,[],0,['No Match'],[],[],[],,,,
144.0,酆,可能为赵县,可能为赵县,Single,[],0,['No Match'],[],[],[],,,,
144.0,尹城,可能为赵县,可能为赵县,Single,[],0,['No Match'],[],[],[],,,,
144.0,平城,可能为赵县,可能为赵县,Single,[],0,['No Match'],[],[],[],,,,
144.0,椁（崞）,可能为赵县,可能为赵县,Single,[],0,['No Match'],[],[],[],,,,
144.0,邪（推邪？）,可能为赵县,可能为赵县,Single,[],0,['No Match'],[],[],[],,,,
144.0,奴邑（茹？）,可能为赵县,可能为赵县,Single,[],0,['No Match'],[],[],[],,,,
144.0,博,可能为赵县,可能为赵县,Single,[],0,['No Match'],[],[],[],,,,
144.0,平匋,可能为赵县,可能为赵县,Single,[],0,['No Match'],[],[],[],,,,
144.0,襄洹,可能为赵县,可能为赵县,Single,[],0,['No Match'],[],[],[],,,,
144.0,平襄,可能为赵县,可能为赵县,Single,[],0,['No Match'],[],[],[],,,,
144.0,郎,可能为赵县,可能为赵县,Single,[],0,['No Match'],[],[],[],,,,
144.0,成襄,可能为赵县,可能为赵县,Single,[],0,['No Match'],[],[],[],,,,
144.0,平阴,可能为赵县,可能为赵县,Single,[],0,['No Match'],[],[],[],,,,
144.0,鄩氏,可能为赵县,可能为赵县,Single,[],0,['No Match'],[],[],[],,,,
144.0,鄫,可能为赵县,可能为赵县,Single,[],0,['No Match'],[],[],[],,,,
144.0,隰城,可能为赵县,可能为赵县,Single,[],0,['No Match'],[],[],[],,,,
144.0,莆子,可能为赵县,可能为赵县,Single,[],0,['No Match'],[],[],[],,,,
144.0,奇氏,可能为赵县,可能为赵县,Single,[],0,['No Match'],[],[],[],,,,
144.0,盧阳,可能为赵县,可能为赵县,Single,[],0,['No Match'],[],[],[],,,,
144.0,平氏,可能为赵县,可能为赵县,Single,[],0,['No Match'],[],[],[],,,,
144.0,完（冠）阳（原阳）,可能为赵县,可能为赵县,Single,[],0,['No Match'],[],[],[],,,,
144.0,星阳（清阳）,可能为赵县,可能为赵县,Single,[],0,['No Match'],[],[],[],,,,
144.0,人也（任）,可能为赵县,可能为赵县,Single,[],0,['No Match'],[],[],[],,,,
144.0,氏金（泜）,可能为赵县,可能为赵县,Single,[],0,['No Match'],[],[],[],,,,
144.0,平于（平舒）,可能为赵县,可能为赵县,Single,[],0,['No Match'],[],[],[],,,,
144.0,沙乇（沙泽）,可能为赵县,可能为赵县,Single,[],0,['No Match'],[],[],[],,,,
144.0,干关（抨关）,可能为赵县,可能为赵县,Single,[],0,['No Match'],[],[],[],,,,
144.0,平阳,可能为赵县,可能为赵县,Single,[],0,['No Match'],[],[],[],,,,
144.0,邸,可能为赵县,可能为赵县,Single,[],0,['No Match'],[],[],[],,,,
144.0,北箕,可能为赵县,可能为赵县,Single,[],0,['No Match'],[],[],[],,,,
144.0,狋氏,可能为赵县,可能为赵县,Single,[],0,['No Match'],[],[],[],,,,
144.0,圁阳化,可能为赵县,可能为赵县,Single,[],0,['No Match'],[],[],[],,,,
144.0,阳新化,可能为赵县,可能为赵县,Single,[],0,['No Match'],[],[],[],,,,
144.0,成,可能为赵县,可能为赵县,Single,[],0,['No Match'],[],[],[],,,,
144.0,成白,可能为赵县,可能为赵县,Single,[],0,['No Match'],[],[],[],,,,
144.0,上（曲）阳,可能为赵县,可能为赵县,Single,[],0,['No Match'],[],[],[],,,,
144.0,下（曲）阳,可能为赵县,可能为赵县,Single,[],0,['No Match'],[],[],[],,,,
144.0,安阳,可能为赵县,可能为赵县,Single,[],0,['No Match'],[],[],[],,,,
144.0,家阳,可能为赵县,可能为赵县,Single,[],0,['No Match'],[],[],[],,,,
144.0,上尃（博）,可能为赵县,可能为赵县,Single,[],0,['No Match'],[],[],[],,,,
144.0,下尃（博）,可能为赵县,可能为赵县,Single,[],0,['No Match'],[],[],[],,,,
144.0,北九门,可能为赵县,可能为赵县,Single,[],0,['No Match'],[],[],[],,,,
144.0,五陉,可能为赵县,可能为赵县,Single,[],0,['No Match'],[],[],[],,,,
144.0,封氏,可能为赵县,可能为赵县,Single,[],0,['No Match'],[],[],[],,,,
144.0,新处,可能为赵县,可能为赵县,Single,[],0,['No Match'],[],[],[],,,,
144.0,王夸（望诸？）,可能为赵县,可能为赵县,Single,[],0,['No Match'],[],[],[],,,,
144.0,关,可能为赵县,可能为赵县,Single,[],0,['No Match'],[],[],[],,,,
144.0,宋子,可能为赵县,可能为赵县,Single,[],0,['No Match'],[],[],[],,,,
144.0,上艾,可能为赵县,可能为赵县,Single,[],0,['No Match'],[],[],[],,,,
144.0,平台,可能为赵县,可能为赵县,Single,[],0,['No Match'],[],[],[],,,,
144.0,凭,可能为赵县,可能为赵县,Single,[],0,['No Match'],[],[],[],,,,
144.0,邓（苏）阳,可能为赵县,可能为赵县,Single,[],0,['No Match'],[],[],[],,,,
144.0,邢,可能为赵县,可能为赵县,Single,[],0,['No Match'],[],[],[],,,,
144.0,鸾即（安次？）,可能为赵县,可能为赵县,Single,[],0,['No Match'],[],[],[],,,,
144.0,觱（即裴）,可能为赵县,可能为赵县,Single,[],0,['No Match'],[],[],[],,,,
144.0,安险（阴？、险？）,可能为赵县,可能为赵县,Single,[],0,['No Match'],[],[],[],,,,
144.0,大酉（扶柳）,可能为赵县,可能为赵县,Single,[],0,['No Match'],[],[],[],,,,
144.0,鄚（权）,可能为赵县,可能为赵县,Single,[],0,['No Match'],[],[],[],,,,
144.0,阿,可能为赵县,可能为赵县,Single,[],0,['No Match'],[],[],[],,,,
144.0,貍,可能为赵县,可能为赵县,Single,[],0,['No Match'],[],[],[],,,,
144.0,亲（新）处,可能为赵县,可能为赵县,Single,[],0,['No Match'],[],[],[],,,,
144.0,阳湔（原）,可能为赵县,可能为赵县,Single,[],0,['No Match'],[],[],[],,,,
144.0,余亡（吾）,可能为赵县,可能为赵县,Single,[],0,['No Match'],[],[],[],,,,
144.0,戏,可能为赵县,可能为赵县,Single,[],0,['No Match'],[],[],[],,,,
144.0,武阳,可能为赵县,可能为赵县,Single,[],0,['No Match'],[],[],[],,,,
144.0,战（沾？）,可能为赵县,可能为赵县,Single,[],0,['No Match'],[],[],[],,,,
145.0,温县,河南省温县西南,河南省温县西南,Single,[{'province': 41}],Province,[],['河南'],['NA'],['NA'],西南,POINT (112.38335199586187 33.07547364435473),112.38335199586187,33.07547364435473
145.0,魏县,河南省温县西南,河南省温县西南,Single,[{'province': 41}],Province,[],['河南'],['NA'],['NA'],西南,POINT (112.38335199586187 33.07547364435473),112.38335199586187,33.07547364435473
146.0,梁国,陕西省韩城市西南,陕西省韩城市西南,Single,[{'county': 610581}],County,[],['陕西'],['渭南'],['韩城'],西南,POINT (110.28670945861255 35.44652330299901),110.28670945861255,35.44652330299901
146.0,少梁,陕西省韩城市,陕西省韩城市,Single,[{'county': 610581}],County,[],['陕西'],['渭南'],['韩城'],,POINT (110.41935718979217 35.58934847946151),110.41935718979217,35.58934847946151
147.0,中山,大荔县西南洛河南岸,大荔县西南洛河南岸,Single,"[{'province': 41}, {'county': 500108}, {'county': 610523}]",County,['Multiple Matches'],"['重庆', '陕西', '河南']","['渭南', '重庆', 'NA']","['南岸', '大荔', 'NA']",,,,
147.0,郑,合阳县东南,合阳县东南,Single,[{'county': 610524}],County,[],['陕西'],['渭南'],['合阳'],东南,POINT (110.25855756336617 35.11933609995156),110.25855756336617,35.11933609995156
148.0,邺,河北省临漳县西南,河北省临漳县西南,Single,[{'county': 130423}],County,[],['河北'],['邯郸'],['临漳'],西南,POINT (114.54043843889552 36.1664834899153),114.54043843889552,36.1664834899153
150.0,苦陉,河北省无极县东北,河北省无极县东北,Single,[{'county': 130130}],County,[],['河北'],['石家庄'],['无极'],东北,POINT (115.03061283885097 38.240851236967664),115.03061283885097,38.240851236967664
150.0,中山国,河北省无极县东北,河北省无极县东北,Single,[{'county': 130130}],County,[],['河北'],['石家庄'],['无极'],东北,POINT (115.03061283885097 38.240851236967664),115.03061283885097,38.240851236967664
151.0,酸枣,河南省延津县西南,河南省延津县西南,Single,[{'county': 410726}],County,[],['河南'],['新乡'],['延津'],西南,POINT (114.12898741403053 35.20802338816831),114.12898741403053,35.20802338816831
152.0,承匡,河南省睢县西南匡城,河南省睢县西南匡城,Single,[{'province': 41}],Province,[],['河南'],['NA'],['NA'],,POINT (113.12381458489415 33.90583689978037),113.12381458489415,33.90583689978037
152.0,襄陵,河南省睢县西三十里,河南省睢县西三十里,Single,[{'province': 41}],Province,[],['河南'],['NA'],['NA'],,POINT (113.12381458489415 33.90583689978037),113.12381458489415,33.90583689978037
153.0,晋邑,山西省夏县西北,山西省夏县西北,Single,[{'province': 14}],Province,[],['山西'],['NA'],['NA'],西北,POINT (111.64957364419247 38.8746573162608),111.64957364419247,38.8746573162608
153.0,安邑,山西省夏县西北,山西省夏县西北,Single,[{'province': 14}],Province,[],['山西'],['NA'],['NA'],西北,POINT (111.64957364419247 38.8746573162608),111.64957364419247,38.8746573162608
153.0,王垣,山西省垣曲县东南,山西省垣曲县东南,Single,[{'county': 140827}],County,[],['山西'],['运城'],['垣曲'],东南,POINT (111.95521302567842 35.17184774783355),111.95521302567842,35.17184774783355
157.0,大梁,河南省开封市,河南省开封市,Single,[{'city': 4102}],City,[],['河南'],['开封'],['NA'],,POINT (114.5419159671769 34.64206516665747),114.5419159671769,34.64206516665747
158.0,绛,山西省侯马市西,山西省侯马市西,Single,[{'county': 141081}],County,[],['山西'],['临汾'],['侯马'],西,POINT (111.32840256273724 35.590361031085344),111.32840256273724,35.590361031085344
158.0,晋,山西省侯马市西,山西省侯马市西,Single,[{'county': 141081}],County,[],['山西'],['临汾'],['侯马'],西,POINT (111.32840256273724 35.590361031085344),111.32840256273724,35.590361031085344
161.0,济阳,今河南省兰考县东北,今河南省兰考县东北,Single,[{'county': 410225}],County,[],['河南'],['开封'],['兰考'],东北,POINT (115.09371727632293 34.94920963353568),115.09371727632293,34.94920963353568
162.0,㶏阴,今河南省沙河南岸自漯河市以东至周口市一带,今河南省沙河南岸自漯河市以东至周口市一带,Single,"[{'city': 4111}, {'city': 4116}]",City,['Multiple Matches'],['河南'],"['漯河', '周口']",['NA'],,,,
163.0,顿丘,河南浚县西,河南浚县西,Single,[{'province': 41}],Province,[],['河南'],['NA'],['NA'],西,POINT (112.11037058123645 34.10925978091684),112.11037058123645,34.10925978091684
163.0,卫邑,河南浚县西,河南浚县西,Single,[{'province': 41}],Province,[],['河南'],['NA'],['NA'],西,POINT (112.11037058123645 34.10925978091684),112.11037058123645,34.10925978091684
163.0,淇,河南浚县西,河南浚县西,Single,[{'province': 41}],Province,[],['河南'],['NA'],['NA'],西,POINT (112.11037058123645 34.10925978091684),112.11037058123645,34.10925978091684
163.0,晋,河南浚县西,河南浚县西,Single,[{'province': 41}],Province,[],['河南'],['NA'],['NA'],西,POINT (112.11037058123645 34.10925978091684),112.11037058123645,34.10925978091684
163.0,魏,河南浚县西,河南浚县西,Single,[{'province': 41}],Province,[],['河南'],['NA'],['NA'],西,POINT (112.11037058123645 34.10925978091684),112.11037058123645,34.10925978091684
163.0,江陵拍马山5号墓,河南浚县西,河南浚县西,Single,[{'province': 41}],Province,[],['河南'],['NA'],['NA'],西,POINT (112.11037058123645 34.10925978091684),112.11037058123645,34.10925978091684
164.0,阴晋,陕西省华阴市东,陕西省华阴市东,Single,[{'county': 610582}],County,[],['陕西'],['渭南'],['华阴'],东,POINT (110.11769948478927 34.52902743134215),110.11769948478927,34.52902743134215
166.0,蒲子县,山西隰县,山西隰县,Single,[{'province': 14}],Province,[],['山西'],['NA'],['NA'],,POINT (112.46586044574987 37.69595105969648),112.46586044574987,37.69595105969648
166.0,蒲子,山西隰县,山西隰县,Single,[{'province': 14}],Province,[],['山西'],['NA'],['NA'],,POINT (112.46586044574987 37.69595105969648),112.46586044574987,37.69595105969648
167.0,漆垣,陕西铜川西北,陕西铜川西北,Single,[{'city': 6102}],City,[],['陕西'],['铜川'],['NA'],西北,POINT (108.96252737082328 35.36357176636911),108.96252737082328,35.36357176636911
168.0,高奴,陕西延安市东北延河北岸,陕西延安市东北延河北岸,Single,[{'city': 6106}],City,[],['陕西'],['延安'],['NA'],,POINT (109.56192321917386 36.43291890571169),109.56192321917386,36.43291890571169
169.0,皮氏,山西省河津县西,山西省河津县西,Single,[{'county': 140882}],County,[],['山西'],['运城'],['河津'],西,POINT (110.63718064946438 35.60519550184877),110.63718064946438,35.60519550184877
169.0,汾水,皮氏县南,皮氏县南,Single,[],0,['No Match'],[],[],[],南,,,
170.0,蒲坂,山西省永济县西南,山西省永济县西南,Single,[{'county': 140881}],County,[],['山西'],['运城'],['永济'],西南,POINT (110.38285256200496 34.85035664324515),110.38285256200496,34.85035664324515
170.0,蒲阪,山西省永济县西南,山西省永济县西南,Single,[{'county': 140881}],County,[],['山西'],['运城'],['永济'],西南,POINT (110.38285256200496 34.85035664324515),110.38285256200496,34.85035664324515
172.0,平丘,河南省封丘县东,河南省封丘县东,Single,[{'county': 410727}],County,[],['河南'],['新乡'],['封丘'],东,POINT (114.57539257684454 35.085738847106576),114.57539257684454,35.085738847106576
172.0,韩,河南省封丘县东,河南省封丘县东,Single,[{'county': 410727}],County,[],['河南'],['新乡'],['封丘'],东,POINT (114.57539257684454 35.085738847106576),114.57539257684454,35.085738847106576
173.0,首垣,河南省长垣县东北,河南省长垣县东北,Single,[{'county': 410783}],County,[],['河南'],['新乡'],['长垣'],东北,POINT (114.86043321480757 35.30718640588338),114.86043321480757,35.30718640588338
173.0,首垣县,河南省长垣县东北,河南省长垣县东北,Single,[{'county': 410783}],County,[],['河南'],['新乡'],['长垣'],东北,POINT (114.86043321480757 35.30718640588338),114.86043321480757,35.30718640588338
177.0,单父,山东省单县,山东省单县,Single,[{'province': 37}],Province,[],['山东'],['NA'],['NA'],,POINT (117.69952645156845 36.329248582554094),117.69952645156845,36.329248582554094
178.0,高都县,山西晋城市,山西晋城市,Single,[{'city': 1405}],City,[],['山西'],['晋城'],['NA'],,POINT (112.78970097763201 35.6496714425631),112.78970097763201,35.6496714425631
180.0,燕,河南省延津县东北,河南省延津县东北,Single,[{'county': 410726}],County,[],['河南'],['新乡'],['延津'],东北,POINT (114.34412994799541 35.406348647450216),114.34412994799541,35.406348647450216
180.0,虚,河南省延津县东,河南省延津县东,Single,[{'county': 410726}],County,[],['河南'],['新乡'],['延津'],东,POINT (114.31596923368048 35.307402053450254),114.31596923368048,35.307402053450254
180.0,长平,河南省西华县东北,河南省西华县东北,Single,[{'county': 411622}],County,[],['河南'],['周口'],['西华'],东北,POINT (114.58922326848628 33.884613293890695),114.58922326848628,33.884613293890695
180.0,雍丘,河南省杞县,河南省杞县,Single,[{'province': 41}],Province,[],['河南'],['NA'],['NA'],,POINT (113.12381458489415 33.90583689978037),113.12381458489415,33.90583689978037
180.0,山阳,河南省焦作市东北,河南省焦作市东北,Single,[{'city': 4108}],City,[],['河南'],['焦作'],['NA'],东北,POINT (113.32474286280727 35.308822915374456),113.32474286280727,35.308822915374456
181.0,修武,河南省获嘉县,河南省获嘉县,Single,[{'county': 410724}],County,[],['河南'],['新乡'],['获嘉'],,POINT (113.63119043763515 35.19746382722026),113.63119043763515,35.19746382722026
181.0,宁,河南省获嘉县,河南省获嘉县,Single,[{'county': 410724}],County,[],['河南'],['新乡'],['获嘉'],,POINT (113.63119043763515 35.19746382722026),113.63119043763515,35.19746382722026
181.0,南阳,河南省获嘉县,河南省获嘉县,Single,[{'county': 410724}],County,[],['河南'],['新乡'],['获嘉'],,POINT (113.63119043763515 35.19746382722026),113.63119043763515,35.19746382722026
182.0,共城,河南辉县,河南辉县,Single,[{'province': 41}],Province,[],['河南'],['NA'],['NA'],,POINT (113.12381458489415 33.90583689978037),113.12381458489415,33.90583689978037
182.0,共县,河南辉县,河南辉县,Single,[{'province': 41}],Province,[],['河南'],['NA'],['NA'],,POINT (113.12381458489415 33.90583689978037),113.12381458489415,33.90583689978037
183.0,宅阳县,河南荥阳东,河南荥阳东,Single,[{'county': 410182}],County,[],['河南'],['郑州'],['荥阳'],东,POINT (113.39975414779374 34.80371439763867),113.39975414779374,34.80371439763867
184.0,梧县,今河南许昌、鄢陵一带,今河南许昌、鄢陵一带,Single,[{'county': 411024}],County,[],['河南'],['许昌'],['鄢陵'],,POINT (114.17775001297531 34.021322659739994),114.17775001297531,34.021322659739994
186.0,涑[睘阝],山西西南的涑水边上的一个县,山西西南的涑水边上的一个县,Single,[{'province': 14}],Province,[],['山西'],['NA'],['NA'],,POINT (112.46586044574987 37.69595105969648),112.46586044574987,37.69595105969648
186.0,冶珍,未提及,未提及,Single,[],0,['No Match'],[],[],[],,,,
186.0,安成,未提及,未提及,Single,[],0,['No Match'],[],[],[],,,,
186.0,焦,未提及,未提及,Single,[],0,['No Match'],[],[],[],,,,
186.0,禾,未提及,未提及,Single,[],0,['No Match'],[],[],[],,,,
186.0,垂,未提及,未提及,Single,[],0,['No Match'],[],[],[],,,,
186.0,言阳,未提及,未提及,Single,[],0,['No Match'],[],[],[],,,,
186.0,陕,未提及,未提及,Single,[],0,['No Match'],[],[],[],,,,
186.0,阴安,未提及,未提及,Single,[],0,['No Match'],[],[],[],,,,
186.0,合(沇),未提及,未提及,Single,[],0,['No Match'],[],[],[],,,,
186.0,襄垣,未提及,未提及,Single,[],0,['No Match'],[],[],[],,,,
186.0,奇氏,未提及,未提及,Single,[],0,['No Match'],[],[],[],,,,
186.0,成阳,未提及,未提及,Single,[],0,['No Match'],[],[],[],,,,
186.0,虚阳,未提及,未提及,Single,[],0,['No Match'],[],[],[],,,,
186.0,土匀,未提及,未提及,Single,[],0,['No Match'],[],[],[],,,,
186.0,向,未提及,未提及,Single,[],0,['No Match'],[],[],[],,,,
186.0,妾(?)都蒙(？)郡,未提及,未提及,Single,[],0,['No Match'],[],[],[],,,,
186.0,都噩丘郡昌里□,未提及,未提及,Single,[],0,['No Match'],[],[],[],,,,
186.0,蒙(？)县,未提及,未提及,Single,[],0,['No Match'],[],[],[],,,,
186.0,噩丘县,未提及,未提及,Single,[],0,['No Match'],[],[],[],,,,
186.0,妾(?)都,未提及,未提及,Single,[],0,['No Match'],[],[],[],,,,
186.0,都,未提及,未提及,Single,[],0,['No Match'],[],[],[],,,,
186.0,遽郡,未提及,未提及,Single,[],0,['No Match'],[],[],[],,,,
187.0,上谷,河北省怀来县东南,河北省怀来县东南,Single,[{'county': 130730}],County,[],['河北'],['张家口'],['怀来'],东南,POINT (115.76879660848454 40.23842356619648),115.76879660848454,40.23842356619648
187.0,渔阳,北京市密云县西南,北京市密云县西南,Single,[{'county': 110118}],County,[],['北京'],['北京'],['密云'],西南,POINT (116.85049272179808 40.40700485687024),116.85049272179808,40.40700485687024
187.0,右北平,天津市蓟县,天津市蓟县,Single,[{'province': 12}],Province,[],['天津'],['NA'],['NA'],,POINT (117.40695886064003 39.38361102724752),117.40695886064003,39.38361102724752
187.0,辽西,辽宁省义县西,辽宁省义县西,Single,[{'province': 21}],Province,[],['辽宁'],['NA'],['NA'],西,POINT (120.18196381023866 40.922142352933065),120.18196381023866,40.922142352933065
188.0,令支县,今河北省迁安县西,今河北省迁安县西,Single,[{'county': 130283}],County,[],['河北'],['唐山'],['迁安'],西,POINT (118.59078099291241 40.02927311393118),118.59078099291241,40.02927311393118
188.0,辽西郡,今河北省迁安县,今河北省迁安县,Single,[{'county': 130283}],County,[],['河北'],['唐山'],['迁安'],,POINT (118.69027714134853 40.03939553575869),118.69027714134853,40.03939553575869
189.0,襄平,辽东郡，今辽宁省辽阳市,辽东郡，今辽宁省辽阳市,Single,[{'city': 2110}],City,[],['辽宁'],['辽阳'],['NA'],,POINT (122.77338145279757 41.20683730515917),122.77338145279757,41.20683730515917
190.0,昌城,今河北固安县南,今河北固安县南,Single,[{'county': 131022}],County,[],['河北'],['廊坊'],['固安'],南,POINT (116.30017043150818 39.250941963378274),116.30017043150818,39.250941963378274
191.0,邓,湖北省襄樊市西北,湖北省襄樊市西北,Single,[{'province': 42}],Province,[],['湖北'],['NA'],['NA'],西北,POINT (110.94024844251913 32.16669177126137),110.94024844251913,32.16669177126137
191.0,楚,湖北省襄樊市西北,湖北省襄樊市西北,Single,[{'province': 42}],Province,[],['湖北'],['NA'],['NA'],西北,POINT (110.94024844251913 32.16669177126137),110.94024844251913,32.16669177126137
191.0,邓县,湖北省襄樊市西北,湖北省襄樊市西北,Single,[{'province': 42}],Province,[],['湖北'],['NA'],['NA'],西北,POINT (110.94024844251913 32.16669177126137),110.94024844251913,32.16669177126137
191.0,秦,湖北省襄樊市西北,湖北省襄樊市西北,Single,[{'province': 42}],Province,[],['湖北'],['NA'],['NA'],西北,POINT (110.94024844251913 32.16669177126137),110.94024844251913,32.16669177126137
192.0,湖阳,河南省唐河县西南,河南省唐河县西南,Single,[{'county': 411328}],County,[],['河南'],['南阳'],['唐河'],西南,POINT (112.6930589243854 32.480310935376686),112.6930589243854,32.480310935376686
192.0,楚县,河南省唐河县西南,河南省唐河县西南,Single,[{'county': 411328}],County,[],['河南'],['南阳'],['唐河'],西南,POINT (112.6930589243854 32.480310935376686),112.6930589243854,32.480310935376686
193.0,竟陵,湖北省潜江市西北,湖北省潜江市西北,Single,[{'county': 429005}],County,[],['湖北'],['直辖级行政单位'],['潜江'],西北,POINT (112.66472038908518 30.469961038928428),112.66472038908518,30.469961038928428
194.0,苦,河南省鹿邑县东,河南省鹿邑县东,Single,[{'county': 411628}],County,[],['河南'],['周口'],['鹿邑'],东,POINT (115.48040847576172 33.91043560581133),115.48040847576172,33.91043560581133
195.0,期思,河南省淮滨县东南期思乡,河南省淮滨县东南期思乡,Single,[{'county': 411527}],County,[],['河南'],['信阳'],['淮滨'],,POINT (115.32510049543883 32.445541582065275),115.32510049543883,32.445541582065275
196.0,寝,安徽省临泉县,安徽省临泉县,Single,[{'county': 341221}],County,[],['安徽'],['阜阳'],['临泉'],,POINT (115.32646769440711 32.85919356801763),115.32646769440711,32.85919356801763
197.0,鄀,湖北省宜城市东南,湖北省宜城市东南,Single,[{'county': 420684}],County,[],['湖北'],['襄阳'],['宜城'],东南,POINT (112.54872968817955 31.594443674695828),112.54872968817955,31.594443674695828
198.0,申县,河南省南阳市,河南省南阳市,Single,[{'city': 4113}],City,[],['河南'],['南阳'],['NA'],,POINT (112.17181874534914 33.04812010799885),112.17181874534914,33.04812010799885
198.0,宛县,河南省南阳市,河南省南阳市,Single,[{'city': 4113}],City,[],['河南'],['南阳'],['NA'],,POINT (112.17181874534914 33.04812010799885),112.17181874534914,33.04812010799885
199.0,楚县,河南省西峡县,河南省西峡县,Single,[{'county': 411323}],County,[],['河南'],['南阳'],['西峡'],,POINT (111.33467951835274 33.464826080571065),111.33467951835274,33.464826080571065
199.0,白羽,河南省西峡县,河南省西峡县,Single,[{'county': 411323}],County,[],['河南'],['南阳'],['西峡'],,POINT (111.33467951835274 33.464826080571065),111.33467951835274,33.464826080571065
200.0,叶县,河南省叶县南,河南省叶县南,Single,[{'province': 41}],Province,[],['河南'],['NA'],['NA'],南,POINT (113.34345581508488 32.6592671778409),113.34345581508488,32.6592671778409
201.0,阴,湖北省老河口市北,湖北省老河口市北,Single,[{'county': 420682}],County,[],['湖北'],['襄阳'],['老河口'],北,POINT (111.67915287960474 32.57991280275441),111.67915287960474,32.57991280275441
202.0,息本春秋楚县,河南省息县西南,河南省息县西南,Single,[{'province': 41}],Province,[],['河南'],['NA'],['NA'],西南,POINT (112.38335199586187 33.07547364435473),112.38335199586187,33.07547364435473
203.0,武城,河南省信阳市东北,河南省信阳市东北,Single,[{'city': 4115}],City,[],['河南'],['信阳'],['NA'],东北,POINT (115.39159126051227 32.36658840647766),115.39159126051227,32.36658840647766
204.0,上庸,湖北省竹山县西南,湖北省竹山县西南,Single,[{'county': 420323}],County,[],['湖北'],['十堰'],['竹山'],西南,POINT (110.02967793848985 31.835038804173376),110.02967793848985,31.835038804173376
205.0,随国,湖北省随州市,湖北省随州市,Single,[{'city': 4213}],City,[],['湖北'],['随州'],['NA'],,POINT (113.40979291666414 31.8933664335604),113.40979291666414,31.8933664335604
205.0,涢水,随县,随县,Single,[{'county': 421321}],County,[],['湖北'],['随州'],['随县'],,POINT (113.12436563927008 31.90862492050785),113.12436563927008,31.90862492050785
206.0,鄢,湖北省宜城县东南楚王城,湖北省宜城县东南楚王城,Single,[{'county': 420684}],County,[],['湖北'],['襄阳'],['宜城'],,POINT (112.40898398232466 31.67594119377808),112.40898398232466,31.67594119377808
206.0,郢,湖北省宜城县,湖北省宜城县,Single,[{'county': 420684}],County,[],['湖北'],['襄阳'],['宜城'],,POINT (112.40898398232466 31.67594119377808),112.40898398232466,31.67594119377808
207.0,陈县,今河南省淮阳县,今河南省淮阳县,Single,[{'county': 411603}],County,[],['河南'],['周口'],['淮阳'],,POINT (114.83427319314947 33.6808532217299),114.83427319314947,33.6808532217299
207.0,郢陈,陈县,陈县,Single,[],0,['No Match'],[],[],[],,,,
207.0,竞陵,今湖北省荆州市,今湖北省荆州市,Single,[{'city': 4210}],City,[],['湖北'],['荆州'],['NA'],,POINT (112.63174604176838 30.05919233075354),112.63174604176838,30.05919233075354
208.0,沈国,河南省平舆县北,河南省平舆县北,Single,[{'county': 411723}],County,[],['河南'],['驻马店'],['平舆'],北,POINT (114.6180716763989 33.08854590983806),114.6180716763989,33.08854590983806
208.0,平县,河南省平舆县,河南省平舆县,Single,[{'county': 411723}],County,[],['河南'],['驻马店'],['平舆'],,POINT (114.6519049612285 32.97473970238604),114.6519049612285,32.97473970238604
209.0,计斤,山东省胶州市西南,山东省胶州市西南,Single,[{'county': 370281}],County,[],['山东'],['青岛'],['胶州'],西南,POINT (119.82076768589332 36.116714832892335),119.82076768589332,36.116714832892335
209.0,介根,山东省莒县,山东省莒县,Single,[{'province': 37}],Province,[],['山东'],['NA'],['NA'],,POINT (117.69952645156845 36.329248582554094),117.69952645156845,36.329248582554094
209.0,莒,山东省莒县,山东省莒县,Single,[{'province': 37}],Province,[],['山东'],['NA'],['NA'],,POINT (117.69952645156845 36.329248582554094),117.69952645156845,36.329248582554094
210.0,鲁阳县,河南省鲁山县,河南省鲁山县,Single,[{'county': 410423}],County,[],['河南'],['平顶山'],['鲁山'],,POINT (112.67259130809529 33.77571317765083),112.67259130809529,33.77571317765083
211.0,临沅,湖南省常德市西,湖南省常德市西,Single,[{'city': 4307}],City,[],['湖南'],['常德'],['NA'],西,POINT (111.38015803947606 29.2663662910528),111.38015803947606,29.2663662910528
212.0,广陵,江苏省扬州市西北,江苏省扬州市西北,Single,[{'city': 3210}],City,[],['江苏'],['扬州'],['NA'],西北,POINT (119.42764714822707 33.08565479742995),119.42764714822707,33.08565479742995
213.0,居巢,安徽省六安县东北,安徽省六安县东北,Single,[{'city': 3415}],City,[],['安徽'],['六安'],['NA'],东北,POINT (116.39834601932587 32.121570977949645),116.39834601932587,32.121570977949645
214.0,吴国都城,江苏省苏州市,江苏省苏州市,Single,[{'city': 3205}],City,[],['江苏'],['苏州'],['NA'],,POINT (120.7126511410452 31.39026754301627),120.7126511410452,31.39026754301627
215.0,蔡国,今河南省上蔡县城关一带,今河南省上蔡县城关一带,Single,[{'county': 411722}],County,[],['河南'],['驻马店'],['上蔡'],,POINT (114.43567889279541 33.303063368792536),114.43567889279541,33.303063368792536
215.0,上蔡,今河南省上蔡县城关一带,今河南省上蔡县城关一带,Single,[{'county': 411722}],County,[],['河南'],['驻马店'],['上蔡'],,POINT (114.43567889279541 33.303063368792536),114.43567889279541,33.303063368792536
215.0,新蔡,今河南省新蔡县,今河南省新蔡县,Single,[{'county': 411729}],County,[],['河南'],['驻马店'],['新蔡'],,POINT (114.93042439650982 32.79284167208256),114.93042439650982,32.79284167208256
215.0,州来,今安徽省凤台县,今安徽省凤台县,Single,[{'county': 340421}],County,[],['安徽'],['淮南'],['凤台'],,POINT (116.58366822479394 32.778453487255135),116.58366822479394,32.778453487255135
215.0,下蔡,今安徽省凤台县,今安徽省凤台县,Single,[{'county': 340421}],County,[],['安徽'],['淮南'],['凤台'],,POINT (116.58366822479394 32.778453487255135),116.58366822479394,32.778453487255135
217.0,钟离,安徽省凤阳县东北临淮关,安徽省凤阳县东北临淮关,Single,[{'county': 341126}],County,[],['安徽'],['滁州'],['凤阳'],,POINT (117.6495453769205 32.83467915504201),117.6495453769205,32.83467915504201
218.0,朱方县,江苏省镇江市东丹徒镇,江苏省镇江市东丹徒镇,Single,[{'county': 321112}],County,[],['江苏'],['镇江'],['丹徒'],,POINT (119.41218290566925 32.043072090000535),119.41218290566925,32.043072090000535
220.0,汝水,河南省襄城县,河南省襄城县,Single,[{'county': 411025}],County,[],['河南'],['许昌'],['襄城'],,POINT (113.56219221195806 33.860050741376114),113.56219221195806,33.860050741376114
223.0,兰陵,山东省苍山县西南,山东省苍山县西南,Single,[{'province': 37}],Province,[],['山东'],['NA'],['NA'],西南,POINT (116.68355099730081 35.443140825344365),116.68355099730081,35.443140825344365
224.0,寿春,安徽省寿县,安徽省寿县,Single,[{'province': 34}],Province,[],['安徽'],['NA'],['NA'],,POINT (117.14809790774521 32.07365199116148),117.14809790774521,32.07365199116148
225.0,秦县,甘肃省天水市,甘肃省天水市,Single,[{'city': 6205}],City,[],['甘肃'],['天水'],['NA'],,POINT (105.56274238051873 34.60741068424415),105.56274238051873,34.60741068424415
225.0,上邽,甘肃省天水市,甘肃省天水市,Single,[{'city': 6205}],City,[],['甘肃'],['天水'],['NA'],,POINT (105.56274238051873 34.60741068424415),105.56274238051873,34.60741068424415
225.5,秦县,甘肃省甘谷县东,甘肃省甘谷县东,Single,[{'county': 620523}],County,[],['甘肃'],['天水'],['甘谷'],东,POINT (105.38439828275855 34.84159355453501),105.38439828275855,34.84159355453501
225.5,汉志,天水郡,天水郡,Single,[{'city': 6205}],City,[],['甘肃'],['天水'],['NA'],,POINT (105.56274238051873 34.60741068424415),105.56274238051873,34.60741068424415
226.0,邽（上）县,陕西省渭南市北,陕西省渭南市北,Single,[{'city': 6105}],City,[],['陕西'],['渭南'],['NA'],北,POINT (110.00285855788006 35.40464219324823),110.00285855788006,35.40464219324823
226.0,下邽县,陕西省渭南市北,陕西省渭南市北,Single,[{'city': 6105}],City,[],['陕西'],['渭南'],['NA'],北,POINT (110.00285855788006 35.40464219324823),110.00285855788006,35.40464219324823
227.0,秦县,陕西省西安市南,陕西省西安市南,Single,[{'city': 6101}],City,[],['陕西'],['西安'],['NA'],南,POINT (108.65098194791896 33.91365067571057),108.65098194791896,33.91365067571057
227.0,杜县,陕西省西安市南,陕西省西安市南,Single,[{'city': 6101}],City,[],['陕西'],['西安'],['NA'],南,POINT (108.65098194791896 33.91365067571057),108.65098194791896,33.91365067571057
228.0,秦县,陕西省华县,陕西省华县,Single,[{'province': 61}],Province,[],['陕西'],['NA'],['NA'],,POINT (109.56737398447608 35.637090531250415),109.56737398447608,35.637090531250415
228.0,郑县,京兆尹,京兆尹,Single,[],0,['No Match'],[],[],[],,,,
229.0,虢国,陕西省宝鸡县西,陕西省宝鸡县西,Single,[{'city': 6103}],City,[],['陕西'],['宝鸡'],['NA'],西,POINT (106.94687429694063 34.34824100419983),106.94687429694063,34.34824100419983
229.0,小虢,陕西省宝鸡县西,陕西省宝鸡县西,Single,[{'city': 6103}],City,[],['陕西'],['宝鸡'],['NA'],西,POINT (106.94687429694063 34.34824100419983),106.94687429694063,34.34824100419983
231.0,大荔,陕西省大荔县东,陕西省大荔县东,Single,[{'county': 610523}],County,[],['陕西'],['渭南'],['大荔'],东,POINT (110.13884238537564 34.83026529278585),110.13884238537564,34.83026529278585
231.0,临晋,陕西省大荔县东,陕西省大荔县东,Single,[{'county': 610523}],County,[],['陕西'],['渭南'],['大荔'],东,POINT (110.13884238537564 34.83026529278585),110.13884238537564,34.83026529278585
233.0,频阳县,陕西省富平县东北,陕西省富平县东北,Single,[{'county': 610528}],County,[],['陕西'],['渭南'],['富平'],东北,POINT (109.33362183005308 35.001187061835715),109.33362183005308,35.001187061835715
233.0,东乡,陕西省富平县,陕西省富平县,Single,[{'county': 610528}],County,[],['陕西'],['渭南'],['富平'],,POINT (109.22056773388321 34.91824551485457),109.22056773388321,34.91824551485457
234.0,雍城,陕西省凤翔县西南,陕西省凤翔县西南,Single,[{'county': 610322}],County,[],['陕西'],['宝鸡'],['凤翔'],西南,POINT (107.31421156873867 34.526892798507525),107.31421156873867,34.526892798507525
234.0,泾阳,陕西省泾阳县,陕西省泾阳县,Single,[{'county': 610423}],County,[],['陕西'],['咸阳'],['泾阳'],,POINT (108.76335585020625 34.597947808560306),108.76335585020625,34.597947808560306
235.0,籍姑,陕西省韩城市北,陕西省韩城市北,Single,[{'county': 610581}],County,[],['陕西'],['渭南'],['韩城'],北,POINT (110.37029859809458 35.706433256174634),110.37029859809458,35.706433256174634
235.0,庞,陕西省韩城市东南,陕西省韩城市东南,Single,[{'county': 610581}],County,[],['陕西'],['渭南'],['韩城'],东南,POINT (110.44977609083392 35.4264434144028),110.44977609083392,35.4264434144028
236.0,堑洛,陕西省蒲城县南,陕西省蒲城县南,Single,[{'county': 610526}],County,[],['陕西'],['渭南'],['蒲城'],南,POINT (109.55047879209465 34.86543826101987),109.55047879209465,34.86543826101987
236.0,城重泉,陕西省蒲城县南,陕西省蒲城县南,Single,[{'county': 610526}],County,[],['陕西'],['渭南'],['蒲城'],南,POINT (109.55047879209465 34.86543826101987),109.55047879209465,34.86543826101987
237.0,栎阳,陕西省临潼县东北,陕西省临潼县东北,Single,[{'county': 610115}],County,[],['陕西'],['西安'],['临潼'],东北,POINT (109.34807441839158 34.553441245326276),109.34807441839158,34.553441245326276
237.0,栎邑,陕西省临潼县东北,陕西省临潼县东北,Single,[{'county': 610115}],County,[],['陕西'],['西安'],['临潼'],东北,POINT (109.34807441839158 34.553441245326276),109.34807441839158,34.553441245326276
238.0,蓝田,陕西省蓝田县西,陕西省蓝田县西,Single,[{'county': 610122}],County,[],['陕西'],['西安'],['蓝田'],西,POINT (109.27905766749033 34.08458191777829),109.27905766749033,34.08458191777829
238.0,蒲,无考,无考,Single,[],0,['No Match'],[],[],[],,,,
238.0,善明氏,无考,无考,Single,[],0,['No Match'],[],[],[],,,,
242.0,高陵,陕西省高陵县,陕西省高陵县,Single,[{'county': 610117}],County,[],['陕西'],['西安'],['高陵'],,POINT (109.06900809427152 34.51031442957573),109.06900809427152,34.51031442957573
243.0,邰国,陕西省武功县西南,陕西省武功县西南,Single,[{'county': 610431}],County,[],['陕西'],['咸阳'],['武功'],西南,POINT (108.14926621457418 34.27133001798339),108.14926621457418,34.27133001798339
243.0,斄县,陕西省武功县西北,陕西省武功县西北,Single,[{'county': 610431}],County,[],['陕西'],['咸阳'],['武功'],西北,POINT (108.1012651312322 34.370570060965576),108.1012651312322,34.370570060965576
243.0,美阳县,陕西省武功县西北,陕西省武功县西北,Single,[{'county': 610431}],County,[],['陕西'],['咸阳'],['武功'],西北,POINT (108.1012651312322 34.370570060965576),108.1012651312322,34.370570060965576
243.0,武功县,陕西省眉县东,陕西省眉县东,Single,[{'province': 61}],Province,[],['陕西'],['NA'],['NA'],东,POINT (109.7058630784871 35.59243020252936),109.7058630784871,35.59243020252936
244.0,咸阳,陕西省咸阳市东,陕西省咸阳市东,Single,[{'city': 6104}],City,[],['陕西'],['咸阳'],['NA'],东,POINT (108.53722495405201 34.893104619272556),108.53722495405201,34.893104619272556
244.0,冀阙,陕西省咸阳市东,陕西省咸阳市东,Single,[{'city': 6104}],City,[],['陕西'],['咸阳'],['NA'],东,POINT (108.53722495405201 34.893104619272556),108.53722495405201,34.893104619272556
245.0,武城,陕西华县东北,陕西华县东北,Single,"[{'county': 411622}, {'province': 61}]",Province,['Multiple Matches'],"['陕西', '河南']","['NA', '周口']","['西华', 'NA']",东北,,,
246.0,於,弘农商县,弘农商县,Single,[],0,['No Match'],[],[],[],,,,
246.0,商,商洛县,商洛县,Single,[{'city': 6110}],City,[],['陕西'],['商洛'],['NA'],,POINT (109.85194239662201 33.78315509072356),109.85194239662201,33.78315509072356
249.0,陕县,河南省陕县西南,河南省陕县西南,Single,[{'province': 41}],Province,[],['河南'],['NA'],['NA'],西南,POINT (112.38335199586187 33.07547364435473),112.38335199586187,33.07547364435473
249.0,上郡,未提及具体位置,未提及具体位置,Single,[],0,['No Match'],[],[],[],,,,
255.0,义渠,甘肃省庆阳市西南,甘肃省庆阳市西南,Single,[{'city': 6210}],City,[],['甘肃'],['庆阳'],['NA'],西南,POINT (107.25944568091825 35.81841849070851),107.25944568091825,35.81841849070851
256.0,南郑,陕西省汉中市,陕西省汉中市,Single,[{'city': 6107}],City,[],['陕西'],['汉中'],['NA'],,POINT (106.99336722480402 33.00353756143329),106.99336722480402,33.00353756143329
258.0,朐衍,宁夏回族自治区盐池县,宁夏回族自治区盐池县,Single,[{'county': 640323}],County,[],['宁夏'],['吴忠'],['盐池'],,POINT (107.00028007135559 37.646445581799604),107.00028007135559,37.646445581799604
258.0,义渠,秦县,秦县,Single,[],0,['No Match'],[],[],[],,,,
258.0,大荔,秦县,秦县,Single,[],0,['No Match'],[],[],[],,,,
258.0,乌氏,秦县,秦县,Single,[],0,['No Match'],[],[],[],,,,
259.0,巴子国都城,重庆市嘉陵江北岸,重庆市嘉陵江北岸,Single,[{'county': 500105}],County,[],['重庆'],['重庆'],['江北'],,POINT (106.73761629807574 29.60981185077392),106.73761629807574,29.60981185077392
259.0,巴郡,江州,江州,Single,[{'county': 451402}],County,[],['广西'],['崇左'],['江州'],,POINT (107.33986891007247 22.518829521945968),107.33986891007247,22.518829521945968
260.0,鱼复县,重庆市奉节县东白帝城,重庆市奉节县东白帝城,Single,[{'county': 500236}],County,[],['重庆'],['重庆辖'],['奉节'],,POINT (109.38437996965476 30.95340856243562),109.38437996965476,30.95340856243562
261.0,阆中县,四川省阆中市,四川省阆中市,Single,[{'county': 511381}],County,[],['四川'],['南充'],['阆中'],,POINT (105.98282278979889 31.60634436152663),105.98282278979889,31.60634436152663
262.0,天彭门,汶山,汶山,Single,[],0,['No Match'],[],[],[],,,,
262.0,天彭阙,湔氏县,湔氏县,Single,[],0,['No Match'],[],[],[],,,,
264.0,乌氏,宁夏回族自治区固原市东南,宁夏回族自治区固原市东南,Single,[{'city': 6404}],City,[],['宁夏'],['固原'],['NA'],东南,POINT (106.34381974568689 35.62414200158884),106.34381974568689,35.62414200158884
264.0,泾州安定县,陕西省宝鸡市,陕西省宝鸡市,Single,[{'city': 6103}],City,[],['陕西'],['宝鸡'],['NA'],,POINT (107.36515138616477 34.3841531751929),107.36515138616477,34.3841531751929
265.0,成都,四川省成都市,四川省成都市,Single,[{'city': 5101}],City,[],['四川'],['成都'],['NA'],,POINT (103.90054001372168 30.770664201933663),103.90054001372168,30.770664201933663
266.0,成都,四川省成都市,四川省成都市,Single,[{'city': 5101}],City,[],['四川'],['成都'],['NA'],,POINT (103.90054001372168 30.770664201933663),103.90054001372168,30.770664201933663
266.0,郫城,四川省郫县,四川省郫县,Single,[{'province': 51}],Province,[],['四川'],['NA'],['NA'],,POINT (102.74432614934533 30.401220388905287),102.74432614934533,30.401220388905287
267.0,成都,四川省成都市,四川省成都市,Single,[{'city': 5101}],City,[],['四川'],['成都'],['NA'],,POINT (103.90054001372168 30.770664201933663),103.90054001372168,30.770664201933663
267.0,郫,四川省成都市郫都区,四川省成都市郫都区,Single,[{'county': 510117}],County,[],['四川'],['成都'],['郫都'],,POINT (103.87723330910906 30.820204307773373),103.87723330910906,30.820204307773373
267.0,临邛,四川省邛崃市,四川省邛崃市,Single,[{'county': 510183}],County,[],['四川'],['成都'],['邛崃'],,POINT (103.42297607906394 30.384929557001175),103.42297607906394,30.384929557001175
268.0,郿邑,陕西省眉县东北,陕西省眉县东北,Single,[{'province': 61}],Province,[],['陕西'],['NA'],['NA'],东北,POINT (109.7110638812143 37.38898234941382),109.7110638812143,37.38898234941382
268.0,郿县,陕西省眉县东北,陕西省眉县东北,Single,[{'province': 61}],Province,[],['陕西'],['NA'],['NA'],东北,POINT (109.7110638812143 37.38898234941382),109.7110638812143,37.38898234941382
270.0,宜阳,山西省垣曲县东南,山西省垣曲县东南,Single,[{'county': 140827}],County,[],['山西'],['运城'],['垣曲'],东南,POINT (111.95521302567842 35.17184774783355),111.95521302567842,35.17184774783355
270.0,武遂,山西省垣曲县东南,山西省垣曲县东南,Single,[{'county': 140827}],County,[],['山西'],['运城'],['垣曲'],东南,POINT (111.95521302567842 35.17184774783355),111.95521302567842,35.17184774783355
275.0,广衍,内蒙古自治区准格尔旗西南,内蒙古自治区准格尔旗西南,Single,[{'county': 150622}],County,[],['内蒙古'],['鄂尔多斯'],['准格尔旗'],西南,POINT (110.61311119381463 39.56408481742644),110.61311119381463,39.56408481742644
275.0,榆中,陕西榆林以北、黄河以南的地区,陕西榆林以北、黄河以南的地区,Single,[{'city': 6108}],City,[],['陕西'],['榆林'],['NA'],,POINT (109.73349050898946 38.23876335825713),109.73349050898946,38.23876335825713
277.0,邯郸,陕西省延安市东南,陕西省延安市东南,Single,[{'city': 6106}],City,[],['陕西'],['延安'],['NA'],东南,POINT (109.91103400766251 36.02608090567445),109.91103400766251,36.02608090567445
277.0,定阳,陕西省延安市东南,陕西省延安市东南,Single,[{'city': 6106}],City,[],['陕西'],['延安'],['NA'],东南,POINT (109.91103400766251 36.02608090567445),109.91103400766251,36.02608090567445
290.0,狄道,甘肃省临洮县,甘肃省临洮县,Single,[{'county': 621124}],County,[],['甘肃'],['定西'],['临洮'],,POINT (104.03302043215487 35.532663239594505),104.03302043215487,35.532663239594505
293.0,穰,河南省邓州市,河南省邓州市,Single,[{'county': 411381}],County,[],['河南'],['南阳'],['邓州'],,POINT (112.09151462879211 32.70042143298328),112.09151462879211,32.70042143298328
293.0,鄢郢,穰县故城南,穰县故城南,Single,[{'county': 131126}],County,[],['河北'],['衡水'],['故城'],南,POINT (115.84883560588953 37.24223282078707),115.84883560588953,37.24223282078707
294.0,筑阳县,湖北省谷城县东,湖北省谷城县东,Single,[{'county': 420625}],County,[],['湖北'],['襄阳'],['谷城'],东,POINT (111.60554158401811 32.22755041063276),111.60554158401811,32.22755041063276
295.0,枳,重庆市涪陵区东北,重庆市涪陵区东北,Single,[{'county': 500102}],County,[],['重庆'],['重庆'],['涪陵'],东北,POINT (107.46900370628697 29.79949117096009),107.46900370628697,29.79949117096009
295.0,枳县,重庆市涪陵区,重庆市涪陵区,Single,[{'county': 500102}],County,[],['重庆'],['重庆'],['涪陵'],,POINT (107.31223371209683 29.689382383021368),107.31223371209683,29.689382383021368
296.0,郢,湖北省江陵县西北纪南城,湖北省江陵县西北纪南城,Single,[{'county': 421024}],County,[],['湖北'],['荆州'],['江陵'],,POINT (112.43704294607367 30.108421195998343),112.43704294607367,30.108421195998343
296.0,郢,湖北省江陵县,湖北省江陵县,Single,[{'county': 421024}],County,[],['湖北'],['荆州'],['江陵'],,POINT (112.43704294607367 30.108421195998343),112.43704294607367,30.108421195998343
299.0,巫本,重庆市巫山县北,重庆市巫山县北,Single,[{'county': 500237}],County,[],['重庆'],['重庆辖'],['巫山'],北,POINT (109.93173389243509 31.336877143690153),109.93173389243509,31.336877143690153
299.0,巫县,重庆市巫山县,重庆市巫山县,Single,[{'county': 500237}],County,[],['重庆'],['重庆辖'],['巫山'],,POINT (109.96879101328001 31.144096358841704),109.96879101328001,31.144096358841704
303.0,魏卷,Location1,Location1,Single,[],0,['No Match'],[],[],[],,,,
303.0,蔡阳,Location2,Location2,Single,[],0,['No Match'],[],[],[],,,,
303.0,长社,Location3,Location3,Single,[],0,['No Match'],[],[],[],,,,
303.0,芒卯,Location4,Location4,Single,[],0,['No Match'],[],[],[],,,,
303.0,华阳,Location5,Location5,Single,[],0,['No Match'],[],[],[],,,,
304.0,卷地,河南省原阳县西南原武西北,河南省原阳县西南原武西北,Single,[{'county': 410725}],County,[],['河南'],['新乡'],['原阳'],西北,POINT (113.87321513981338 35.114713072158274),113.87321513981338,35.114713072158274
304.0,卷县,河南省原阳县,河南省原阳县,Single,[{'county': 410725}],County,[],['河南'],['新乡'],['原阳'],,POINT (113.93573852377787 35.02307544697928),113.93573852377787,35.02307544697928
307.0,陶,山东省定陶县,山东省定陶县,Single,[{'county': 371703}],County,[],['山东'],['菏泽'],['定陶'],,POINT (115.62884620444433 35.12575404167119),115.62884620444433,35.12575404167119
308.0,郏地,河南省洛阳市西,河南省洛阳市西,Single,[{'city': 4103}],City,[],['河南'],['洛阳'],['NA'],西,POINT (111.59492412237095 34.339309953133416),111.59492412237095,34.339309953133416
308.0,河南,河南省洛阳市西,河南省洛阳市西,Single,[{'city': 4103}],City,[],['河南'],['洛阳'],['NA'],西,POINT (111.59492412237095 34.339309953133416),111.59492412237095,34.339309953133416
309.0,汝水,河南省汝州市西南,河南省汝州市西南,Single,[{'county': 410482}],County,[],['河南'],['平顶山'],['汝州'],西南,POINT (112.6881268599757 34.03812972867452),112.6881268599757,34.03812972867452
309.0,三里水,河南县故城西,河南县故城西,Single,"[{'county': 131126}, {'province': 41}, {'county': 430921}, {'county': 630104}, {'county': 632324}]",County,['Multiple Matches'],"['河南', '青海', '河北', '湖南']","['西宁', 'NA', '衡水', '黄南', '益阳']","['故城', '南县', 'NA', '城西', '河南县']",西,,,
309.0,梁县,河南省汝州市西南,河南省汝州市西南,Single,[{'county': 410482}],County,[],['河南'],['平顶山'],['汝州'],西南,POINT (112.6881268599757 34.03812972867452),112.6881268599757,34.03812972867452
311.0,缑氏,河南偃师市东南,河南偃师市东南,Single,[{'county': 410381}],County,[],['河南'],['洛阳'],['偃师'],东南,POINT (112.816604062791 34.55616479836102),112.816604062791,34.55616479836102
314.0,宁新中,河南省安阳市南,河南省安阳市南,Single,[{'city': 4105}],City,[],['河南'],['安阳'],['NA'],南,POINT (114.70546713566738 35.54121062932875),114.70546713566738,35.54121062932875
314.0,安阳城,河南省安阳市,河南省安阳市,Single,[{'city': 4105}],City,[],['河南'],['安阳'],['NA'],,POINT (113.91732584485518 35.79206679246907),113.91732584485518,35.79206679246907
315.0,郑县,今河南新郑,今河南新郑,Single,[{'county': 410184}],County,[],['河南'],['郑州'],['新郑'],,POINT (113.78184439228139 34.47739020330439),113.78184439228139,34.47739020330439
315.0,韩都,郑县,郑县,Single,[],0,['No Match'],[],[],[],,,,
316.0,曲阳,安徽省淮南市东南,安徽省淮南市东南,Single,[{'city': 3404}],City,[],['安徽'],['淮南'],['NA'],东南,POINT (116.88814752722476 32.203208728675165),116.88814752722476,32.203208728675165
318.0,穀城,河南省洛阳市西北,河南省洛阳市西北,Single,[{'city': 4103}],City,[],['河南'],['洛阳'],['NA'],西北,POINT (112.00753559378374 34.6730284237625),112.00753559378374,34.6730284237625
318.0,平阴,河南省孟津县东北,河南省孟津县东北,Single,[{'county': 410322}],County,[],['河南'],['洛阳'],['孟津'],东北,POINT (112.5020198002255 34.89202816356838),112.5020198002255,34.89202816356838
318.0,偃师,河南省偃师市东,河南省偃师市东,Single,[{'county': 410381}],County,[],['河南'],['洛阳'],['偃师'],东,POINT (112.77579040696143 34.63562527932887),112.77579040696143,34.63562527932887
318.0,巩,河南省巩义西南,河南省巩义西南,Single,[{'county': 410181}],County,[],['河南'],['郑州'],['巩义'],西南,POINT (112.92704651590208 34.63332847737355),112.92704651590208,34.63332847737355
324.0,尉氏县,河南省尉氏县,河南省尉氏县,Single,[{'county': 410223}],County,[],['河南'],['开封'],['尉氏'],,POINT (114.1174381575811 34.406584617105636),114.1174381575811,34.406584617105636
325.0,邘国,河南省沁阳市西北,河南省沁阳市西北,Single,[{'county': 410882}],County,[],['河南'],['焦作'],['沁阳'],西北,POINT (112.82207243327667 35.1899388821775),112.82207243327667,35.1899388821775
325.0,邘台,河南省沁阳市西北,河南省沁阳市西北,Single,[{'county': 410882}],County,[],['河南'],['焦作'],['沁阳'],西北,POINT (112.82207243327667 35.1899388821775),112.82207243327667,35.1899388821775
326.0,安陆,湖北省云梦县,湖北省云梦县,Single,[{'county': 420923}],County,[],['湖北'],['孝感'],['云梦'],,POINT (113.76869021327994 30.989611582042215),113.76869021327994,30.989611582042215
328.0,濮阳,河南省濮阳市西南,河南省濮阳市西南,Single,[{'city': 4109}],City,[],['河南'],['濮阳'],['NA'],西南,POINT (115.09439032281703 35.571330064471425),115.09439032281703,35.571330064471425
328.0,野王,河南省濮阳市,河南省濮阳市,Single,[{'city': 4109}],City,[],['河南'],['濮阳'],['NA'],,POINT (115.25168383302477 35.78082826910753),115.25168383302477,35.78082826910753
332.0,云阳县,陕西省淳化县西北,陕西省淳化县西北,Single,[{'county': 610430}],County,[],['陕西'],['咸阳'],['淳化'],西北,POINT (108.44699408731087 34.92222745188126),108.44699408731087,34.92222745188126
334.0,骊戎邑,陕西省临潼县东北,陕西省临潼县东北,Single,[{'county': 610115}],County,[],['陕西'],['西安'],['临潼'],东北,POINT (109.34807441839158 34.553441245326276),109.34807441839158,34.553441245326276
334.0,丽邑,陕西省临潼县东北,陕西省临潼县东北,Single,[{'county': 610115}],County,[],['陕西'],['西安'],['临潼'],东北,POINT (109.34807441839158 34.553441245326276),109.34807441839158,34.553441245326276
335.0,颍川郡,阳翟县,阳翟县,Single,[],0,['No Match'],[],[],[],,,,
342.0,蓟,今北京城西南隅,今北京城西南隅,Single,"[{'province': 11}, {'county': 630104}]",County,['Multiple Matches'],"['北京', '青海']","['西宁', 'NA']","['城西', 'NA']",西南,,,
342.0,蓟县,今城内西北隅有蓟丘,今城内西北隅有蓟丘,Single,[],0,['No Match'],[],[],[],,,,
345.0,承匡,河南省睢县,河南省睢县,Single,[{'province': 41}],Province,[],['河南'],['NA'],['NA'],,POINT (113.12381458489415 33.90583689978037),113.12381458489415,33.90583689978037
345.0,襄陵,河南省睢县,河南省睢县,Single,[{'province': 41}],Province,[],['河南'],['NA'],['NA'],,POINT (113.12381458489415 33.90583689978037),113.12381458489415,33.90583689978037
347.0,砀山县,安徽省砀山县南,安徽省砀山县南,Single,[{'county': 341321}],County,[],['安徽'],['宿州'],['砀山'],南,POINT (116.42571307192041 34.371440427111274),116.42571307192041,34.371440427111274
348.0,睢阳,河南省商丘市南,河南省商丘市南,Single,[{'city': 4114}],City,[],['河南'],['商丘'],['NA'],南,POINT (116.3184767708963 33.99810767389116),116.3184767708963,33.99810767389116
348.0,宋,河南省商丘市南,河南省商丘市南,Single,[{'city': 4114}],City,[],['河南'],['商丘'],['NA'],南,POINT (116.3184767708963 33.99810767389116),116.3184767708963,33.99810767389116
350.0,新都,安徽省太和县北,安徽省太和县北,Single,[{'county': 341222}],County,[],['安徽'],['阜阳'],['太和'],北,POINT (115.61875685195962 33.471821857026576),115.61875685195962,33.471821857026576
351.0,鲁县,山东省曲阜市,山东省曲阜市,Single,[{'county': 370881}],County,[],['山东'],['济宁'],['曲阜'],,POINT (116.99474316451168 35.64159953406138),116.99474316451168,35.64159953406138
351.0,曲阜,山东省曲阜市,山东省曲阜市,Single,[{'county': 370881}],County,[],['山东'],['济宁'],['曲阜'],,POINT (116.99474316451168 35.64159953406138),116.99474316451168,35.64159953406138
356.0,沛邑,江苏省沛县,江苏省沛县,Single,[{'province': 32}],Province,[],['江苏'],['NA'],['NA'],,POINT (119.57166752700992 32.97528466676129),119.57166752700992,32.97528466676129
356.0,泗水郡,沛县,沛县,Single,[{'county': 320322}],County,[],['江苏'],['徐州'],['沛县'],,POINT (116.89759345319383 34.71724900716212),116.89759345319383,34.71724900716212
357.0,相邑,安徽省濉溪县西北,安徽省濉溪县西北,Single,[{'county': 340621}],County,[],['安徽'],['淮北'],['濉溪'],西北,POINT (116.57588881152267 33.823552352605766),116.57588881152267,33.823552352605766
357.0,宋,安徽省濉溪县,安徽省濉溪县,Single,[{'county': 340621}],County,[],['安徽'],['淮北'],['濉溪'],,POINT (116.67955019727412 33.64853018171556),116.67955019727412,33.64853018171556
363.0,青阳地,湖南省长沙市,湖南省长沙市,Single,[{'city': 4301}],City,[],['湖南'],['长沙'],['NA'],,POINT (113.23717406485466 28.25916147386988),113.23717406485466,28.25916147386988
363.0,临湘县,湖南省长沙市,湖南省长沙市,Single,[{'city': 4301}],City,[],['湖南'],['长沙'],['NA'],,POINT (113.23717406485466 28.25916147386988),113.23717406485466,28.25916147386988
364.0,罗国,湖北省宜城市,湖北省宜城市,Single,[{'county': 420684}],County,[],['湖北'],['襄阳'],['宜城'],,POINT (112.40898398232466 31.67594119377808),112.40898398232466,31.67594119377808
364.0,罗国,湖北省枝江市,湖北省枝江市,Single,[{'county': 420583}],County,[],['湖北'],['宜昌'],['枝江'],,POINT (111.6718115042891 30.472672035643612),111.6718115042891,30.472672035643612
364.0,罗国,湖南省汨罗市,湖南省汨罗市,Single,[{'county': 430681}],County,[],['湖南'],['岳阳'],['汨罗'],,POINT (113.1080610869941 28.758806535224732),113.1080610869941,28.758806535224732
364.0,罗县,湖南省岳州市湘阴县,湖南省岳州市湘阴县,Single,[{'county': 430624}],County,[],['湖南'],['岳阳'],['湘阴'],,POINT (112.8173721975715 28.76983146589656),112.8173721975715,28.76983146589656
366.0,吴国都城,江苏省苏州市,江苏省苏州市,Single,[{'city': 3205}],City,[],['江苏'],['苏州'],['NA'],,POINT (120.7126511410452 31.39026754301627),120.7126511410452,31.39026754301627
366.0,吴,江苏省苏州市,江苏省苏州市,Single,[{'city': 3205}],City,[],['江苏'],['苏州'],['NA'],,POINT (120.7126511410452 31.39026754301627),120.7126511410452,31.39026754301627
366.0,会稽郡,江苏省苏州市,江苏省苏州市,Single,[{'city': 3205}],City,[],['江苏'],['苏州'],['NA'],,POINT (120.7126511410452 31.39026754301627),120.7126511410452,31.39026754301627
370.0,迁陵,湖南龙山里耶城址,湖南龙山里耶城址,Single,[{'county': 433130}],County,[],['湖南'],['湘西'],['龙山'],,POINT (109.46449966749641 29.205797833243768),109.46449966749641,29.205797833243768
370.0,迁陵守丞,湖南龙山里耶城址,湖南龙山里耶城址,Single,[{'county': 433130}],County,[],['湖南'],['湘西'],['龙山'],,POINT (109.46449966749641 29.205797833243768),109.46449966749641,29.205797833243768
370.0,迁陵司空,湖南龙山里耶城址,湖南龙山里耶城址,Single,[{'county': 433130}],County,[],['湖南'],['湘西'],['龙山'],,POINT (109.46449966749641 29.205797833243768),109.46449966749641,29.205797833243768
370.0,洞庭郡,湖南龙山里耶城址,湖南龙山里耶城址,Single,[{'county': 433130}],County,[],['湖南'],['湘西'],['龙山'],,POINT (109.46449966749641 29.205797833243768),109.46449966749641,29.205797833243768
370.0,武陵郡,湖南龙山里耶城址,湖南龙山里耶城址,Single,[{'county': 433130}],County,[],['湖南'],['湘西'],['龙山'],,POINT (109.46449966749641 29.205797833243768),109.46449966749641,29.205797833243768
371.0,酉阳,湖南省永顺县南,湖南省永顺县南,Single,[{'county': 433127}],County,[],['湖南'],['湘西'],['永顺'],南,POINT (110.02954507953939 28.843204184669364),110.02954507953939,28.843204184669364
371.0,秦洞庭,湖南省永顺县南,湖南省永顺县南,Single,[{'county': 433127}],County,[],['湖南'],['湘西'],['永顺'],南,POINT (110.02954507953939 28.843204184669364),110.02954507953939,28.843204184669364
372.0,益阳,湖南益阳东,湖南益阳东,Single,[{'city': 4309}],City,[],['湖南'],['益阳'],['NA'],东,POINT (112.46844864770361 28.862263231360426),112.46844864770361,28.862263231360426
372.0,临沅,未提及具体位置,未提及具体位置,Single,[],0,['No Match'],[],[],[],,,,
373.0,零阳,湖南省慈利县东,湖南省慈利县东,Single,[{'county': 430821}],County,[],['湖南'],['张家界'],['慈利'],东,POINT (111.10625040588607 29.480847605955194),111.10625040588607,29.480847605955194
373.0,秦县,湖南省慈利县东,湖南省慈利县东,Single,[{'county': 430821}],County,[],['湖南'],['张家界'],['慈利'],东,POINT (111.10625040588607 29.480847605955194),111.10625040588607,29.480847605955194
374.0,鄢,秦县,秦县,Single,[],0,['No Match'],[],[],[],,,,
374.0,江陵,秦县,秦县,Single,[],0,['No Match'],[],[],[],,,,
374.0,孱陵,湖南安乡县,湖南安乡县,Single,[{'county': 430721}],County,[],['湖南'],['常德'],['安乡'],,POINT (112.1451633107634 29.417596111825205),112.1451633107634,29.417596111825205
374.0,索,湖南汉寿县,湖南汉寿县,Single,[{'county': 430722}],County,[],['湖南'],['常德'],['汉寿'],,POINT (112.02766862049589 28.899715462747814),112.02766862049589,28.899715462747814
374.0,临沅,秦县,秦县,Single,[],0,['No Match'],[],[],[],,,,
374.0,迁陵,秦县,秦县,Single,[],0,['No Match'],[],[],[],,,,
