,id,toponym,location,Address,Direction,Match Elements,Match Result,Match Level,Match Error,Match Period,geometry,Province,Prefecture,County,Maximum Error Distance,Certainty,closeness,target_toponym
0,1.0,权县,今湖北省荆门县东南,['今湖北省荆门县东南'],东南,"[['湖北', '荆门']]",[{'prefecture': 4208}],Prefecture,[],modern,POINT (112.93259024630586 30.893873672122275),['湖北省'],['荆门市'],['NA'],155.8392281,0.969120984,1.0,﻿权
1,1.0,权国,今湖北省荆门县东南,['今湖北省荆门县东南'],东南,"[['湖北', '荆门']]",[{'prefecture': 4208}],Prefecture,[],modern,POINT (112.93259024630586 30.893873672122275),['湖北省'],['荆门市'],['NA'],155.8392281,0.969120984,1.0,﻿权
2,3.0,廖国,今河南省唐河县西南,['今河南省唐河县西南'],西南,"[['河南', '唐河']]",[{'county': 411328}],County,[],modern,POINT (112.69460497288287 32.48221219542366),['河南省'],['南阳市'],['唐河县'],79.25960939,0.984294977,0.0,
3,3.0,蓼国,今河南省固始县东北,['今河南省固始县东北'],东北,"[['河南', '固始']]",[{'county': 411525}],County,[],modern,POINT (115.78803240239264 32.34860379712833),['河南省'],['信阳市'],['固始县'],95.90564323,0.980996621,0.0,
4,4.0,邓国,湖北省襄樊市,['湖北省襄樊市'],,"[['湖北', '']]",[{'county': 420102}],County,[],modern,POINT (114.30711292635868 30.644739465750042),['湖北省'],['武汉市'],['江岸区'],17.17430851,0.996596969,0.8843722622293666,邓
5,4.0,邓县,河南省邓州市,['河南省邓州市'],,"[['河南', '邓州']]",[{'county': 411381}],County,[],modern,POINT (112.09207514991527 32.70213990455176),['河南省'],['南阳市'],['邓州市'],73.69042945,0.985398491,0.0,邓
6,5.0,申国,今河南省南阳市,['今河南省南阳市'],,"[['河南', '南阳']]",[{'prefecture': 4113}],Prefecture,[],modern,POINT (112.18605667760141 33.06080863027986),['河南省'],['南阳市'],['NA'],281.5621608,0.944209411,1.0,﻿申
7,5.0,宛城,今河南省南阳市,['今河南省南阳市'],,"[['河南', '南阳']]",[{'prefecture': 4113}],Prefecture,[],modern,POINT (112.18605667760141 33.06080863027986),['河南省'],['南阳市'],['NA'],281.5621608,0.944209411,0.0,
8,6.0,吕国,河南省南阳市西,['河南省南阳市西'],西,"[['河南', '南阳']]",[{'prefecture': 4113}],Prefecture,[],modern,POINT (111.73482409735638 33.083013784123835),['河南省'],['南阳市'],['NA'],281.5621608,0.944209411,1.0,吕
9,6.0,申,楚县,['楚县'],,[['']],[{'county': 150102}],County,[],modern,POINT (111.87654376409023 40.96160713329657),['内蒙古自治区'],['呼和浩特市'],['新城区'],40.159592,0.992042513,0.0,
10,7.0,息国,今河南省息县西南,['今河南省息县西南'],西南,"[['河南', '息']]",[{'county': 411528}],County,[],modern,POINT (114.7813614975039 32.280516102686875),['河南省'],['信阳市'],['息县'],63.4238693,0.987432775,1.0,﻿息
11,8.0,商县,今陕西省商县东南之商洛县,['今陕西省商县东南之商洛县'],,"[['陕西', '商洛', '商']]",[{'county': 611002}],County,[],modern,POINT (109.9172640670168 33.91256989641228),['陕西省'],['商洛市'],['商州区'],69.68325714,0.986192498,0.0,商
12,8.0,商密,今河南省淅川县西南,['今河南省淅川县西南'],西南,"[['河南', '淅川']]",[{'county': 411326}],County,[],modern,POINT (111.34881046227096 32.89586563317357),['河南省'],['南阳市'],['淅川县'],105.8536459,0.979025458,0.6202869295400371,商
13,9.0,期思,今河南省淮滨县东南期思乡,['今河南省淮滨县东南期思乡'],,"[['河南', '淮滨']]",[{'county': 411527}],County,[],modern,POINT (115.31412286503618 32.46081562194832),['河南省'],['信阳市'],['淮滨县'],55.69217628,0.988964784,1.0,﻿期思
14,10.0,析县,河南省西峡县,['河南省西峡县'],,"[['河南', '西峡']]",[{'county': 411323}],County,[],modern,POINT (111.33477339151108 33.463616943856806),['河南省'],['南阳市'],['西峡县'],87.43215002,0.982675615,1.0,﻿析
15,10.0,白羽,河南省西峡县,['河南省西峡县'],,"[['河南', '西峡']]",[{'county': 411323}],County,[],modern,POINT (111.33477339151108 33.463616943856806),['河南省'],['南阳市'],['西峡县'],87.43215002,0.982675615,0.0,
16,10.0,容城,河南省鲁山县东南,['河南省鲁山县东南'],东南,"[['河南', '鲁山']]",[{'county': 410423}],County,[],modern,POINT (112.97315054814776 33.635538449837114),['河南省'],['平顶山市'],['鲁山县'],91.68392664,0.98183314,0.0,
17,12.0,庐,湖北省襄樊市西南,['湖北省襄樊市西南'],西南,"[['湖北', '']]",[{'county': 420102}],County,[],modern,POINT (114.29159428227068 30.623335782765512),['湖北省'],['武汉市'],['江岸区'],17.17430851,0.996596969,1.0,﻿庐
18,12.0,庐戢桨,庐县,['庐县'],,[['']],[{'county': 150102}],County,[],modern,POINT (111.87654376409023 40.96160713329657),['内蒙古自治区'],['呼和浩特市'],['新城区'],40.159592,0.992042513,0.0,
19,11.0,鄀,河南省淅川县西南,['河南省淅川县西南'],西南,"[['河南', '淅川']]",[{'county': 411326}],County,[],modern,POINT (111.34881046227096 32.89586563317357),['河南省'],['南阳市'],['淅川县'],105.8536459,0.979025458,1.0,鄀
20,11.0,商密,河南省淅川县西南,['河南省淅川县西南'],西南,"[['河南', '淅川']]",[{'county': 411326}],County,[],modern,POINT (111.34881046227096 32.89586563317357),['河南省'],['南阳市'],['淅川县'],105.8536459,0.979025458,0.0,
21,11.0,宜城,湖北省宜城县东南,['湖北省宜城县东南'],东南,"[['湖北', '宜城']]",[{'county': 420684}],County,[],modern,POINT (112.54929721526733 31.592039069509852),['湖北省'],['襄阳市'],['宜城市'],77.65796106,0.984612338,0.0,
22,11.0,郢,湖北省,['湖北省'],,"[['湖北', '']]",[{'county': 420102}],County,[],modern,POINT (114.30711292635868 30.644739465750042),['湖北省'],['武汉市'],['江岸区'],17.17430851,0.996596969,0.0,
23,11.0,番,湖北省,['湖北省'],,"[['湖北', '']]",[{'county': 420102}],County,[],modern,POINT (114.30711292635868 30.644739465750042),['湖北省'],['武汉市'],['江岸区'],17.17430851,0.996596969,0.0,
24,11.0,鄢,河南省,['河南省'],,"[['河南', '']]",[{'county': 410103}],County,[],modern,POINT (113.58890162690777 34.69682914812475),['河南省'],['郑州市'],['二七区'],18.8121651,0.996272433,0.0,
25,13.0,庸,湖北省竹山县西南,['湖北省竹山县西南'],西南,"[['湖北', '竹山']]",[{'county': 420323}],County,[],modern,POINT (110.02016358021368 32.23409831660457),['湖北省'],['十堰市'],['竹山县'],125.8539942,0.975062457,1.0,﻿庸
26,14.0,宛丘,河南省淮阳县,['河南省淮阳县'],,"[['河南', '淮阳']]",[{'county': 411603}],County,[],modern,POINT (114.83825605453461 33.678069228952864),['河南省'],['周口市'],['淮阳区'],64.09541647,0.98729971,0.0,
27,15.0,沈尹,沈县,['沈县'],,[['']],[{'county': 150102}],County,[],modern,POINT (111.87654376409023 40.96160713329657),['内蒙古自治区'],['呼和浩特市'],['新城区'],40.159592,0.992042513,0.0,
28,15.0,沈尹寿,沈县,['沈县'],,[['']],[{'county': 150102}],County,[],modern,POINT (111.87654376409023 40.96160713329657),['内蒙古自治区'],['呼和浩特市'],['新城区'],40.159592,0.992042513,0.0,
29,15.0,沈尹射,沈县,['沈县'],,[['']],[{'county': 150102}],County,[],modern,POINT (111.87654376409023 40.96160713329657),['内蒙古自治区'],['呼和浩特市'],['新城区'],40.159592,0.992042513,0.0,
30,15.0,沈尹赤,沈县,['沈县'],,[['']],[{'county': 150102}],County,[],modern,POINT (111.87654376409023 40.96160713329657),['内蒙古自治区'],['呼和浩特市'],['新城区'],40.159592,0.992042513,0.0,
31,15.0,沈尹戌,沈县,['沈县'],,[['']],[{'county': 150102}],County,[],modern,POINT (111.87654376409023 40.96160713329657),['内蒙古自治区'],['呼和浩特市'],['新城区'],40.159592,0.992042513,0.0,
32,15.0,沈尹朱,沈县,['沈县'],,[['']],[{'county': 150102}],County,[],modern,POINT (111.87654376409023 40.96160713329657),['内蒙古自治区'],['呼和浩特市'],['新城区'],40.159592,0.992042513,0.0,
33,16.0,城父,今河南省襄城县西（即宝丰县东）,['今河南省襄城县西（即宝丰县东）'],,"[['河南', '宝丰'], ['河南', '襄城']]","[{'county': 410421}, {'county': 411025}]",County,['Multiple Matches'],modern,POINT (113.29144226228192 33.89082190857292),['河南省'],"['平顶山市', '许昌市']","['襄城县', '宝丰县']",56.45968555,0.988812704,1.0,﻿城父
34,17.0,郧,今湖北省钟祥县北境,['今湖北省钟祥县北境'],,"[['湖北', '钟祥']]",[{'county': 420881}],County,[],modern,POINT (112.59551676913844 31.17367125516534),['湖北省'],['荆门市'],['钟祥市'],100.1772377,0.980150219,0.0,﻿郧
35,17.0,郧公钟仪,今湖北省钟祥县北境,['今湖北省钟祥县北境'],,"[['湖北', '钟祥']]",[{'county': 420881}],County,[],modern,POINT (112.59551676913844 31.17367125516534),['湖北省'],['荆门市'],['钟祥市'],100.1772377,0.980150219,0.0,
36,18.0,州来,安徽省凤台县,['安徽省凤台县'],,"[['安徽', '凤台']]",[{'county': 340421}],County,[],modern,POINT (116.58463247421815 32.77307801044718),['安徽省'],['淮南市'],['凤台县'],55.82160225,0.988939138,1.0,州来
37,19.0,叶县,今河南省叶县南,['今河南省叶县南'],南,"[['河南', '叶']]",[{'county': 410422}],County,[],modern,POINT (113.25559749685087 33.447944054547875),['河南省'],['平顶山市'],['叶县'],59.43074139,0.988224,1.0,﻿叶
38,19.0,许,今河南省许昌市东,['今河南省许昌市东'],东,"[['河南', '许昌']]",[{'prefecture': 4110}],Prefecture,[],modern,POINT (114.00400805581671 34.01837218896118),['河南省'],['许昌市'],['NA'],125.9937488,0.975034765,0.0,
39,20.0,陈,今河南省舞阳县,['今河南省舞阳县'],,"[['河南', '舞阳']]",[{'county': 411121}],County,[],modern,POINT (113.70915388481939 33.56876739318649),['河南省'],['漯河市'],['舞阳县'],41.26131085,0.991824211,0.0,
40,20.0,蔡,今河南省襄城县,['今河南省襄城县'],,"[['河南', '襄城']]",[{'county': 411025}],County,[],modern,POINT (113.56201351843009 33.8560914989737),['河南省'],['许昌市'],['襄城县'],44.64150679,0.991154437,0.0,
41,20.0,不羹,东不羹在今河南省舞阳县西北，西不羹在今河南省襄城县东南,['东不羹在今河南省舞阳县西北，西不羹在今河南省襄城县东南'],东南,"[['河南', '襄城'], ['河南', '舞阳']]","[{'county': 411025}, {'county': 411121}]",County,['Multiple Matches'],modern,POINT (113.62220628277615 33.70610714392495),['河南省'],"['漯河市', '许昌市']","['舞阳县', '襄城县']",70.57892619,0.986015025,0.8758878947560753,东不羹
42,21.0,蔡,商王畿内的河南省修武县以西地带,['商王畿内的河南省修武县以西地带'],,"[['河南', '修武']]",[{'county': 410821}],County,[],modern,POINT (113.25353098993187 35.333201968868536),['河南省'],['焦作市'],['修武县'],41.84330132,0.991708891,0.0,上蔡
43,21.0,上蔡,今河南省上蔡县城关一带,['今河南省上蔡县城关一带'],,"[['河南', '上蔡']]",[{'county': 411722}],County,[],modern,POINT (114.43138227105428 33.31576190188675),['河南省'],['驻马店市'],['上蔡县'],59.4675017,0.988216716,1.0,上蔡
44,21.0,新蔡,今河南省新蔡县西,['今河南省新蔡县西'],西,"[['河南', '新蔡']]",[{'county': 411729}],County,[],modern,POINT (114.80801318705777 32.8026341611258),['河南省'],['驻马店市'],['新蔡县'],53.79125465,0.989341445,1.0,新蔡
45,21.0,方城,楚县,['楚县'],,[['']],[{'county': 150102}],County,[],modern,POINT (111.87654376409023 40.96160713329657),['内蒙古自治区'],['呼和浩特市'],['新城区'],40.159592,0.992042513,0.0,
46,22.0,白县,今河南省息县东北,['今河南省息县东北'],东北,"[['河南', '息']]",[{'county': 411528}],County,[],modern,POINT (114.96554789924187 32.544173435995944),['河南省'],['信阳市'],['息县'],63.4238693,0.987432775,1.0,﻿白
47,22.0,白亭,汝阴褒信县西南,['汝阴褒信县西南'],西南,[['']],[{'county': 150102}],County,[],modern,POINT (111.73351218984058 40.88661615248347),['内蒙古自治区'],['呼和浩特市'],['新城区'],40.159592,0.992042513,0.0,
48,22.0,鄢,今河南省漯河市东,['今河南省漯河市东'],东,"[['河南', '漯河']]",[{'prefecture': 4111}],Prefecture,[],modern,POINT (114.0007136693999 33.71990268071875),['河南省'],['漯河市'],['NA'],82.05264287,0.983741546,0.0,
49,22.0,巢,今安徽省六安县东北,['今安徽省六安县东北'],东北,"[['安徽', '六安']]",[{'prefecture': 3415}],Prefecture,[],modern,POINT (116.38500765126264 32.11546780411756),['安徽省'],['六安市'],['NA'],187.4399413,0.96285941,0.0,
50,23.0,巢国,汉晋的居巢县,['汉晋的居巢县'],,[['居巢']],[{'county': 340181}],County,[],modern,POINT (117.72066247412639 31.638888083545453),['安徽省'],['合肥市'],['巢湖市'],84.99596116,0.983158338,0.16840587804739582,﻿居巢
51,23.0,钟离,今安徽省凤阳县东北,['今安徽省凤阳县东北'],东北,"[['安徽', '凤阳']]",[{'county': 341126}],County,[],modern,POINT (117.72595438088499 32.928151831793116),['安徽省'],['滁州市'],['凤阳县'],78.72892723,0.98440013,0.0,
52,24.0,钟离,安徽省凤阳县东北临淮关,['安徽省凤阳县东北临淮关'],,"[['安徽', '凤阳']]",[{'county': 341126}],County,[],modern,POINT (117.61672510764127 32.84248527073355),['安徽省'],['滁州市'],['凤阳县'],78.72892723,0.98440013,1.0,﻿钟离
53,25.0,阴大夫,湖北省老河口北,['湖北省老河口北'],北,"[['湖北', '老河口']]",[{'county': 420682}],County,[],modern,POINT (111.67881903115388 32.57905262069674),['湖北省'],['襄阳市'],['老河口市'],51.66357793,0.989763037,0.0,
54,25.0,阴县,湖北省老河口北,['湖北省老河口北'],北,"[['湖北', '老河口']]",[{'county': 420682}],County,[],modern,POINT (111.67881903115388 32.57905262069674),['湖北省'],['襄阳市'],['老河口市'],51.66357793,0.989763037,1.0,﻿阴
55,26.0,棠县,江苏省六合县西北,['江苏省六合县西北'],西北,"[['江苏', '六合']]",[{'county': 320116}],County,[],modern,POINT (118.71467117795228 32.50284665302389),['江苏省'],['南京市'],['六合区'],62.0393857,0.987707106,1.0,﻿棠
56,27.0,武城,河南省信阳市东北,['河南省信阳市东北'],东北,"[['河南', '信阳']]",[{'prefecture': 4115}],Prefecture,[],modern,POINT (115.3846284156569 32.34860379712833),['河南省'],['信阳市'],['NA'],217.9936215,0.956805302,1.0,﻿武城
57,28.0,蓝县,成臼附近,['成臼附近'],,[['成']],[{'county': 621221}],County,[],modern,POINT (105.69706389135146 33.77029862141447),['甘肃省'],['陇南市'],['成县'],55.86384215,0.988930769,0.0,﻿蓝
58,29.0,苦县,河南省鹿邑县东,['河南省鹿邑县东'],东,"[['河南', '鹿邑']]",[{'county': 411628}],County,[],modern,POINT (115.47993533666437 33.906247185226704),['河南省'],['周口市'],['鹿邑县'],60.25245178,0.988061181,1.0,﻿苦
59,29.0,相县,安徽省濉溪县西北,['安徽省濉溪县西北'],西北,"[['安徽', '濉溪']]",[{'county': 340621}],County,[],modern,POINT (116.57220905011505 33.81557706191165),['安徽省'],['淮北市'],['濉溪县'],78.00848627,0.984542882,0.0,
60,30.0,荀,山西省新绛县东北,['山西省新绛县东北'],东北,"[['山西', '新绛']]",[{'county': 140825}],County,[],modern,POINT (111.20238728567072 35.707798259774584),['山西省'],['运城市'],['新绛县'],40.22313184,0.992029923,1.0,﻿荀
61,30.0,荀国,山西省新绛县东北,['山西省新绛县东北'],东北,"[['山西', '新绛']]",[{'county': 140825}],County,[],modern,POINT (111.20238728567072 35.707798259774584),['山西省'],['运城市'],['新绛县'],40.22313184,0.992029923,1.0,﻿荀
62,30.0,荀县,山西省新绛县东北,['山西省新绛县东北'],东北,"[['山西', '新绛']]",[{'county': 140825}],County,[],modern,POINT (111.20238728567072 35.707798259774584),['山西省'],['运城市'],['新绛县'],40.22313184,0.992029923,1.0,﻿荀
63,31.0,耿,山西省河津县东南,['山西省河津县东南'],东南,"[['山西', '河津']]",[{'county': 140882}],County,[],modern,POINT (110.7598338169628 35.58016543415298),['山西省'],['运城市'],['河津市'],35.33819181,0.992997857,1.0,﻿耿
64,31.0,魏,山西省芮城县北,['山西省芮城县北'],北,"[['山西', '芮城']]",[{'county': 140830}],County,[],modern,POINT (110.66961129097986 34.77434754112491),['山西省'],['运城市'],['芮城县'],65.72258329,0.986977293,1.0,魏
65,32.0,州,河南省温县东北,['河南省温县东北'],东北,"[['河南', '温']]",[{'county': 410825}],County,[],modern,POINT (113.1172096613217 35.004093281468705),['河南省'],['焦作市'],['温县'],33.72644378,0.993317219,1.0,州
66,32.0,温,河南省温县,['河南省温县'],,"[['河南', '温']]",[{'county': 410825}],County,[],modern,POINT (113.04985216390031 34.95060243994841),['河南省'],['焦作市'],['温县'],33.72644378,0.993317219,0.0,
67,32.0,原,河南省温县,['河南省温县'],,"[['河南', '温']]",[{'county': 410825}],County,[],modern,POINT (113.04985216390031 34.95060243994841),['河南省'],['焦作市'],['温县'],33.72644378,0.993317219,0.0,
68,32.0,陉,河南省温县,['河南省温县'],,"[['河南', '温']]",[{'county': 410825}],County,[],modern,POINT (113.04985216390031 34.95060243994841),['河南省'],['焦作市'],['温县'],33.72644378,0.993317219,0.0,
69,33.0,原,河南省济源市西北,['河南省济源市西北'],西北,"[['河南', '济源']]",[{'county': 419001}],County,[],modern,POINT (112.24817757435811 35.17075479973811),['河南省'],['省直辖县级行政单位'],['济源市'],66.0486936,0.986912675,1.0,﻿原
70,34.0,温,河南省温县西南,['河南省温县西南'],西南,"[['河南', '温']]",[{'county': 410825}],County,[],modern,POINT (112.99257268385784 34.893863025996794),['河南省'],['焦作市'],['温县'],33.72644378,0.993317219,1.0,﻿温
71,34.0,郑,河南省温县西南,['河南省温县西南'],西南,"[['河南', '温']]",[{'county': 410825}],County,[],modern,POINT (112.99257268385784 34.893863025996794),['河南省'],['焦作市'],['温县'],33.72644378,0.993317219,0.0,
72,35.0,阳樊,河南省济源市西南,['河南省济源市西南'],西南,"[['河南', '济源']]",[{'county': 419001}],County,[],modern,POINT (112.25943466823742 35.03525757751568),['河南省'],['省直辖县级行政单位'],['济源市'],66.0486936,0.986912675,1.0,﻿阳樊
73,36.0,欑茅,河南省修武县北,['河南省修武县北'],北,"[['河南', '修武']]",[{'county': 410821}],County,[],modern,POINT (113.3287401283438 35.42285373701984),['河南省'],['焦作市'],['修武县'],41.84330132,0.991708891,1.0,﻿欑茅
74,36.0,絺,河南省沁阳市西南,['河南省沁阳市西南'],西南,"[['河南', '沁阳']]",[{'county': 410882}],County,[],modern,POINT (112.81479212927705 35.08154068835),['河南省'],['焦作市'],['沁阳市'],36.01866516,0.992863023,1.0,絺
75,36.0,陉,河南省沁阳市西北,['河南省沁阳市西北'],西北,"[['河南', '沁阳']]",[{'county': 410882}],County,[],modern,POINT (112.82138557806744 35.190658622595265),['河南省'],['焦作市'],['沁阳市'],36.01866516,0.992863023,1.0,陉
76,37.0,阳樊,南阳,['南阳'],,[['南阳']],[{'prefecture': 4113}],Prefecture,[],modern,POINT (112.18605667760141 33.06080863027986),['河南省'],['南阳市'],['NA'],281.5621608,0.944209411,0.0,
77,37.0,温,温县,['温县'],,[['温']],[{'county': 410825}],County,[],modern,POINT (113.04985216390031 34.95060243994841),['河南省'],['焦作市'],['温县'],33.72644378,0.993317219,0.0,
78,37.0,原,原阳,['原阳'],,[['原阳']],[{'county': 410725}],County,[],modern,POINT (113.9335926168259 35.022581390415695),['河南省'],['新乡市'],['原阳县'],63.93833859,0.987330835,0.0,
79,37.0,州,州县,['州县'],,[['']],[{'county': 150102}],County,[],modern,POINT (111.87654376409023 40.96160713329657),['内蒙古自治区'],['呼和浩特市'],['新城区'],40.159592,0.992042513,0.0,
80,37.0,陉,陉县,['陉县'],,[['']],[{'county': 150102}],County,[],modern,POINT (111.87654376409023 40.96160713329657),['内蒙古自治区'],['呼和浩特市'],['新城区'],40.159592,0.992042513,0.0,
81,37.0,鉏,滑县,['滑县'],,[['滑']],[{'county': 410526}],County,[],modern,POINT (114.6888574525372 35.46150507797576),['河南省'],['安阳市'],['滑县'],62.36188389,0.987643204,0.9257121821880339,鉏
82,39.0,瑕,河南省灵宝市西北,['河南省灵宝市西北'],西北,"[['河南', '灵宝']]",[{'county': 411282}],County,[],modern,POINT (110.56905901632433 34.55543679804472),['河南省'],['三门峡市'],['灵宝市'],78.79853179,0.984386338,1.0,﻿瑕
83,39.0,瑕县,河南省灵宝市西北,['河南省灵宝市西北'],西北,"[['河南', '灵宝']]",[{'county': 411282}],County,[],modern,POINT (110.56905901632433 34.55543679804472),['河南省'],['三门峡市'],['灵宝市'],78.79853179,0.984386338,1.0,﻿瑕
84,40.0,阴地,今河南省卢氏县东北之阴地城,['今河南省卢氏县东北之阴地城'],,"[['河南', '卢氏']]",[{'county': 411224}],County,[],modern,POINT (111.00043935782008 33.97959176567885),['河南省'],['三门峡市'],['卢氏县'],91.74699459,0.981820644,1.0,﻿阴地
85,41.0,瓜衍之县,山西省孝义市北,['山西省孝义市北'],北,"[['山西', '孝义']]",[{'county': 141181}],County,[],modern,POINT (111.47332812158838 37.21365600896934),['山西省'],['吕梁市'],['孝义市'],50.85595132,0.989923065,0.0,
86,43.0,长子,山西省长子县,['山西省长子县'],,"[['山西', '长子']]",[{'county': 140428}],County,[],modern,POINT (112.74601270384923 36.096420533715026),['山西省'],['长治市'],['长子县'],47.71652397,0.990545132,1.0,﻿长子
87,43.0,纯留,山西省屯留县,['山西省屯留县'],,"[['山西', '屯留']]",[{'county': 140405}],County,[],modern,POINT (112.74240510841435 36.372005508422305),['山西省'],['长治市'],['屯留区'],52.61571028,0.989574375,0.7632293424753275,纯留
88,44.0,绛,山西省翼城县东南,['山西省翼城县东南'],东南,"[['山西', '翼城']]",[{'county': 141022}],County,[],modern,POINT (111.90603287202585 35.548721585602976),['山西省'],['临汾市'],['翼城县'],59.46143143,0.988217919,0.8993660599601341,﻿绛
89,44.0,绛,山西省侯马市西,['山西省侯马市西'],西,"[['山西', '侯马']]",[{'county': 141081}],County,[],modern,POINT (111.32846183259753 35.59036828305365),['山西省'],['临汾市'],['侯马市'],18.11651056,0.996410275,0.12383619839571353,﻿绛
90,45.0,任县,河北省任县东南,['河北省任县东南'],东南,"[['河北', '任']]",[{'county': 130505}],County,[],modern,POINT (114.83840681780181 37.130563019371905),['河北省'],['邢台市'],['任泽区'],31.61770578,0.993735059,1.0,﻿任
91,46.0,中牟,河南省鹤壁市西,['河南省鹤壁市西'],西,"[['河南', '鹤壁']]",[{'prefecture': 4106}],Prefecture,[],modern,POINT (114.17099681983701 35.748493488758115),['河南省'],['鹤壁市'],['NA'],70.38062339,0.986054318,1.0,﻿中牟
92,46.0,中牟,河南省中牟县东,['河南省中牟县东'],东,"[['河南', '中牟']]",[{'county': 410122}],County,[],modern,POINT (114.07987773020048 34.7153547336753),['河南省'],['郑州市'],['中牟县'],61.33837284,0.987846009,0.0,﻿中牟
93,48.0,邬县,山西省介休市东北,['山西省介休市东北'],东北,"[['山西', '介休']]",[{'county': 140781}],County,[],modern,POINT (112.07433048751864 37.0744554990241),['山西省'],['晋中市'],['介休市'],40.88995185,0.991897794,1.0,﻿邬
94,48.0,祁县,山西省祁县东南,['山西省祁县东南'],东南,"[['山西', '祁']]",[{'county': 140727}],County,[],modern,POINT (112.56366474085573 37.178344199597525),['山西省'],['晋中市'],['祁县'],47.73548334,0.990541376,1.0,祁
95,48.0,平陵县,山西省文水县东北,['山西省文水县东北'],东北,"[['山西', '文水']]",[{'county': 141121}],County,[],modern,POINT (112.02085390132206 37.501287527895926),['山西省'],['吕梁市'],['文水县'],70.54339101,0.986022066,1.0,平陵
96,48.0,梗阳县,山西省清徐县,['山西省清徐县'],,"[['山西', '清徐']]",[{'county': 140121}],County,[],modern,POINT (112.28442053702733 37.61975373872302),['山西省'],['太原市'],['清徐县'],40.44159733,0.991986634,1.0,梗阳
97,48.0,涂水县,山西省榆次市西南,['山西省榆次市西南'],西南,"[['山西', '榆次']]",[{'county': 140702}],County,[],modern,POINT (112.71080729830437 37.580962019394775),['山西省'],['晋中市'],['榆次区'],59.0183775,0.988305708,1.0,涂水
98,48.0,马首县,山西省寿阳县东南,['山西省寿阳县东南'],东南,"[['山西', '寿阳']]",[{'county': 140725}],County,[],modern,POINT (113.23339424621481 37.67317466233141),['山西省'],['晋中市'],['寿阳县'],65.28824085,0.987063356,1.0,马首
99,48.0,孟县,山西省阳曲县东北,['山西省阳曲县东北'],东北,"[['山西', '阳曲']]",[{'county': 140122}],County,[],modern,POINT (112.93120833021128 38.279632932372),['山西省'],['太原市'],['阳曲县'],87.44477665,0.982673113,0.0,
100,49.0,铜鞮,山西省沁县南,['山西省沁县南'],南,"[['山西', '沁']]",[{'county': 140430}],County,[],modern,POINT (112.61813237788624 36.57589974482548),['山西省'],['长治市'],['沁县'],61.43167988,0.987827521,1.0,﻿铜鞮
101,49.0,平阳,山西省临汾市西南,['山西省临汾市西南'],西南,"[['山西', '临汾']]",[{'prefecture': 1410}],Prefecture,[],modern,POINT (110.95969003614391 35.8697002512513),['山西省'],['临汾市'],['NA'],219.4164836,0.956523366,1.0,平阳
102,49.0,杨,山西省洪洞县东南,['山西省洪洞县东南'],东南,"[['山西', '洪洞']]",[{'county': 141024}],County,[],modern,POINT (111.76672382011358 36.20860499514204),['山西省'],['临汾市'],['洪洞县'],60.14682682,0.98808211,1.0,杨
103,50.0,邯郸,河北省邯郸市,['河北省邯郸市'],,"[['河北', '邯郸']]",[{'prefecture': 1304}],Prefecture,[],modern,POINT (114.44668734096498 36.541271873895774),['河北省'],['邯郸市'],['NA'],190.7269408,0.962208102,1.0,邯郸
104,51.0,原县,河南省济源市西北,['河南省济源市西北'],西北,"[['河南', '济源']]",[{'county': 419001}],County,[],modern,POINT (112.24817757435811 35.17075479973811),['河南省'],['省直辖县级行政单位'],['济源市'],66.0486936,0.986912675,1.0,﻿原
105,51.0,冀,山西省河津县东北,['山西省河津县东北'],东北,"[['山西', '河津']]",[{'county': 140882}],County,[],modern,POINT (110.75914438497132 35.67038605850372),['山西省'],['运城市'],['河津市'],35.33819181,0.992997857,0.0,
106,52.0,甘县,今河南省洛阳市南,['今河南省洛阳市南'],南,"[['河南', '洛阳']]",[{'prefecture': 4103}],Prefecture,[],modern,POINT (111.88502779612631 33.936568536157154),['河南省'],['洛阳市'],['NA'],184.0920369,0.963522786,1.0,﻿甘
107,53.0,邽县,今甘肃省天水市,['今甘肃省天水市'],,"[['甘肃', '天水']]",[{'prefecture': 6205}],Prefecture,[],modern,POINT (105.5352232950286 34.619472378442836),['甘肃省'],['天水市'],['NA'],201.4318231,0.960086966,1.0,﻿上邽
108,53.0,冀县,今甘肃省甘谷县,['今甘肃省甘谷县'],,"[['甘肃', '甘谷']]",[{'county': 620523}],County,[],modern,POINT (105.29211680774137 34.798646697617116),['甘肃省'],['天水市'],['甘谷县'],61.32412183,0.987848833,1.0,冀
109,53.0,杜县,今陕西省西安市南,['今陕西省西安市南'],南,"[['陕西', '西安', '']]",[{'county': 610102}],County,[],modern,POINT (109.00912340681806 34.250181297737655),['陕西省'],['西安市'],['新城区'],9.406437512,0.998136146,1.0,杜
110,53.0,郑县,今陕西省华县,['今陕西省华县'],,"[['陕西', '华']]",[{'county': 610503}],County,[],modern,POINT (109.79253308275264 34.415757407111215),['陕西省'],['渭南市'],['华州区'],51.39288001,0.989816675,1.0,郑
111,53.0,上邽,今甘肃省天水市,['今甘肃省天水市'],,"[['甘肃', '天水']]",[{'prefecture': 6205}],Prefecture,[],modern,POINT (105.5352232950286 34.619472378442836),['甘肃省'],['天水市'],['NA'],201.4318231,0.960086966,1.0,﻿上邽
112,53.0,下邽,今陕西省渭南市北,['今陕西省渭南市北'],北,"[['陕西', '渭南']]",[{'prefecture': 6105}],Prefecture,[],modern,POINT (110.00115251300494 35.400639776140196),['陕西省'],['渭南市'],['NA'],197.4939403,0.960867244,1.0,下邽
113,53.0,虢县,今陕西省宝鸡县西,['今陕西省宝鸡县西'],西,"[['陕西', '宝鸡', '']]",[{'county': 610303}],County,[],modern,POINT (107.0234891672807 34.446506655867054),['陕西省'],['宝鸡市'],['金台区'],39.19364265,0.992233912,1.0,虢
114,54.0,叔夷釐邑,莱邑,['莱邑'],,[['']],[{'county': 150102}],County,[],modern,POINT (111.87654376409023 40.96160713329657),['内蒙古自治区'],['呼和浩特市'],['新城区'],40.159592,0.992042513,0.0,
115,54.0,晏子得到的是千家之县,晏子得到的是千家之县,['晏子得到的是千家之县'],,[['']],[{'county': 150102}],County,[],modern,POINT (111.87654376409023 40.96160713329657),['内蒙古自治区'],['呼和浩特市'],['新城区'],40.159592,0.992042513,0.0,
116,54.0,棠县,山东省平度市东南,['山东省平度市东南'],东南,"[['山东', '平度']]",[{'county': 370283}],County,[],modern,POINT (120.10953551148197 36.666384138213765),['山东省'],['青岛市'],['平度市'],75.75054554,0.984990286,1.0,棠
117,55.0,朱方,江苏省镇江市东南,['江苏省镇江市东南'],东南,"[['江苏', '镇江']]",[{'prefecture': 3211}],Prefecture,[],modern,POINT (119.62245573671458 31.889315970181663),['江苏省'],['镇江市'],['NA'],96.77066532,0.98082522,1.0,﻿朱方
118,55.0,卑梁,安徽省天长市西北,['安徽省天长市西北'],西北,"[['安徽', '天长']]",[{'county': 341181}],County,[],modern,POINT (118.8655749544128 32.823934315023585),['安徽省'],['滁州市'],['天长市'],60.45801971,0.988020448,1.0,卑梁
119,57.0,阳翟县,河南阳城,['河南阳城'],,"[['河南', '']]",[{'county': 410103}],County,[],modern,POINT (113.58890162690777 34.69682914812475),['河南省'],['郑州市'],['二七区'],18.8121651,0.996272433,0.0,
120,57.0,栎,阳翟,['阳翟'],,[['']],[{'county': 150102}],County,[],modern,POINT (111.87654376409023 40.96160713329657),['内蒙古自治区'],['呼和浩特市'],['新城区'],40.159592,0.992042513,0.0,栎
121,58.0,临淄,山东省淄博市临淄北,['山东省淄博市临淄北'],北,"[['山东', '淄博', '临淄']]",[{'county': 370305}],County,[],modern,POINT (118.33493738075714 36.92475525528664),['山东省'],['淄博市'],['临淄区'],43.10172805,0.991459538,1.0,﻿临淄
122,59.0,高唐,山东省高唐县东,['山东省高唐县东'],东,"[['山东', '高唐']]",[{'county': 371526}],County,[],modern,POINT (116.33732372305903 36.84298649357507),['山东省'],['聊城市'],['高唐县'],45.36134352,0.991011803,1.0,﻿高唐
123,60.0,酅,山东省淄博市东北,['山东省淄博市东北'],东北,"[['山东', '淄博']]",[{'prefecture': 3703}],Prefecture,[],modern,POINT (118.2691054737019 36.85991483250163),['山东省'],['淄博市'],['NA'],163.0909326,0.967684084,0.0,
124,60.0,安平,山东省淄博市东北,['山东省淄博市东北'],东北,"[['山东', '淄博']]",[{'prefecture': 3703}],Prefecture,[],modern,POINT (118.2691054737019 36.85991483250163),['山东省'],['淄博市'],['NA'],163.0909326,0.967684084,1.0,﻿安平
125,61.0,阿,山东省,['山东省'],,"[['山东', '']]",[{'county': 370103}],County,[],modern,POINT (117.00911731547055 36.5758000069818),['山东省'],['济南市'],['市中区'],29.95470545,0.994064576,0.0,
126,61.0,甄,山东省甄城县北,['山东省甄城县北'],北,"[['山东', '']]",[{'county': 370103}],County,[],modern,POINT (117.00726465536935 36.61871069504737),['山东省'],['济南市'],['市中区'],29.95470545,0.994064576,1.0,甄
127,62.0,即墨,山东省平度市东南,['山东省平度市东南'],东南,"[['山东', '平度']]",[{'county': 370283}],County,[],modern,POINT (120.10953551148197 36.666384138213765),['山东省'],['青岛市'],['平度市'],75.75054554,0.984990286,1.0,﻿即墨
128,62.0,阿,山东省阳谷县东北阿城镇,['山东省阳谷县东北阿城镇'],,"[['山东', '阳谷']]",[{'county': 371521}],County,[],modern,POINT (115.89599300368246 36.13660391775855),['山东省'],['聊城市'],['阳谷县'],51.79464603,0.989737066,1.0,阿
129,63.0,南武城,山东省平邑县东南故县,['山东省平邑县东南故县'],,"[['山东', '平邑']]",[{'county': 371326}],County,[],modern,POINT (117.69571212322336 35.43307694006579),['山东省'],['临沂市'],['平邑县'],65.66592939,0.986988518,1.0,南武城
130,64.0,薛,山东省滕州市南,['山东省滕州市南'],南,"[['山东', '滕州']]",[{'county': 370481}],County,[],modern,POINT (117.18857537588664 34.957232410003584),['山东省'],['枣庄市'],['滕州市'],56.84437582,0.988736479,1.0,﻿薛
131,66.0,蒙,河南省商丘市东北,['河南省商丘市东北'],东北,"[['河南', '商丘']]",[{'prefecture': 4114}],Prefecture,[],modern,POINT (115.94129939141018 34.46248224368045),['河南省'],['商丘市'],['NA'],188.6200494,0.962625576,1.0,﻿蒙
132,67.0,昌城,山东省淄博市东南昌城,['山东省淄博市东南昌城'],,"[['山东', '淄博']]",[{'prefecture': 3703}],Prefecture,[],modern,POINT (117.97021332650442 36.600497675699785),['山东省'],['淄博市'],['NA'],163.0909326,0.967684084,1.0,﻿昌城
133,68.0,聊城,山东省聊城市西北,['山东省聊城市西北'],西北,"[['山东', '聊城']]",[{'prefecture': 3715}],Prefecture,[],modern,POINT (115.67934270139241 36.72552756576119),['山东省'],['聊城市'],['NA'],163.68846,0.967565686,1.0,聊城
134,70.0,夜邑,山东省莱州市,['山东省莱州市'],,"[['山东', '莱州']]",[{'county': 370683}],County,[],modern,POINT (120.09115158114481 37.237674681837504),['山东省'],['烟台市'],['莱州市'],70.68717372,0.985993576,0.0,
135,71.0,齐县,山东省沂源县东南,['山东省沂源县东南'],东南,"[['山东', '沂源']]",[{'county': 370323}],County,[],modern,POINT (118.34226760773868 36.068079813885504),['山东省'],['淄博市'],['沂源县'],57.28950744,0.988648278,0.0,
136,72.0,平陆县,山东省汶上县北,['山东省汶上县北'],北,"[['山东', '汶上']]",[{'county': 370830}],County,[],modern,POINT (116.59036192116336 35.83594935953927),['山东省'],['济宁市'],['汶上县'],52.95605999,0.989506936,1.0,﻿平陆
137,73.0,平陵县,山东省济南市历城区,['山东省济南市历城区'],,"[['山东', '济南', '历城']]",[{'county': 370112}],County,[],modern,POINT (117.26419499342173 36.60683837397319),['山东省'],['济南市'],['历城区'],64.03915346,0.987310858,1.0,﻿平陵
138,75.0,安阳,山东阳谷东北,['山东阳谷东北'],东北,"[['山东', '阳谷']]",[{'county': 371521}],County,[],modern,POINT (115.97405502340088 36.23617323228588),['山东省'],['聊城市'],['阳谷县'],51.79464603,0.989737066,1.0,﻿安阳
139,76.0,易（阳）,山东省沂水县,['山东省沂水县'],,"[['山东', '沂水']]",[{'county': 371323}],County,[],modern,POINT (118.4998252027747 35.896948852100344),['山东省'],['临沂市'],['沂水县'],81.56099993,0.983838964,0.0,
140,76.0,高密,高密,['高密'],,[['高密']],[{'county': 370785}],County,[],modern,POINT (119.70412526659143 36.4209547819697),['山东省'],['潍坊市'],['高密市'],60.89086863,0.98793468,0.0,
141,76.0,平阿,平阿,['平阿'],,[['']],[{'county': 150102}],County,[],modern,POINT (111.87654376409023 40.96160713329657),['内蒙古自治区'],['呼和浩特市'],['新城区'],40.159592,0.992042513,0.0,
142,76.0,平陆,平陆,['平陆'],,[['平陆']],[{'county': 140829}],County,[],modern,POINT (111.24986017042431 34.864893892023225),['山西省'],['运城市'],['平陆县'],67.78554905,0.986568523,0.0,
143,77.0,平阳,山西省临汾市西南,['山西省临汾市西南'],西南,"[['山西', '临汾']]",[{'prefecture': 1410}],Prefecture,[],modern,POINT (110.95969003614391 35.8697002512513),['山西省'],['临汾市'],['NA'],219.4164836,0.956523366,1.0,﻿平阳
144,78.0,杨氏县,山西省洪洞县东南,['山西省洪洞县东南'],东南,"[['山西', '洪洞']]",[{'county': 141024}],County,[],modern,POINT (111.76672382011358 36.20860499514204),['山西省'],['临汾市'],['洪洞县'],60.14682682,0.98808211,1.0,﻿杨氏
145,78.0,长子县,山西省长子县西南,['山西省长子县西南'],西南,"[['山西', '长子']]",[{'county': 140428}],County,[],modern,POINT (112.73650880783453 36.037037708848246),['山西省'],['长治市'],['长子县'],47.71652397,0.990545132,0.0,
146,79.0,铜鞮,山西省沁县南,['山西省沁县南'],南,"[['山西', '沁']]",[{'county': 140430}],County,[],modern,POINT (112.61813237788624 36.57589974482548),['山西省'],['长治市'],['沁县'],61.43167988,0.987827521,1.0,﻿铜鞮
147,80.0,屯留,山西省屯留县南,['山西省屯留县南'],南,"[['山西', '屯留']]",[{'county': 140405}],County,[],modern,POINT (112.76587678224547 36.27309000567509),['山西省'],['长治市'],['屯留区'],52.61571028,0.989574375,1.0,﻿屯留
148,80.0,晋,山西省,['山西省'],,[['山西']],[{'province': 14}],Province,[],modern,POINT (112.47245736275306 37.66516721635999),['山西省'],['NA'],['NA'],758.2426072,0.849756793,0.0,
149,80.0,端氏,山西省,['山西省'],,[['山西']],[{'province': 14}],Province,[],modern,POINT (112.47245736275306 37.66516721635999),['山西省'],['NA'],['NA'],758.2426072,0.849756793,0.0,
150,80.0,上党郡,山西省,['山西省'],,[['山西']],[{'province': 14}],Province,[],modern,POINT (112.47245736275306 37.66516721635999),['山西省'],['NA'],['NA'],758.2426072,0.849756793,0.0,
151,80.0,尚子,山西省,['山西省'],,[['山西']],[{'province': 14}],Province,[],modern,POINT (112.47245736275306 37.66516721635999),['山西省'],['NA'],['NA'],758.2426072,0.849756793,0.0,
152,81.0,京,河南省荥阳市东南,['河南省荥阳市东南'],东南,"[['河南', '荥阳']]",[{'county': 410182}],County,[],modern,POINT (113.42713048062978 34.695882459958945),['河南省'],['郑州市'],['荥阳市'],45.42760202,0.990998674,1.0,﻿京
153,81.0,郑邑,河南省荥阳市东南,['河南省荥阳市东南'],东南,"[['河南', '荥阳']]",[{'county': 410182}],County,[],modern,POINT (113.42713048062978 34.695882459958945),['河南省'],['郑州市'],['荥阳市'],45.42760202,0.990998674,0.0,
154,83.0,邢丘,河南省温县东平皋故城,['河南省温县东平皋故城'],,"[['河南', '温']]",[{'county': 410825}],County,[],modern,POINT (113.04985216390031 34.95060243994841),['河南省'],['焦作市'],['温县'],33.72644378,0.993317219,1.0,﻿邢丘
155,84.0,卢氏令戈,河南省卢氏县,['河南省卢氏县'],,"[['河南', '卢氏']]",[{'county': 411224}],County,[],modern,POINT (111.00043935782008 33.97959176567885),['河南省'],['三门峡市'],['卢氏县'],91.74699459,0.981820644,0.0,
156,84.0,卢氏城,河南省卢氏县,['河南省卢氏县'],,"[['河南', '卢氏']]",[{'county': 411224}],County,[],modern,POINT (111.00043935782008 33.97959176567885),['河南省'],['三门峡市'],['卢氏县'],91.74699459,0.981820644,0.0,
157,85.0,新城,河南省伊川县西南,['河南省伊川县西南'],西南,"[['河南', '伊川']]",[{'county': 410329}],County,[],modern,POINT (112.29911588403783 34.31849099148184),['河南省'],['洛阳市'],['伊川县'],53.19816679,0.989458963,1.0,﻿新城
158,86.0,路,山西省潞城县东北,['山西省潞城县东北'],东北,"[['山西', '潞城']]",[{'county': 140406}],County,[],modern,POINT (113.31552966168692 36.42392405047477),['山西省'],['长治市'],['潞城区'],42.44207846,0.991590246,1.0,﻿路
159,86.0,涉,河北省涉县西北,['河北省涉县西北'],西北,"[['河北', '涉']]",[{'county': 130426}],County,[],modern,POINT (113.63040281653161 36.68555202916863),['河北省'],['邯郸市'],['涉县'],62.63587666,0.987588913,1.0,涉
160,86.0,端氏,山西省沁水县东,['山西省沁水县东'],东,"[['山西', '沁水']]",[{'county': 140521}],County,[],modern,POINT (112.53505901783956 35.79707011165995),['山西省'],['晋城市'],['沁水县'],95.54393548,0.981068293,1.0,端氏
161,87.0,修鱼县,今河南原武县东,['今河南原武县东'],东,"[['河南', '']]",[{'county': 410103}],County,[],modern,POINT (113.6338570331626 34.69682914812475),['河南省'],['郑州市'],['二七区'],18.8121651,0.996272433,1.0,﻿修鱼
162,88.0,宜阳,河南省宜阳县西,['河南省宜阳县西'],西,"[['河南', '宜阳']]",[{'county': 410327}],County,[],modern,POINT (111.90287371157324 34.493351038567894),['河南省'],['洛阳市'],['宜阳县'],66.29070063,0.986864722,1.0,﻿宜阳
163,90.0,皋落,山西垣曲县东南,['山西垣曲县东南'],东南,"[['山西', '垣曲']]",[{'county': 140827}],County,[],modern,POINT (111.95547897846053 35.17075479973811),['山西省'],['运城市'],['垣曲县'],55.85266806,0.988932983,1.0,﻿皋落
164,92.0,洱阳,汝阳（在今河南商水县附近）,['汝阳（在今河南商水县附近）'],,"[['河南', '汝阳'], ['河南', '商水']]","[{'county': 410326}, {'county': 411623}]",County,['Multiple Matches'],modern,POINT (113.4863876710892 33.79033899412565),['河南省'],"['周口市', '洛阳市']","['汝阳县', '商水县']",65.05481495,0.987109609,0.0,
165,93.0,野王,河南省沁阳市,['河南省沁阳市'],,"[['河南', '沁阳']]",[{'county': 410882}],County,[],modern,POINT (112.85669844553732 35.14110672107772),['河南省'],['焦作市'],['沁阳市'],36.01866516,0.992863023,1.0,﻿野王
166,95.0,仑氏,河南登封县西南,['河南登封县西南'],西南,"[['河南', '登封']]",[{'county': 410185}],County,[],modern,POINT (112.891039664918 34.36013385793426),['河南省'],['郑州市'],['登封市'],55.44965752,0.989012838,0.0,
167,95.0,纶氏,河南登封县西南,['河南登封县西南'],西南,"[['河南', '登封']]",[{'county': 410185}],County,[],modern,POINT (112.891039664918 34.36013385793426),['河南省'],['郑州市'],['登封市'],55.44965752,0.989012838,1.0,纶氏
168,95.0,韩县,河南登封县西南,['河南登封县西南'],西南,"[['河南', '登封']]",[{'county': 410185}],County,[],modern,POINT (112.891039664918 34.36013385793426),['河南省'],['郑州市'],['登封市'],55.44965752,0.989012838,0.0,
169,96.0,阳翟,河南省禹州市,['河南省禹州市'],,"[['河南', '禹州']]",[{'county': 411081}],County,[],modern,POINT (113.35143618723392 34.20804183504339),['河南省'],['许昌市'],['禹州市'],55.97553144,0.988908638,1.0,阳翟
170,97.0,阳人县,河南汝州市西,['河南汝州市西'],西,"[['河南', '汝州']]",[{'county': 410482}],County,[],modern,POINT (112.70565219216941 34.1422310702784),['河南省'],['平顶山市'],['汝州市'],57.18441276,0.988669102,1.0,﻿阳人
171,99.0,格氏县,河南荣阳北,['河南荣阳北'],北,"[['河南', '']]",[{'county': 410103}],County,[],modern,POINT (113.64591382649851 34.72681534223693),['河南省'],['郑州市'],['二七区'],18.8121651,0.996272433,1.0,﻿格氏
172,99.0,安阳县,安阳,['安阳'],,[['安阳']],[{'prefecture': 4105}],Prefecture,[],modern,POINT (113.91996657201076 35.78345203480426),['河南省'],['安阳市'],['NA'],151.1603241,0.970048093,0.0,
173,99.0,彘县,彘,['彘'],,[['']],[{'county': 150102}],County,[],modern,POINT (111.87654376409023 40.96160713329657),['内蒙古自治区'],['呼和浩特市'],['新城区'],40.159592,0.992042513,0.0,
174,99.0,雍氏县,雍氏,['雍氏'],,[['']],[{'county': 150102}],County,[],modern,POINT (111.87654376409023 40.96160713329657),['内蒙古自治区'],['呼和浩特市'],['新城区'],40.159592,0.992042513,0.0,
175,99.0,阳城县,阳城,['阳城'],,[['阳城']],[{'county': 140522}],County,[],modern,POINT (112.35775456026812 35.469189039888896),['山西省'],['晋城市'],['阳城县'],59.80732854,0.98814938,0.0,
176,99.0,襄城县,襄城,['襄城'],,[['襄城']],[{'county': 411025}],County,[],modern,POINT (113.56201351843009 33.8560914989737),['河南省'],['许昌市'],['襄城县'],44.64150679,0.991154437,0.0,
177,99.0,喜县,喜,['喜'],,[['']],[{'county': 150102}],County,[],modern,POINT (111.87654376409023 40.96160713329657),['内蒙古自治区'],['呼和浩特市'],['新城区'],40.159592,0.992042513,0.0,
178,99.0,壤阴县,壤阴,['壤阴'],,[['']],[{'county': 150102}],County,[],modern,POINT (111.87654376409023 40.96160713329657),['内蒙古自治区'],['呼和浩特市'],['新城区'],40.159592,0.992042513,0.0,
179,99.0,郎皋县,郎皋,['郎皋'],,[['']],[{'county': 150102}],County,[],modern,POINT (111.87654376409023 40.96160713329657),['内蒙古自治区'],['呼和浩特市'],['新城区'],40.159592,0.992042513,0.0,
180,99.0,涅县,涅,['涅'],,[['']],[{'county': 150102}],County,[],modern,POINT (111.87654376409023 40.96160713329657),['内蒙古自治区'],['呼和浩特市'],['新城区'],40.159592,0.992042513,0.0,
181,99.0,露县,露,['露'],,[['']],[{'county': 150102}],County,[],modern,POINT (111.87654376409023 40.96160713329657),['内蒙古自治区'],['呼和浩特市'],['新城区'],40.159592,0.992042513,0.0,
182,99.0,於正县,於正,['於正'],,[['']],[{'county': 150102}],County,[],modern,POINT (111.87654376409023 40.96160713329657),['内蒙古自治区'],['呼和浩特市'],['新城区'],40.159592,0.992042513,0.0,
183,99.0,来县,来,['来'],,[['']],[{'county': 150102}],County,[],modern,POINT (111.87654376409023 40.96160713329657),['内蒙古自治区'],['呼和浩特市'],['新城区'],40.159592,0.992042513,0.0,
184,99.0,邻县,邻,['邻'],,[['']],[{'county': 150102}],County,[],modern,POINT (111.87654376409023 40.96160713329657),['内蒙古自治区'],['呼和浩特市'],['新城区'],40.159592,0.992042513,0.0,
185,100.0,盂,山西省阳曲县东北,['山西省阳曲县东北'],东北,"[['山西', '阳曲']]",[{'county': 140122}],County,[],modern,POINT (112.93120833021128 38.279632932372),['山西省'],['太原市'],['阳曲县'],87.44477665,0.982673113,1.0,﻿盂
186,100.0,平陵,山西省文水县东北,['山西省文水县东北'],东北,"[['山西', '文水']]",[{'county': 141121}],County,[],modern,POINT (112.02085390132206 37.501287527895926),['山西省'],['吕梁市'],['文水县'],70.54339101,0.986022066,1.0,平陵
187,101.0,梗阳,山西省清徐县,['山西省清徐县'],,"[['山西', '清徐']]",[{'county': 140121}],County,[],modern,POINT (112.28442053702733 37.61975373872302),['山西省'],['太原市'],['清徐县'],40.44159733,0.991986634,1.0,﻿梗阳
188,102.0,邬,山西省介休市东北,['山西省介休市东北'],东北,"[['山西', '介休']]",[{'county': 140781}],County,[],modern,POINT (112.07433048751864 37.0744554990241),['山西省'],['晋中市'],['介休市'],40.88995185,0.991897794,1.0,﻿邬
189,103.0,涂水,山西省榆次市西南,['山西省榆次市西南'],西南,"[['山西', '榆次']]",[{'county': 140702}],County,[],modern,POINT (112.71080729830437 37.580962019394775),['山西省'],['晋中市'],['榆次区'],59.0183775,0.988305708,1.0,﻿涂水
190,104.0,邯郸,河北省邯郸市,['河北省邯郸市'],,"[['河北', '邯郸']]",[{'prefecture': 1304}],Prefecture,[],modern,POINT (114.44668734096498 36.541271873895774),['河北省'],['邯郸市'],['NA'],190.7269408,0.962208102,1.0,﻿邯郸
191,105.0,祁县,山西省祁县东南,['山西省祁县东南'],东南,"[['山西', '祁']]",[{'county': 140727}],County,[],modern,POINT (112.56366474085573 37.178344199597525),['山西省'],['晋中市'],['祁县'],47.73548334,0.990541376,1.0,﻿祁
192,106.0,中牟,河南省鹤壁市西,['河南省鹤壁市西'],西,"[['河南', '鹤壁']]",[{'prefecture': 4106}],Prefecture,[],modern,POINT (114.17099681983701 35.748493488758115),['河南省'],['鹤壁市'],['NA'],70.38062339,0.986054318,1.0,﻿中牟
193,107.0,晋阳,山西省太原市西南,['山西省太原市西南'],西南,"[['山西', '太原']]",[{'prefecture': 1401}],Prefecture,[],modern,POINT (112.23326042897403 37.68957885305545),['山西省'],['太原市'],['NA'],150.1895488,0.970240449,1.0,﻿晋阳
194,108.0,泫氏,山西省高平市,['山西省高平市'],,"[['山西', '高平']]",[{'county': 140581}],County,[],modern,POINT (112.90838004946175 35.82144933697499),['山西省'],['晋城市'],['高平市'],44.0610721,0.991269448,1.0,﻿泫氏
195,109.0,平邑,山西省大同县东,['山西省大同县东'],东,"[['山西', '大同']]",[{'prefecture': 1402}],Prefecture,[],modern,POINT (113.91355460955305 39.89883588503277),['山西省'],['大同市'],['NA'],191.8953337,0.961976589,1.0,﻿平邑
196,111.0,番吾,河北省平山县东南,['河北省平山县东南'],东南,"[['河北', '平山']]",[{'county': 130131}],County,[],modern,POINT (114.03488238466727 38.315971981912384),['河北省'],['石家庄市'],['平山县'],74.58545793,0.985221144,1.0,﻿番吾
197,115.0,榆次,山西省榆次市,['山西省榆次市'],,"[['山西', '榆次']]",[{'county': 140702}],County,[],modern,POINT (112.80606991650117 37.635511644302525),['山西省'],['晋中市'],['榆次区'],59.0183775,0.988305708,1.0,﻿榆次
198,116.0,蔺,山西省离石县西,['山西省离石县西'],西,"[['山西', '离石']]",[{'county': 141102}],County,[],modern,POINT (111.16440600917059 37.58621469802759),['山西省'],['吕梁市'],['离石区'],64.08513554,0.987301747,1.0,﻿蔺
199,118.0,鄗,河北省柏乡县北,['河北省柏乡县北'],北,"[['河北', '柏乡']]",[{'county': 130524}],County,[],modern,POINT (114.72275114359101 37.59527286626825),['河北省'],['邢台市'],['柏乡县'],25.39233258,0.994968595,1.0,﻿鄗
200,120.0,代郡,河北省蔚县东北代王城,['河北省蔚县东北代王城'],,"[['河北', '蔚']]",[{'county': 130726}],County,[],modern,POINT (114.61045190069535 39.892225568658716),['河北省'],['张家口市'],['蔚县'],77.82585652,0.98457907,1.0,代
201,120.0,代县,河北省蔚县东北代王城,['河北省蔚县东北代王城'],,"[['河北', '蔚']]",[{'county': 130726}],County,[],modern,POINT (114.61045190069535 39.892225568658716),['河北省'],['张家口市'],['蔚县'],77.82585652,0.98457907,1.0,代
202,122.0,石邑,河北省获鹿县东南,['河北省获鹿县东南'],东南,"[['河北', '获鹿']]",[{'county': 130110}],County,[],modern,POINT (114.41174983454458 37.95967940322291),['河北省'],['石家庄市'],['鹿泉区'],40.98093584,0.991879766,1.0,石邑
203,123.0,云中,内蒙古自治区托克托县东北,['内蒙古自治区托克托县东北'],东北,"[['内蒙古', '托克托']]",[{'county': 150122}],County,[],modern,POINT (111.39971247209442 40.446017266527306),['内蒙古自治区'],['呼和浩特市'],['托克托县'],57.38170765,0.988630009,1.0,云中
204,124.0,雁门郡,山西省右玉县南,['山西省右玉县南'],南,"[['山西', '右玉']]",[{'county': 140623}],County,[],modern,POINT (112.41846099600633 39.85267986191653),['山西省'],['朔州市'],['右玉县'],65.02937462,0.987114649,0.0,
205,124.0,善无,山西省右玉县南,['山西省右玉县南'],南,"[['山西', '右玉']]",[{'county': 140623}],County,[],modern,POINT (112.41846099600633 39.85267986191653),['山西省'],['朔州市'],['右玉县'],65.02937462,0.987114649,1.0,﻿善无
206,126.0,南行唐,今河北省行唐县东北,['今河北省行唐县东北'],东北,"[['河北', '行唐']]",[{'county': 130125}],County,[],modern,POINT (114.49322173591435 38.63932089106895),['河北省'],['石家庄市'],['行唐县'],51.66138736,0.989763471,1.0,﻿南行唐
207,128.0,房子,防陵,['防陵'],,[['陵']],[{'county': 371403}],County,[],modern,POINT (116.69616538651331 37.416756878899875),['山东省'],['德州市'],['陵城区'],55.05665209,0.989090711,0.0,
208,128.0,安阳,河南安阳西南,['河南安阳西南'],西南,"[['河南', '安阳']]",[{'prefecture': 4105}],Prefecture,[],modern,POINT (113.91782422078211 35.77153853379669),['河南省'],['安阳市'],['NA'],151.1603241,0.970048093,0.0,
209,131.0,武垣县,今河北省肃宁县东南,['今河北省肃宁县东南'],东南,"[['河北', '肃宁']]",[{'county': 130926}],County,[],modern,POINT (115.96564043013896 38.35780706157759),['河北省'],['沧州市'],['肃宁县'],31.25143864,0.993807633,1.0,﻿武垣
210,132.0,元氏,河北省元氏县西北,['河北省元氏县西北'],西北,"[['河北', '元氏']]",[{'county': 130132}],County,[],modern,POINT (114.31931924460764 37.862395235119365),['河北省'],['石家庄市'],['元氏县'],44.29488856,0.991223118,1.0,﻿元氏
211,133.0,邢县,河北邢台,['河北邢台'],,"[['河北', '邢台']]",[{'prefecture': 1305}],Prefecture,[],modern,POINT (114.78086583070218 37.27875526653931),['河北省'],['邢台市'],['NA'],184.8426817,0.963374048,1.0,﻿邢
212,133.0,赵国,河北邢台,['河北邢台'],,"[['河北', '邢台']]",[{'prefecture': 1305}],Prefecture,[],modern,POINT (114.78086583070218 37.27875526653931),['河北省'],['邢台市'],['NA'],184.8426817,0.963374048,0.0,
213,134.0,新城,山西省朔州南,['山西省朔州南'],南,"[['山西', '朔州']]",[{'prefecture': 1406}],Prefecture,[],modern,POINT (112.7577333418269 39.3625088603206),['山西省'],['朔州市'],['NA'],148.9075147,0.97049448,1.0,﻿新城
214,135.0,狼孟县,山西省阳曲县,['山西省阳曲县'],,"[['山西', '阳曲']]",[{'county': 140122}],County,[],modern,POINT (112.59149975175032 38.186747937047),['山西省'],['太原市'],['阳曲县'],87.44477665,0.982673113,1.0,﻿狼孟
215,138.0,柏人,河北省隆尧县西,['河北省隆尧县西'],西,"[['河北', '隆尧']]",[{'county': 130525}],County,[],modern,POINT (114.67569049505056 37.38107330666618),['河北省'],['邢台市'],['隆尧县'],45.58473877,0.990967538,1.0,﻿柏人
216,140.0,平原津令,山东省平原县南,['山东省平原县南'],南,"[['山东', '平原']]",[{'county': 371426}],County,[],modern,POINT (116.40304329278604 37.04535351505217),['山东省'],['德州市'],['平原县'],47.29866895,0.990627929,0.0,
217,141.0,富昌县,内蒙古自治区准格尔旗,['内蒙古自治区准格尔旗'],,"[['内蒙古', '准格尔旗']]",[{'county': 150622}],County,[],modern,POINT (110.86678954140831 39.802110284004044),['内蒙古自治区'],['鄂尔多斯市'],['准格尔旗'],119.5357604,0.976314394,1.0,﻿富昌
218,142.0,武平,赵县,['赵县'],,[['赵']],[{'county': 130133}],County,[],modern,POINT (114.84986570556961 37.7772686779257),['河北省'],['石家庄市'],['赵县'],40.5970445,0.991955833,0.0,﻿武平
219,142.0,赵国,河北省文安县北,['河北省文安县北'],北,"[['河北', '文安']]",[{'county': 131026}],County,[],modern,POINT (116.5031976717793 38.97044642638492),['河北省'],['廊坊市'],['文安县'],46.94317953,0.990698368,0.0,
220,144.0,三年徐（令）,南轮城,['南轮城'],,"[['城'], ['南']]","[{'county': 140302}, {'county': 370202}]",County,['Multiple Matches'],modern,POINT (116.96252258663543 36.9556050867579),"['山东省', '山西省']","['阳泉市', '青岛市']","['城区', '市南区']",11.21288178,0.997778205,0.0,
221,144.0,商城,商平,['商平'],,[['商']],[{'county': 611002}],County,[],modern,POINT (109.9172640670168 33.91256989641228),['陕西省'],['商洛市'],['商州区'],69.68325714,0.986192498,0.0,
222,144.0,中阳,阳化,['阳化'],,[['']],[{'county': 150102}],County,[],modern,POINT (111.87654376409023 40.96160713329657),['内蒙古自治区'],['呼和浩特市'],['新城区'],40.159592,0.992042513,0.0,
223,144.0,阳丘,阳邑,['阳邑'],,[['']],[{'county': 150102}],County,[],modern,POINT (111.87654376409023 40.96160713329657),['内蒙古自治区'],['呼和浩特市'],['新城区'],40.159592,0.992042513,0.0,
224,144.0,武安,西都,['西都'],,[['西']],[{'county': 530829}],County,[],modern,POINT (99.50836955615424 22.68596839337485),['云南省'],['普洱市'],['西盟佤族自治县'],53.16703367,0.989465132,0.0,
225,144.0,平周,平州,['平州'],,[['']],[{'county': 150102}],County,[],modern,POINT (111.87654376409023 40.96160713329657),['内蒙古自治区'],['呼和浩特市'],['新城区'],40.159592,0.992042513,0.0,
226,144.0,寿阴,虑虒,['虑虒'],,[['']],[{'county': 150102}],County,[],modern,POINT (111.87654376409023 40.96160713329657),['内蒙古自治区'],['呼和浩特市'],['新城区'],40.159592,0.992042513,0.0,
227,144.0,藿人,大阴,['大阴'],,[['']],[{'county': 150102}],County,[],modern,POINT (111.87654376409023 40.96160713329657),['内蒙古自治区'],['呼和浩特市'],['新城区'],40.159592,0.992042513,0.0,
228,144.0,繁寺（止？）（繁畤）,娄番（弁？）（楼烦),['娄番（弁？）（楼烦)'],,[['']],[{'county': 150102}],County,[],modern,POINT (111.87654376409023 40.96160713329657),['内蒙古自治区'],['呼和浩特市'],['新城区'],40.159592,0.992042513,0.0,
229,144.0,酆,尹城,['尹城'],,[['城']],[{'county': 140302}],County,[],modern,POINT (113.54813158677086 37.86591791066611),['山西省'],['阳泉市'],['城区'],11.21288178,0.997778205,0.0,
230,144.0,平城,椁（崞）,['椁（崞）'],,[['']],[{'county': 150102}],County,[],modern,POINT (111.87654376409023 40.96160713329657),['内蒙古自治区'],['呼和浩特市'],['新城区'],40.159592,0.992042513,0.0,
231,144.0,邪（推邪？）,奴邑（茹？）,['奴邑（茹？）'],,[['']],[{'county': 150102}],County,[],modern,POINT (111.87654376409023 40.96160713329657),['内蒙古自治区'],['呼和浩特市'],['新城区'],40.159592,0.992042513,0.0,
232,144.0,博,平匋,['平匋'],,[['']],[{'county': 150102}],County,[],modern,POINT (111.87654376409023 40.96160713329657),['内蒙古自治区'],['呼和浩特市'],['新城区'],40.159592,0.992042513,0.0,
233,144.0,襄洹,平襄,['平襄'],,[['']],[{'county': 150102}],County,[],modern,POINT (111.87654376409023 40.96160713329657),['内蒙古自治区'],['呼和浩特市'],['新城区'],40.159592,0.992042513,0.0,
234,144.0,郎,成襄,['成襄'],,[['成']],[{'county': 621221}],County,[],modern,POINT (105.69706389135146 33.77029862141447),['甘肃省'],['陇南市'],['成县'],55.86384215,0.988930769,0.0,
235,144.0,平阴,鄩氏,['鄩氏'],,[['']],[{'county': 150102}],County,[],modern,POINT (111.87654376409023 40.96160713329657),['内蒙古自治区'],['呼和浩特市'],['新城区'],40.159592,0.992042513,0.0,
236,144.0,鄫,隰城,['隰城'],,"[['城'], ['隰']]","[{'county': 140302}, {'county': 141031}]",County,['Multiple Matches'],modern,POINT (112.2814646478308 37.284922202704145),['山西省'],"['阳泉市', '临汾市']","['城区', '隰县']",55.13781978,0.989074628,0.0,
237,144.0,莆子,奇氏,['奇氏'],,[['']],[{'county': 150102}],County,[],modern,POINT (111.87654376409023 40.96160713329657),['内蒙古自治区'],['呼和浩特市'],['新城区'],40.159592,0.992042513,0.0,
238,144.0,盧阳,平氏,['平氏'],,[['']],[{'county': 150102}],County,[],modern,POINT (111.87654376409023 40.96160713329657),['内蒙古自治区'],['呼和浩特市'],['新城区'],40.159592,0.992042513,0.0,
239,144.0,完（冠）阳（原阳）,星阳（清阳）,['星阳（清阳）'],,[['']],[{'county': 150102}],County,[],modern,POINT (111.87654376409023 40.96160713329657),['内蒙古自治区'],['呼和浩特市'],['新城区'],40.159592,0.992042513,0.0,
240,144.0,人也（任）,氏金（泜）,['氏金（泜）'],,[['金']],[{'county': 210213}],County,[],modern,POINT (121.90201651708037 39.15931620445815),['辽宁省'],['大连市'],['金州区'],58.51735473,0.988404984,0.0,
241,144.0,平于（平舒）,沙乇（沙泽）,['沙乇（沙泽）'],,[['沙']],[{'county': 350427}],County,[],modern,POINT (117.86969360204537 26.402296640261106),['福建省'],['三明市'],['沙县'],63.41871206,0.987433797,0.0,
242,144.0,干关（抨关）,平阳,['平阳'],,[['平阳']],[{'county': 330326}],County,[],modern,POINT (120.39401316957431 27.664300148932156),['浙江省'],['温州市'],['平阳县'],58.97865324,0.988313579,0.0,
243,144.0,邸,北箕,['北箕'],,[['北']],[{'county': 370203}],County,[],modern,POINT (120.36860381624948 36.10084409973514),['山东省'],['青岛市'],['市北区'],13.6674055,0.99729185,0.0,
244,144.0,狋氏,圁阳化,['圁阳化'],,[['']],[{'county': 150102}],County,[],modern,POINT (111.87654376409023 40.96160713329657),['内蒙古自治区'],['呼和浩特市'],['新城区'],40.159592,0.992042513,0.0,
245,144.0,阳新化,成,['成'],,[['成']],[{'county': 621221}],County,[],modern,POINT (105.69706389135146 33.77029862141447),['甘肃省'],['陇南市'],['成县'],55.86384215,0.988930769,0.0,
246,144.0,成白,上（曲）阳,['上（曲）阳'],,[['']],[{'county': 150102}],County,[],modern,POINT (111.87654376409023 40.96160713329657),['内蒙古自治区'],['呼和浩特市'],['新城区'],40.159592,0.992042513,0.0,
247,144.0,下（曲）阳,安阳,['安阳'],,[['安阳']],[{'prefecture': 4105}],Prefecture,[],modern,POINT (113.91996657201076 35.78345203480426),['河南省'],['安阳市'],['NA'],151.1603241,0.970048093,0.0,
248,144.0,家阳,上尃（博）,['上尃（博）'],,[['']],[{'county': 150102}],County,[],modern,POINT (111.87654376409023 40.96160713329657),['内蒙古自治区'],['呼和浩特市'],['新城区'],40.159592,0.992042513,0.0,
249,144.0,下尃（博）,北九门,['北九门'],,[['北']],[{'county': 370203}],County,[],modern,POINT (120.36860381624948 36.10084409973514),['山东省'],['青岛市'],['市北区'],13.6674055,0.99729185,0.0,
250,144.0,五陉,封氏,['封氏'],,[['']],[{'county': 150102}],County,[],modern,POINT (111.87654376409023 40.96160713329657),['内蒙古自治区'],['呼和浩特市'],['新城区'],40.159592,0.992042513,0.0,
251,144.0,新处,王夸（望诸？）,['王夸（望诸？）'],,[['']],[{'county': 150102}],County,[],modern,POINT (111.87654376409023 40.96160713329657),['内蒙古自治区'],['呼和浩特市'],['新城区'],40.159592,0.992042513,0.0,
252,144.0,关,宋子,['宋子'],,[['']],[{'county': 150102}],County,[],modern,POINT (111.87654376409023 40.96160713329657),['内蒙古自治区'],['呼和浩特市'],['新城区'],40.159592,0.992042513,0.0,
253,144.0,上艾,平台,['平台'],,[['']],[{'county': 150102}],County,[],modern,POINT (111.87654376409023 40.96160713329657),['内蒙古自治区'],['呼和浩特市'],['新城区'],40.159592,0.992042513,0.0,
254,144.0,凭,邓（苏）阳,['邓（苏）阳'],,[['邓']],[{'county': 411381}],County,[],modern,POINT (112.09207514991527 32.70213990455176),['河南省'],['南阳市'],['邓州市'],73.69042945,0.985398491,0.0,
255,144.0,邢,鸾即（安次？）,['鸾即（安次？）'],,[['安次']],[{'county': 131002}],County,[],modern,POINT (116.77771557961742 39.35871465925136),['河北省'],['廊坊市'],['安次区'],46.57750869,0.990770824,0.0,
256,144.0,觱（即裴）,安险（阴？、险？）,['安险（阴？、险？）'],,[['安']],[{'county': 510705}],County,[],modern,POINT (104.3771279562799 31.57051574005189),['四川省'],['绵阳市'],['安州区'],53.72621451,0.989354332,0.0,
257,144.0,大酉（扶柳）,鄚（权）,['鄚（权）'],,[['']],[{'county': 150102}],County,[],modern,POINT (111.87654376409023 40.96160713329657),['内蒙古自治区'],['呼和浩特市'],['新城区'],40.159592,0.992042513,0.0,
258,144.0,阿,貍,['貍'],,[['']],[{'county': 150102}],County,[],modern,POINT (111.87654376409023 40.96160713329657),['内蒙古自治区'],['呼和浩特市'],['新城区'],40.159592,0.992042513,0.0,
259,144.0,亲（新）处,阳湔（原）,['阳湔（原）'],,[['']],[{'county': 150102}],County,[],modern,POINT (111.87654376409023 40.96160713329657),['内蒙古自治区'],['呼和浩特市'],['新城区'],40.159592,0.992042513,0.0,
260,144.0,余亡（吾）,戏,['戏'],,[['']],[{'county': 150102}],County,[],modern,POINT (111.87654376409023 40.96160713329657),['内蒙古自治区'],['呼和浩特市'],['新城区'],40.159592,0.992042513,0.0,
261,144.0,武阳,战（沾？）,['战（沾？）'],,[['']],[{'county': 150102}],County,[],modern,POINT (111.87654376409023 40.96160713329657),['内蒙古自治区'],['呼和浩特市'],['新城区'],40.159592,0.992042513,0.0,
262,145.0,温县,河南省温县西南,['河南省温县西南'],西南,"[['河南', '温']]",[{'county': 410825}],County,[],modern,POINT (112.99257268385784 34.893863025996794),['河南省'],['焦作市'],['温县'],33.72644378,0.993317219,1.0,﻿温
263,145.0,魏县,河南省温县西南,['河南省温县西南'],西南,"[['河南', '温']]",[{'county': 410825}],County,[],modern,POINT (112.99257268385784 34.893863025996794),['河南省'],['焦作市'],['温县'],33.72644378,0.993317219,0.0,
264,146.0,少梁国,陕西省韩城市西南,['陕西省韩城市西南'],西南,"[['陕西', '韩城']]",[{'county': 610581}],County,[],modern,POINT (110.28597016323522 35.446027127981765),['陕西省'],['渭南市'],['韩城市'],60.05591236,0.988100124,1.0,﻿少梁
265,146.0,少梁,陕西省韩城市,['陕西省韩城市'],,"[['陕西', '韩城']]",[{'county': 610581}],County,[],modern,POINT (110.41915664787248 35.58849834830102),['陕西省'],['渭南市'],['韩城市'],60.05591236,0.988100124,0.752786830232942,﻿少梁
266,147.0,雒阴,陕西省大荔县西南洛河南岸,['陕西省大荔县西南洛河南岸'],,"[['陕西', '大荔']]",[{'county': 610523}],County,[],modern,POINT (110.01210300467098 34.82411115789529),['陕西省'],['渭南市'],['大荔县'],67.2192057,0.986680742,1.0,﻿雒阴
267,147.0,合阳,陕西省合阳县东南,['陕西省合阳县东南'],东南,"[['陕西', '合阳']]",[{'county': 610524}],County,[],modern,POINT (110.25805341874907 35.1197875851478),['陕西省'],['渭南市'],['合阳县'],54.72411301,0.989156602,1.0,合阳
268,148.0,邺,河北省临漳县西南,['河北省临漳县西南'],西南,"[['河北', '临漳']]",[{'county': 130423}],County,[],modern,POINT (114.54267540902563 36.16729457408801),['河北省'],['邯郸市'],['临漳县'],37.37513676,0.992594243,1.0,﻿邺
269,150.0,苦陉,河北省无极县东北,['河北省无极县东北'],东北,"[['河北', '无极']]",[{'county': 130130}],County,[],modern,POINT (115.02830651520212 38.23850613689574),['河北省'],['石家庄市'],['无极县'],32.78421452,0.993503919,1.0,苦陉
270,151.0,酸枣,河南省延津县西南,['河南省延津县西南'],西南,"[['河南', '延津']]",[{'county': 410726}],County,[],modern,POINT (114.12924841501902 35.193294016954795),['河南省'],['新乡市'],['延津县'],50.74193854,0.989945657,1.0,﻿酸枣
271,152.0,承匡,河南省睢县西南匡城,['河南省睢县西南匡城'],,"[['河南', '睢']]",[{'county': 411422}],County,[],modern,POINT (115.03689856263702 34.399387471977846),['河南省'],['商丘市'],['睢县'],43.69301082,0.991342378,1.0,﻿承匡
272,152.0,襄陵,河南省睢县西三十里有承匡城,['河南省睢县西三十里有承匡城'],,"[['河南', '睢']]",[{'county': 411422}],County,[],modern,POINT (115.03689856263702 34.399387471977846),['河南省'],['商丘市'],['睢县'],43.69301082,0.991342378,0.0,
273,153.0,安邑,山西省夏县西北,['山西省夏县西北'],西北,"[['山西', '夏']]",[{'county': 140828}],County,[],modern,POINT (111.20683237037606 35.22600849766492),['山西省'],['运城市'],['夏县'],64.14364937,0.987290153,1.0,﻿安邑
274,153.0,王垣,山西省垣曲县东南,['山西省垣曲县东南'],东南,"[['山西', '垣曲']]",[{'county': 140827}],County,[],modern,POINT (111.95547897846053 35.17075479973811),['山西省'],['运城市'],['垣曲县'],55.85266806,0.988932983,1.0,王垣
275,157.0,大梁,河南省开封市,['河南省开封市'],,"[['河南', '开封']]",[{'prefecture': 4102}],Prefecture,[],modern,POINT (114.53029986642758 34.60656434330035),['河南省'],['开封市'],['NA'],139.3962435,0.972379106,1.0,﻿大梁
276,158.0,绛,山西省侯马市西,['山西省侯马市西'],西,"[['山西', '侯马']]",[{'county': 141081}],County,[],modern,POINT (111.32846183259753 35.59036828305365),['山西省'],['临汾市'],['侯马市'],18.11651056,0.996410275,1.0,﻿绛
277,158.0,晋,山西省侯马市西,['山西省侯马市西'],西,"[['山西', '侯马']]",[{'county': 141081}],County,[],modern,POINT (111.32846183259753 35.59036828305365),['山西省'],['临汾市'],['侯马市'],18.11651056,0.996410275,0.0,
278,161.0,济阳县,今河南省兰考县东北,['今河南省兰考县东北'],东北,"[['河南', '兰考']]",[{'county': 410225}],County,[],modern,POINT (115.09196939744291 34.94527385867838),['河南省'],['开封市'],['兰考县'],50.45387348,0.990002736,1.0,﻿济阳
279,163.0,顿丘,河南浚县西,['河南浚县西'],西,"[['河南', '浚']]",[{'county': 410621}],County,[],modern,POINT (114.3762208187668 35.651547135524595),['河南省'],['鹤壁市'],['浚县'],51.47458677,0.989800485,1.0,﻿顿丘
280,163.0,淇,顿丘,['顿丘'],,[['丘']],[{'county': 130430}],County,[],modern,POINT (115.20802834515185 36.80272864977691),['河北省'],['邯郸市'],['邱县'],38.16372967,0.992437986,0.0,
281,164.0,阴晋,陕西省华阴市东,['陕西省华阴市东'],东,"[['陕西', '华阴']]",[{'county': 610582}],County,[],modern,POINT (110.11763006113412 34.52954863737746),['陕西省'],['渭南市'],['华阴市'],34.04787866,0.993253528,1.0,﻿阴晋
282,166.0,蒲子县,山西隰县,['山西隰县'],,"[['山西', '隰']]",[{'county': 141031}],County,[],modern,POINT (111.03617294127261 36.698794930447754),['山西省'],['临汾市'],['隰县'],55.13781978,0.989074628,1.0,﻿蒲子（蒲阳）
283,167.0,漆垣,陕西铜川西北,['陕西铜川西北'],西北,"[['陕西', '铜川', '']]",[{'county': 610204}],County,[],modern,POINT (108.74739197537846 35.20198579500413),['陕西省'],['铜川市'],['耀州区'],56.62119825,0.988780701,1.0,﻿漆垣
284,168.0,高奴县,今陕西延安市东北延河北岸,['今陕西延安市东北延河北岸'],,"[['陕西', '延安']]",[{'prefecture': 6106}],Prefecture,[],modern,POINT (109.55932185655246 36.421073135683955),['陕西省'],['延安市'],['NA'],294.1588303,0.941713423,0.8858424416432039,﻿高奴
285,169.0,皮氏,山西省河津县西,['山西省河津县西'],西,"[['山西', '河津']]",[{'county': 140882}],County,[],modern,POINT (110.63696218903414 35.60377636215732),['山西省'],['运城市'],['河津市'],35.33819181,0.992997857,1.0,﻿皮氏
286,169.0,汾水,皮氏县南,['皮氏县南'],南,[['']],[{'county': 150102}],County,[],modern,POINT (111.72447262851196 40.88490398888867),['内蒙古自治区'],['呼和浩特市'],['新城区'],40.159592,0.992042513,0.0,
287,170.0,蒲坂,山西省永济县西南,['山西省永济县西南'],西南,"[['山西', '永济']]",[{'county': 140881}],County,[],modern,POINT (110.38275114057996 34.850721704762805),['山西省'],['运城市'],['永济市'],56.14067997,0.988875914,0.0,
288,170.0,蒲阪,山西省永济县西南,['山西省永济县西南'],西南,"[['山西', '永济']]",[{'county': 140881}],County,[],modern,POINT (110.38275114057996 34.850721704762805),['山西省'],['运城市'],['永济市'],56.14067997,0.988875914,1.0,﻿蒲阪
289,172.0,平丘,河南省封丘县东,['河南省封丘县东'],东,"[['河南', '封丘']]",[{'county': 410727}],County,[],modern,POINT (114.57358337979448 35.08449169212227),['河南省'],['新乡市'],['封丘县'],54.13969195,0.989272403,1.0,﻿平丘
290,173.0,首垣,河南省长垣县东北,['河南省长垣县东北'],东北,"[['河南', '长垣']]",[{'county': 410783}],County,[],modern,POINT (114.85840202117504 35.303874201856985),['河南省'],['新乡市'],['长垣市'],52.75198117,0.989547373,1.0,﻿首垣
291,177.0,单父,山东省单县,['山东省单县'],,"[['山东', '单']]",[{'county': 371722}],County,[],modern,POINT (116.0959644590623 34.75478208139464),['山东省'],['菏泽市'],['单县'],67.02648053,0.98671893,1.0,﻿单父
292,180.0,燕,河南省延津县东北,['河南省延津县东北'],东北,"[['河南', '延津']]",[{'county': 410726}],County,[],modern,POINT (114.34314971462354 35.40672040912101),['河南省'],['新乡市'],['延津县'],50.74193854,0.989945657,1.0,﻿燕
293,180.0,虚,河南省延津县东,['河南省延津县东'],东,"[['河南', '延津']]",[{'county': 410726}],County,[],modern,POINT (114.31549415358043 35.305012622603826),['河南省'],['新乡市'],['延津县'],50.74193854,0.989945657,1.0,虚
294,180.0,长平,河南省西华县东北,['河南省西华县东北'],东北,"[['河南', '西华']]",[{'county': 411622}],County,[],modern,POINT (114.58752658261426 33.88403925529807),['河南省'],['周口市'],['西华县'],63.14239531,0.987488548,1.0,长平
295,180.0,雍丘,河南省杞县,['河南省杞县'],,"[['河南', '杞']]",[{'county': 410221}],County,[],modern,POINT (114.77638938048682 34.511538392033245),['河南省'],['开封市'],['杞县'],57.88441876,0.988530398,1.0,雍丘
296,180.0,山阳,河南省焦作市东北,['河南省焦作市东北'],东北,"[['河南', '焦作']]",[{'prefecture': 4108}],Prefecture,[],modern,POINT (113.32227126353712 35.30517401911678),['河南省'],['焦作市'],['NA'],101.3232812,0.979923135,1.0,山阳
297,181.0,修武县,河南省获嘉县,['河南省获嘉县'],,"[['河南', '获嘉']]",[{'county': 410724}],County,[],modern,POINT (113.63134816943477 35.19593376370737),['河南省'],['新乡市'],['获嘉县'],34.20392909,0.993222607,1.0,﻿修武
298,182.0,共城,河南辉县,['河南辉县'],,"[['河南', '辉']]",[{'county': 410782}],County,[],modern,POINT (113.73885767437748 35.57204064092735),['河南省'],['新乡市'],['辉县市'],62.91150614,0.987534298,0.0,
299,182.0,共县,河南辉县,['河南辉县'],,"[['河南', '辉']]",[{'county': 410782}],County,[],modern,POINT (113.73885767437748 35.57204064092735),['河南省'],['新乡市'],['辉县市'],62.91150614,0.987534298,1.0,﻿共
300,183.0,宅阳县,河南荥阳东,['河南荥阳东'],东,"[['河南', '荥阳']]",[{'county': 410182}],County,[],modern,POINT (113.39968027785254 34.80274196294287),['河南省'],['郑州市'],['荥阳市'],45.42760202,0.990998674,1.0,﻿宅阳
301,184.0,梧县,今河南许昌、鄢陵一带,['今河南许昌、鄢陵一带'],,"[['河南', '许昌', '鄢陵']]",[{'county': 411024}],County,[],modern,POINT (114.17751412411593 34.01837218896118),['河南省'],['许昌市'],['鄢陵县'],52.12701883,0.989671208,1.0,梧
302,186.0,涑[睘阝],山西西南的涑水边上的一个县,['山西西南的涑水边上的一个县'],,[['山西']],[{'province': 14}],Province,[],modern,POINT (112.47245736275306 37.66516721635999),['山西省'],['NA'],['NA'],758.2426072,0.849756793,1.0,﻿涑[睘阝]
303,186.0,安成,可能位于魏国境内,['可能位于魏国境内'],,[['魏']],[{'county': 130434}],County,[],modern,POINT (114.93101940641381 36.2500108803376),['河北省'],['邯郸市'],['魏县'],44.36872531,0.991208487,0.0,
304,186.0,焦,可能位于魏国境内,['可能位于魏国境内'],,[['魏']],[{'county': 130434}],County,[],modern,POINT (114.93101940641381 36.2500108803376),['河北省'],['邯郸市'],['魏县'],44.36872531,0.991208487,0.0,
305,186.0,禾,魏国境内,['魏国境内'],,[['魏']],[{'county': 130434}],County,[],modern,POINT (114.93101940641381 36.2500108803376),['河北省'],['邯郸市'],['魏县'],44.36872531,0.991208487,0.0,
306,186.0,垂,魏国境内,['魏国境内'],,[['魏']],[{'county': 130434}],County,[],modern,POINT (114.93101940641381 36.2500108803376),['河北省'],['邯郸市'],['魏县'],44.36872531,0.991208487,0.0,
307,186.0,言阳,魏国境内,['魏国境内'],,[['魏']],[{'county': 130434}],County,[],modern,POINT (114.93101940641381 36.2500108803376),['河北省'],['邯郸市'],['魏县'],44.36872531,0.991208487,0.0,
308,186.0,陕,魏国境内,['魏国境内'],,[['魏']],[{'county': 130434}],County,[],modern,POINT (114.93101940641381 36.2500108803376),['河北省'],['邯郸市'],['魏县'],44.36872531,0.991208487,0.0,
309,186.0,阴安,魏国境内,['魏国境内'],,[['魏']],[{'county': 130434}],County,[],modern,POINT (114.93101940641381 36.2500108803376),['河北省'],['邯郸市'],['魏县'],44.36872531,0.991208487,0.0,
310,186.0,合(沇),魏国境内,['魏国境内'],,[['魏']],[{'county': 130434}],County,[],modern,POINT (114.93101940641381 36.2500108803376),['河北省'],['邯郸市'],['魏县'],44.36872531,0.991208487,0.0,
311,186.0,襄垣,魏国境内,['魏国境内'],,[['魏']],[{'county': 130434}],County,[],modern,POINT (114.93101940641381 36.2500108803376),['河北省'],['邯郸市'],['魏县'],44.36872531,0.991208487,0.0,
312,186.0,奇氏,魏国境内,['魏国境内'],,[['魏']],[{'county': 130434}],County,[],modern,POINT (114.93101940641381 36.2500108803376),['河北省'],['邯郸市'],['魏县'],44.36872531,0.991208487,0.0,
313,186.0,成阳,魏国境内,['魏国境内'],,[['魏']],[{'county': 130434}],County,[],modern,POINT (114.93101940641381 36.2500108803376),['河北省'],['邯郸市'],['魏县'],44.36872531,0.991208487,0.0,
314,186.0,虚阳,魏国境内,['魏国境内'],,[['魏']],[{'county': 130434}],County,[],modern,POINT (114.93101940641381 36.2500108803376),['河北省'],['邯郸市'],['魏县'],44.36872531,0.991208487,0.0,
315,186.0,土匀(土军),魏国境内,['魏国境内'],,[['魏']],[{'county': 130434}],County,[],modern,POINT (114.93101940641381 36.2500108803376),['河北省'],['邯郸市'],['魏县'],44.36872531,0.991208487,0.0,
316,186.0,向,魏国境内,['魏国境内'],,[['魏']],[{'county': 130434}],County,[],modern,POINT (114.93101940641381 36.2500108803376),['河北省'],['邯郸市'],['魏县'],44.36872531,0.991208487,0.0,
317,186.0,妾(?)都蒙(?),韩、赵、魏三晋地区,['韩、赵、魏三晋地区'],,"[['赵'], ['魏'], ['晋']]","[{'county': 130133}, {'county': 130434}, {'county': 130183}]",County,['Multiple Matches'],modern,POINT (114.9517463750487 37.3384607408908),['河北省'],"['邯郸市', '石家庄市']","['赵县', '晋州市', '魏县']",70.43162291,0.986044212,0.0,
318,186.0,都噩丘郡昌里□,韩、赵、魏三晋地区,['韩、赵、魏三晋地区'],,"[['赵'], ['魏'], ['晋']]","[{'county': 130133}, {'county': 130434}, {'county': 130183}]",County,['Multiple Matches'],modern,POINT (114.9517463750487 37.3384607408908),['河北省'],"['邯郸市', '石家庄市']","['赵县', '晋州市', '魏县']",70.43162291,0.986044212,0.0,
319,186.0,噩丘县,可能位于韩、赵、魏三晋地区,['可能位于韩、赵、魏三晋地区'],,"[['赵'], ['魏'], ['晋']]","[{'county': 130133}, {'county': 130434}, {'county': 130183}]",County,['Multiple Matches'],modern,POINT (114.9517463750487 37.3384607408908),['河北省'],"['邯郸市', '石家庄市']","['赵县', '晋州市', '魏县']",70.43162291,0.986044212,0.0,
320,186.0,遽郡,可能位于韩、赵、魏三晋地区,['可能位于韩、赵、魏三晋地区'],,"[['赵'], ['魏'], ['晋']]","[{'county': 130133}, {'county': 130434}, {'county': 130183}]",County,['Multiple Matches'],modern,POINT (114.9517463750487 37.3384607408908),['河北省'],"['邯郸市', '石家庄市']","['赵县', '晋州市', '魏县']",70.43162291,0.986044212,0.0,
321,187.0,上谷,今河北省怀来县东南,['今河北省怀来县东南'],东南,"[['河北', '怀来']]",[{'county': 130730}],County,[],modern,POINT (115.77200785501473 40.23234942571935),['河北省'],['张家口市'],['怀来县'],61.43451425,0.987826959,0.0,
322,187.0,渔阳,今北京市密云县西南,['今北京市密云县西南'],西南,"[['北京', '密云']]",[{'county': 110118}],County,[],modern,POINT (116.86363974872192 40.35196484413998),['北京市'],['北京市辖区'],['密云区'],77.12663161,0.984717619,1.0,渔阳
323,187.0,右北平,今天津市蓟县,['今天津市蓟县'],,"[['天津', '蓟']]",[{'county': 120119}],County,[],modern,POINT (117.49261585476611 39.9984463212956),['天津市'],['天津市辖区'],['蓟州区'],57.54893782,0.988596873,0.0,
324,187.0,辽西,今辽宁省义县西,['今辽宁省义县西'],西,"[['辽宁', '义']]",[{'county': 210727}],County,[],modern,POINT (121.14163596973492 41.57433157873268),['辽宁省'],['锦州市'],['义县'],86.78088544,0.982804661,0.0,
325,188.0,辽西郡,今河北省迁安县西,['今河北省迁安县西'],西,"[['河北', '迁安']]",[{'county': 130283}],County,[],modern,POINT (118.59179770813469 40.03581773318275),['河北省'],['唐山市'],['迁安市'],52.28807219,0.989639295,0.0,
326,188.0,令支县,今河北省迁安县西,['今河北省迁安县西'],西,"[['河北', '迁安']]",[{'county': 130283}],County,[],modern,POINT (118.59179770813469 40.03581773318275),['河北省'],['唐山市'],['迁安市'],52.28807219,0.989639295,1.0,﻿令支
327,189.0,襄平,辽宁省辽阳市,['辽宁省辽阳市'],,"[['辽宁', '辽阳', '']]",[{'county': 211002}],County,[],modern,POINT (123.16150717595335 41.2797125555676),['辽宁省'],['辽阳市'],['白塔区'],7.584709263,0.998497116,1.0,﻿襄平
328,190.0,昌城,昌城,['昌城'],,[['城']],[{'county': 140302}],County,[],modern,POINT (113.54813158677086 37.86591791066611),['山西省'],['阳泉市'],['城区'],11.21288178,0.997778205,0.0,
329,190.0,涿,涿州,['涿州'],,[['涿州']],[{'county': 130681}],County,[],modern,POINT (115.96450473952339 39.48642971288701),['河北省'],['保定市'],['涿州市'],41.23563601,0.991829298,0.0,
330,190.0,阴坪,阴坪,['阴坪'],,[['']],[{'county': 150102}],County,[],modern,POINT (111.87654376409023 40.96160713329657),['内蒙古自治区'],['呼和浩特市'],['新城区'],40.159592,0.992042513,0.0,
331,190.0,恭昌,恭昌,['恭昌'],,[['']],[{'county': 150102}],County,[],modern,POINT (111.87654376409023 40.96160713329657),['内蒙古自治区'],['呼和浩特市'],['新城区'],40.159592,0.992042513,0.0,
332,190.0,匋阳,匋阳,['匋阳'],,[['']],[{'county': 150102}],County,[],modern,POINT (111.87654376409023 40.96160713329657),['内蒙古自治区'],['呼和浩特市'],['新城区'],40.159592,0.992042513,0.0,
333,190.0,方城,固安县南,['固安县南'],南,[['固安']],[{'county': 131022}],County,[],modern,POINT (116.30021394242681 39.250922439659846),['河北省'],['廊坊市'],['固安县'],47.16281424,0.990654848,1.0,方城
334,191.0,邓,湖北省襄樊市西北,['湖北省襄樊市西北'],西北,"[['湖北', '']]",[{'county': 420102}],County,[],modern,POINT (114.29370199706662 30.67693316349547),['湖北省'],['武汉市'],['江岸区'],17.17430851,0.996596969,1.0,﻿邓
335,192.0,湖阳,河南省唐河县西南,['河南省唐河县西南'],西南,"[['河南', '唐河']]",[{'county': 411328}],County,[],modern,POINT (112.69460497288287 32.48221219542366),['河南省'],['南阳市'],['唐河县'],79.25960939,0.984294977,1.0,﻿湖阳
336,193.0,竟陵,湖北省潜江市西北,['湖北省潜江市西北'],西北,"[['湖北', '潜江']]",[{'county': 429005}],County,[],modern,POINT (112.66363494817152 30.471164239803215),['湖北省'],['省直辖县级行政单位'],['潜江市'],63.57980174,0.987401877,1.0,﻿竟陵
337,194.0,苦,河南省鹿邑县东,['河南省鹿邑县东'],东,"[['河南', '鹿邑']]",[{'county': 411628}],County,[],modern,POINT (115.47993533666437 33.906247185226704),['河南省'],['周口市'],['鹿邑县'],60.25245178,0.988061181,1.0,﻿苦
338,195.0,期思,河南省淮滨县东南期思乡,['河南省淮滨县东南期思乡'],,"[['河南', '淮滨']]",[{'county': 411527}],County,[],modern,POINT (115.31412286503618 32.46081562194832),['河南省'],['信阳市'],['淮滨县'],55.69217628,0.988964784,1.0,﻿期思
339,196.0,寝,安徽省临泉县,['安徽省临泉县'],,"[['安徽', '临泉']]",[{'county': 341221}],County,[],modern,POINT (115.32828737405632 32.85900566936147),['安徽省'],['阜阳市'],['临泉县'],71.34504225,0.985863221,1.0,寝
340,197.0,鄀,湖北省宜城市东南,['湖北省宜城市东南'],东南,"[['湖北', '宜城']]",[{'county': 420684}],County,[],modern,POINT (112.54929721526733 31.592039069509852),['湖北省'],['襄阳市'],['宜城市'],77.65796106,0.984612338,1.0,﻿鄀
341,198.0,宛,南阳市,['南阳市'],,[['南阳']],[{'prefecture': 4113}],Prefecture,[],modern,POINT (112.18605667760141 33.06080863027986),['河南省'],['南阳市'],['NA'],281.5621608,0.944209411,0.0,
342,198.0,申县,南阳市,['南阳市'],,[['南阳']],[{'prefecture': 4113}],Prefecture,[],modern,POINT (112.18605667760141 33.06080863027986),['河南省'],['南阳市'],['NA'],281.5621608,0.944209411,1.0,申
343,199.0,楚县,今河南省西峡县,['今河南省西峡县'],,"[['河南', '西峡']]",[{'county': 411323}],County,[],modern,POINT (111.33477339151108 33.463616943856806),['河南省'],['南阳市'],['西峡县'],87.43215002,0.982675615,0.0,
344,199.0,白羽,今河南省西峡县,['今河南省西峡县'],,"[['河南', '西峡']]",[{'county': 411323}],County,[],modern,POINT (111.33477339151108 33.463616943856806),['河南省'],['南阳市'],['西峡县'],87.43215002,0.982675615,0.0,
345,200.0,叶县,今河南省叶县南,['今河南省叶县南'],南,"[['河南', '叶']]",[{'county': 410422}],County,[],modern,POINT (113.25559749685087 33.447944054547875),['河南省'],['平顶山市'],['叶县'],59.43074139,0.988224,1.0,﻿叶
346,201.0,阴,湖北省老河口市北,['湖北省老河口市北'],北,"[['湖北', '老河口']]",[{'county': 420682}],County,[],modern,POINT (111.67881903115388 32.57905262069674),['湖北省'],['襄阳市'],['老河口市'],51.66357793,0.989763037,1.0,﻿阴
347,202.0,息本,河南省息县西南,['河南省息县西南'],西南,"[['河南', '息']]",[{'county': 411528}],County,[],modern,POINT (114.7813614975039 32.280516102686875),['河南省'],['信阳市'],['息县'],63.4238693,0.987432775,0.0,
348,202.0,楚县,河南省息县西南,['河南省息县西南'],西南,"[['河南', '息']]",[{'county': 411528}],County,[],modern,POINT (114.7813614975039 32.280516102686875),['河南省'],['信阳市'],['息县'],63.4238693,0.987432775,0.0,
349,202.0,楚南阳郡,河南省息县西南,['河南省息县西南'],西南,"[['河南', '息']]",[{'county': 411528}],County,[],modern,POINT (114.7813614975039 32.280516102686875),['河南省'],['信阳市'],['息县'],63.4238693,0.987432775,0.0,
350,203.0,武城,河南省信阳市东北,['河南省信阳市东北'],东北,"[['河南', '信阳']]",[{'prefecture': 4115}],Prefecture,[],modern,POINT (115.3846284156569 32.34860379712833),['河南省'],['信阳市'],['NA'],217.9936215,0.956805302,1.0,﻿武城
351,204.0,上庸,湖北省竹山县西南,['湖北省竹山县西南'],西南,"[['湖北', '竹山']]",[{'county': 420323}],County,[],modern,POINT (110.02016358021368 32.23409831660457),['湖北省'],['十堰市'],['竹山县'],125.8539942,0.975062457,1.0,﻿上庸
352,205.0,随国,湖北省随州市,['湖北省随州市'],,"[['湖北', '随州']]",[{'prefecture': 4213}],Prefecture,[],modern,POINT (113.40714536481974 31.893582994913427),['湖北省'],['随州市'],['NA'],138.2134945,0.972613464,1.0,﻿随
353,206.0,鄢,湖北省宜城县东南楚王城,['湖北省宜城县东南楚王城'],,"[['湖北', '宜城']]",[{'county': 420684}],County,[],modern,POINT (112.40848498654628 31.67562340909594),['湖北省'],['襄阳市'],['宜城市'],77.65796106,0.984612338,1.0,鄢
354,206.0,郢,湖北省宜城县,['湖北省宜城县'],,"[['湖北', '宜城']]",[{'county': 420684}],County,[],modern,POINT (112.40848498654628 31.67562340909594),['湖北省'],['襄阳市'],['宜城市'],77.65796106,0.984612338,0.0,
355,207.0,陈县,今河南省淮阳县,['今河南省淮阳县'],,"[['河南', '淮阳']]",[{'county': 411603}],County,[],modern,POINT (114.83825605453461 33.678069228952864),['河南省'],['周口市'],['淮阳区'],64.09541647,0.98729971,1.0,﻿陈
356,207.0,陈麦,陈,['陈'],,[['']],[{'county': 150102}],County,[],modern,POINT (111.87654376409023 40.96160713329657),['内蒙古自治区'],['呼和浩特市'],['新城区'],40.159592,0.992042513,0.0,
357,207.0,陈,楚顷襄王东徒治于陈县,['楚顷襄王东徒治于陈县'],,[['']],[{'county': 150102}],County,[],modern,POINT (111.87654376409023 40.96160713329657),['内蒙古自治区'],['呼和浩特市'],['新城区'],40.159592,0.992042513,0.0,﻿陈
358,208.0,沈国,河南省平舆县北,['河南省平舆县北'],北,"[['河南', '平舆']]",[{'county': 411723}],County,[],modern,POINT (114.6141132524672 33.090581254088775),['河南省'],['驻马店市'],['平舆县'],50.68834719,0.989956276,0.0,
359,208.0,平县,河南省平舆县,['河南省平舆县'],,"[['河南', '平舆']]",[{'county': 411723}],County,[],modern,POINT (114.62813044872894 32.94796881069685),['河南省'],['驻马店市'],['平舆县'],50.68834719,0.989956276,0.7770006353683817,﻿平舆
360,209.0,莒,山东省莒县,['山东省莒县'],,"[['山东', '莒']]",[{'county': 371122}],County,[],modern,POINT (118.94914208359154 35.702241869277174),['山东省'],['日照市'],['莒县'],79.0048276,0.984345461,1.0,莒
361,209.0,计斤,山东省胶州市西南,['山东省胶州市西南'],西南,"[['山东', '胶州']]",[{'county': 370281}],County,[],modern,POINT (119.82850693451326 36.11687700930031),['山东省'],['青岛市'],['胶州市'],65.01276048,0.987117942,0.0,
362,210.0,鲁阳公,河南省鲁山县,['河南省鲁山县'],,"[['河南', '鲁山']]",[{'county': 410423}],County,[],modern,POINT (112.66968658592764 33.77054235455924),['河南省'],['平顶山市'],['鲁山县'],91.68392664,0.98183314,0.0,
363,211.0,临沅,湖南省常德市西,['湖南省常德市西'],西,"[['湖南', '常德']]",[{'prefecture': 4307}],Prefecture,[],modern,POINT (111.37972299663335 29.266696335577038),['湖南省'],['常德市'],['NA'],227.718694,0.954878311,1.0,﻿临沅
364,212.0,广陵,今江苏省扬州市西北,['今江苏省扬州市西北'],西北,"[['江苏', '扬州']]",[{'prefecture': 3210}],Prefecture,[],modern,POINT (119.41161384179128 33.09173205664527),['江苏省'],['扬州市'],['NA'],136.4526976,0.97296236,1.0,﻿广陵
365,213.0,居巢,安徽省六安县东北,['安徽省六安县东北'],东北,"[['安徽', '六安']]",[{'prefecture': 3415}],Prefecture,[],modern,POINT (116.38500765126264 32.11546780411756),['安徽省'],['六安市'],['NA'],187.4399413,0.96285941,1.0,﻿居巢
366,214.0,吴国,江苏省苏州市,['江苏省苏州市'],,"[['江苏', '苏州']]",[{'prefecture': 3205}],Prefecture,[],modern,POINT (120.70793150044615 31.401362843263264),['江苏省'],['苏州市'],['NA'],139.5234535,0.9723539,1.0,﻿吴
367,215.0,蔡,河南省上蔡县城关一带,['河南省上蔡县城关一带'],,"[['河南', '上蔡']]",[{'county': 411722}],County,[],modern,POINT (114.43138227105428 33.31576190188675),['河南省'],['驻马店市'],['上蔡县'],59.4675017,0.988216716,1.0,﻿上蔡
368,215.0,新蔡,河南省新蔡县,['河南省新蔡县'],,"[['河南', '新蔡']]",[{'county': 411729}],County,[],modern,POINT (114.93192773327081 32.800446441694675),['河南省'],['驻马店市'],['新蔡县'],53.79125465,0.989341445,0.0,
369,215.0,州来,安徽省凤台县,['安徽省凤台县'],,"[['安徽', '凤台']]",[{'county': 340421}],County,[],modern,POINT (116.58463247421815 32.77307801044718),['安徽省'],['淮南市'],['凤台县'],55.82160225,0.988939138,0.0,
370,215.0,下蔡,安徽省凤台县,['安徽省凤台县'],,"[['安徽', '凤台']]",[{'county': 340421}],County,[],modern,POINT (116.58463247421815 32.77307801044718),['安徽省'],['淮南市'],['凤台县'],55.82160225,0.988939138,0.0,
371,215.0,上蔡,楚县,['楚县'],,[['']],[{'county': 150102}],County,[],modern,POINT (111.87654376409023 40.96160713329657),['内蒙古自治区'],['呼和浩特市'],['新城区'],40.159592,0.992042513,0.0,﻿上蔡
372,217.0,钟离,安徽省凤阳县东北临淮关,['安徽省凤阳县东北临淮关'],,"[['安徽', '凤阳']]",[{'county': 341126}],County,[],modern,POINT (117.61672510764127 32.84248527073355),['安徽省'],['滁州市'],['凤阳县'],78.72892723,0.98440013,1.0,﻿钟离
373,218.0,朱方县,江苏省镇江市东丹徒镇,['江苏省镇江市东丹徒镇'],,"[['江苏', '镇江', '丹徒']]",[{'county': 321112}],County,[],modern,POINT (119.41384689493543 32.04274323946893),['江苏省'],['镇江市'],['丹徒区'],46.85956796,0.990714935,1.0,﻿朱方
374,220.0,汝水,襄城县故城南,['襄城县故城南'],南,"[['故城'], ['襄城']]","[{'county': 131126}, {'county': 411025}]",County,['Multiple Matches'],modern,POINT (114.77033703964169 35.61138304319566),"['河北省', '河南省']","['衡水市', '许昌市']","['故城县', '襄城县']",58.38236767,0.988431731,0.0,
375,220.0,楚,襄城县,['襄城县'],,[['襄城']],[{'county': 411025}],County,[],modern,POINT (113.56201351843009 33.8560914989737),['河南省'],['许昌市'],['襄城县'],44.64150679,0.991154437,0.0,
376,220.0,襄城君,流水之上,['流水之上'],,[['']],[{'county': 150102}],County,[],modern,POINT (111.87654376409023 40.96160713329657),['内蒙古自治区'],['呼和浩特市'],['新城区'],40.159592,0.992042513,0.0,
377,223.0,兰陵,山东省苍山县西南,['山东省苍山县西南'],西南,"[['山东', '苍山']]",[{'county': 371324}],County,[],modern,POINT (117.91594666820498 34.760535810746845),['山东省'],['临沂市'],['兰陵县'],58.59692928,0.988389217,1.0,﻿兰陵
378,224.0,寿春,安徽省寿县,['安徽省寿县'],,"[['安徽', '寿']]",[{'county': 340422}],County,[],modern,POINT (116.78281303829905 32.288368620639915),['安徽省'],['淮南市'],['寿县'],83.85817003,0.983383787,1.0,寿春
379,225.0,秦县,甘肃省天水市,['甘肃省天水市'],,"[['甘肃', '天水']]",[{'prefecture': 6205}],Prefecture,[],modern,POINT (105.5352232950286 34.619472378442836),['甘肃省'],['天水市'],['NA'],201.4318231,0.960086966,0.0,
380,225.0,上邽县,甘肃省天水市,['甘肃省天水市'],,"[['甘肃', '天水']]",[{'prefecture': 6205}],Prefecture,[],modern,POINT (105.5352232950286 34.619472378442836),['甘肃省'],['天水市'],['NA'],201.4318231,0.960086966,1.0,﻿上邽
381,225.5,秦县,甘肃省甘谷县东,['甘肃省甘谷县东'],东,"[['甘肃', '甘谷']]",[{'county': 620523}],County,[],modern,POINT (105.38786041632565 34.8033147929916),['甘肃省'],['天水市'],['甘谷县'],61.32412183,0.987848833,0.0,
382,225.5,汉志,天水郡,['天水郡'],,[['天水']],[{'prefecture': 6205}],Prefecture,[],modern,POINT (105.5352232950286 34.619472378442836),[],[],['天水'],201.4318231,0.960086966,0.0,
383,226.0,邽,陕西省渭南市北,['陕西省渭南市北'],北,"[['陕西', '渭南']]",[{'prefecture': 6105}],Prefecture,[],modern,POINT (110.00115251300494 35.400639776140196),['陕西省'],['渭南市'],['NA'],197.4939403,0.960867244,1.0,下邽
384,226.0,渭水,陕西省渭南市北,['陕西省渭南市北'],北,"[['陕西', '渭南']]",[{'prefecture': 6105}],Prefecture,[],modern,POINT (110.00115251300494 35.400639776140196),['陕西省'],['渭南市'],['NA'],197.4939403,0.960867244,0.0,
385,227.0,秦县,陕西省西安市南,['陕西省西安市南'],南,"[['陕西', '西安', '']]",[{'county': 610102}],County,[],modern,POINT (109.00912340681806 34.250181297737655),['陕西省'],['西安市'],['新城区'],9.406437512,0.998136146,0.0,
386,227.0,杜县,陕西省西安市南,['陕西省西安市南'],南,"[['陕西', '西安', '']]",[{'county': 610102}],County,[],modern,POINT (109.00912340681806 34.250181297737655),['陕西省'],['西安市'],['新城区'],9.406437512,0.998136146,1.0,杜
387,228.0,秦县,陕西省华县,['陕西省华县'],,"[['陕西', '华']]",[{'county': 610503}],County,[],modern,POINT (109.79253308275264 34.415757407111215),['陕西省'],['渭南市'],['华州区'],51.39288001,0.989816675,0.0,
388,229.0,虢国,陕西省宝鸡县西,['陕西省宝鸡县西'],西,"[['陕西', '宝鸡', '']]",[{'county': 610303}],County,[],modern,POINT (107.0234891672807 34.446506655867054),['陕西省'],['宝鸡市'],['金台区'],39.19364265,0.992233912,1.0,﻿虢
389,231.0,大荔,陕西省大荔县东,['陕西省大荔县东'],东,"[['陕西', '大荔']]",[{'county': 610523}],County,[],modern,POINT (110.13906473332085 34.831089168560425),['陕西省'],['渭南市'],['大荔县'],67.2192057,0.986680742,0.0,
390,231.0,临晋,陕西省大荔县,['陕西省大荔县'],,"[['陕西', '大荔']]",[{'county': 610523}],County,[],modern,POINT (110.01210300467098 34.82411115789529),['陕西省'],['渭南市'],['大荔县'],67.2192057,0.986680742,0.9278176468604276,﻿临晋
391,233.0,频阳县,陕西省富平县东北,['陕西省富平县东北'],东北,"[['陕西', '富平']]",[{'county': 610528}],County,[],modern,POINT (109.33494986510146 35.00258894572769),['陕西省'],['渭南市'],['富平县'],52.34314143,0.989628384,1.0,﻿频阳
392,233.0,东乡,陕西省富平县,['陕西省富平县'],,"[['陕西', '富平']]",[{'county': 610528}],County,[],modern,POINT (109.21760760523661 34.91589150466688),['陕西省'],['渭南市'],['富平县'],52.34314143,0.989628384,0.0,
393,234.0,雍城,陕西省凤翔县西南,['陕西省凤翔县西南'],西南,"[['陕西', '凤翔']]",[{'county': 610322}],County,[],modern,POINT (107.3134763512032 34.527650557895754),['陕西省'],['宝鸡市'],['凤翔县'],48.04201719,0.990480637,0.0,
394,234.0,泾阳,陕西省泾阳县,['陕西省泾阳县'],,"[['陕西', '泾阳']]",[{'county': 610423}],County,[],modern,POINT (108.76507167104455 34.5977177725984),['陕西省'],['咸阳市'],['泾阳县'],53.22166675,0.989454307,0.0,
395,235.0,籍姑,陕西省韩城市北,['陕西省韩城市北'],北,"[['陕西', '韩城']]",[{'county': 610581}],County,[],modern,POINT (110.37062928554487 35.70511797847071),['陕西省'],['渭南市'],['韩城市'],60.05591236,0.988100124,1.0,﻿籍姑
396,235.0,庞,陕西省韩城市东南,['陕西省韩城市东南'],东南,"[['陕西', '韩城']]",[{'county': 610581}],County,[],modern,POINT (110.44928720726946 35.42669175191095),['陕西省'],['渭南市'],['韩城市'],60.05591236,0.988100124,1.0,庞
397,236.0,堑洛,陕西省蒲城县南,['陕西省蒲城县南'],南,"[['陕西', '蒲城']]",[{'county': 610526}],County,[],modern,POINT (109.54878441162299 34.86525386003879),['陕西省'],['渭南市'],['蒲城县'],55.66178187,0.988970806,0.0,
398,236.0,城重泉,陕西省蒲城县南,['陕西省蒲城县南'],南,"[['陕西', '蒲城']]",[{'county': 610526}],County,[],modern,POINT (109.54878441162299 34.86525386003879),['陕西省'],['渭南市'],['蒲城县'],55.66178187,0.988970806,0.0,
399,237.0,栎阳,陕西省临潼县东北,['陕西省临潼县东北'],东北,"[['陕西', '临潼']]",[{'county': 610115}],County,[],modern,POINT (109.34907300242497 34.55444291971308),['陕西省'],['西安市'],['临潼区'],47.55745338,0.990576652,1.0,﻿栎阳
400,237.0,栎邑,陕西省临潼县东北,['陕西省临潼县东北'],东北,"[['陕西', '临潼']]",[{'county': 610115}],County,[],modern,POINT (109.34907300242497 34.55444291971308),['陕西省'],['西安市'],['临潼区'],47.55745338,0.990576652,0.0,
401,238.0,蓝田,陕西省蓝田县西,['陕西省蓝田县西'],西,"[['陕西', '蓝田']]",[{'county': 610122}],County,[],modern,POINT (109.27892635219146 34.08263121859176),['陕西省'],['西安市'],['蓝田县'],63.36555053,0.987444331,1.0,蓝田
402,242.0,高陵,陕西省高陵县,['陕西省高陵县'],,"[['陕西', '高陵']]",[{'county': 610117}],County,[],modern,POINT (109.06911747025248 34.510268812237626),['陕西省'],['西安市'],['高陵区'],24.5150891,0.995142418,1.0,﻿高陵
403,243.0,邰,陕西省武功县西南,['陕西省武功县西南'],西南,"[['陕西', '武功']]",[{'county': 610431}],County,[],modern,POINT (108.14858934043724 34.270679564909784),['陕西省'],['咸阳市'],['武功县'],36.90183489,0.992688026,0.0,
404,243.0,斄,陕西省武功县西北,['陕西省武功县西北'],西北,"[['陕西', '武功']]",[{'county': 610431}],County,[],modern,POINT (108.10264563970856 34.371274503164045),['陕西省'],['咸阳市'],['武功县'],36.90183489,0.992688026,0.7634230722833282,﻿斄
405,243.0,美阳,陕西省武功县西北,['陕西省武功县西北'],西北,"[['陕西', '武功']]",[{'county': 610431}],County,[],modern,POINT (108.10264563970856 34.371274503164045),['陕西省'],['咸阳市'],['武功县'],36.90183489,0.992688026,1.0,美阳
406,243.0,武功,陕西省眉县东,['陕西省眉县东'],东,"[['陕西', '眉']]",[{'county': 610326}],County,[],modern,POINT (107.89926559127012 34.15615944358678),['陕西省'],['宝鸡市'],['眉县'],42.31770958,0.991614889,1.0,武功
407,244.0,咸阳,陕西省咸阳市东,['陕西省咸阳市东'],东,"[['陕西', '咸阳']]",[{'prefecture': 6104}],Prefecture,[],modern,POINT (108.55681784087722 34.885061392510835),['陕西省'],['咸阳市'],['NA'],154.2531421,0.969435262,1.0,咸阳
408,244.0,渭城,陕西省咸阳市东,['陕西省咸阳市东'],东,"[['陕西', '咸阳']]",[{'prefecture': 6104}],Prefecture,[],modern,POINT (108.55681784087722 34.885061392510835),['陕西省'],['咸阳市'],['NA'],154.2531421,0.969435262,0.0,
409,245.0,武城,陕西华县东北,['陕西华县东北'],东北,"[['陕西', '华']]",[{'county': 610503}],County,[],modern,POINT (109.84804060727446 34.49222526629286),['陕西省'],['渭南市'],['华州区'],51.39288001,0.989816675,1.0,﻿武城
410,246.0,商,弘农商县,['弘农商县'],,[['商']],[{'county': 611002}],County,[],modern,POINT (109.9172640670168 33.91256989641228),['陕西省'],['商洛市'],['商州区'],69.68325714,0.986192498,0.38295232657116374,﻿商（於商）
411,246.0,於,弘农,['弘农'],,[['']],[{'county': 150102}],County,[],modern,POINT (111.87654376409023 40.96160713329657),['内蒙古自治区'],['呼和浩特市'],['新城区'],40.159592,0.992042513,0.0,﻿商（於商）
412,246.0,邬,丹凤县西北,['丹凤县西北'],西北,[['丹凤']],[{'county': 611022}],County,[],modern,POINT (110.31910484136895 33.81936465878717),['陕西省'],['商洛市'],['丹凤县'],67.09282882,0.986705783,0.0,
413,249.0,陕县,河南省陕县西南,['河南省陕县西南'],西南,"[['河南', '陕']]",[{'county': 411203}],County,[],modern,POINT (111.24186643263359 34.5378990500108),['河南省'],['三门峡市'],['陕州区'],65.87087084,0.98694791,1.0,﻿陕
414,255.0,义渠,甘肃省庆阳市西南,['甘肃省庆阳市西南'],西南,"[['甘肃', '庆阳']]",[{'prefecture': 6210}],Prefecture,[],modern,POINT (107.2510416493361 35.80698140934946),['甘肃省'],['庆阳市'],['NA'],262.0798602,0.948069763,1.0,﻿义渠
415,256.0,南郑,陕西省汉中市,['陕西省汉中市'],,"[['陕西', '汉中']]",[{'prefecture': 6107}],Prefecture,[],modern,POINT (107.02313109729458 33.01812403770947),['陕西省'],['汉中市'],['NA'],262.9433129,0.947898672,1.0,﻿南郑
416,258.0,朐衍,宁夏回族自治区盐池县,['宁夏回族自治区盐池县'],,"[['宁夏', '盐池']]",[{'county': 640323}],County,[],modern,POINT (106.98778738738284 37.63455424942703),['宁夏回族自治区'],['吴忠市'],['盐池县'],128.1115211,0.974615136,1.0,﻿朐衍
417,258.0,义渠,秦县,['秦县'],,[['']],[{'county': 150102}],County,[],modern,POINT (111.87654376409023 40.96160713329657),['内蒙古自治区'],['呼和浩特市'],['新城区'],40.159592,0.992042513,0.0,
418,258.0,大荔,秦县,['秦县'],,[['']],[{'county': 150102}],County,[],modern,POINT (111.87654376409023 40.96160713329657),['内蒙古自治区'],['呼和浩特市'],['新城区'],40.159592,0.992042513,0.0,
419,258.0,乌氏,秦县,['秦县'],,[['']],[{'county': 150102}],County,[],modern,POINT (111.87654376409023 40.96160713329657),['内蒙古自治区'],['呼和浩特市'],['新城区'],40.159592,0.992042513,0.0,
420,259.0,巴子国都城,重庆市嘉陵江北岸,['重庆市嘉陵江北岸'],,"[['重庆', '江北']]",[{'county': 500105}],County,[],modern,POINT (106.67583477107067 29.60435456341),['重庆市'],['重庆市辖区'],['江北区'],42.269765,0.991624389,0.0,
421,259.0,巴郡,江州,['江州'],,[['江州']],[{'county': 451402}],County,[],modern,POINT (107.33901676791362 22.523708629513393),['广西壮族自治区'],['崇左市'],['江州区'],86.28812978,0.982902299,0.0,
422,260.0,鱼复县,今重庆市奉节县东白帝城,['今重庆市奉节县东白帝城'],,"[['重庆', '奉节']]",[{'county': 500236}],County,[],modern,POINT (109.38425764019328 30.953245560781887),['重庆市'],['重庆市辖县'],['奉节县'],99.40356819,0.980303519,1.0,﻿鱼复
423,261.0,阆中县,四川省阆中市,['四川省阆中市'],,"[['四川', '阆中']]",[{'county': 511381}],County,[],modern,POINT (105.97345273943043 31.60576248897682),['四川省'],['南充市'],['阆中市'],69.66061223,0.986196985,1.0,﻿阆中
424,262.0,天彭门,汶山,['汶山'],,[['']],[{'county': 150102}],County,[],modern,POINT (111.87654376409023 40.96160713329657),['内蒙古自治区'],['呼和浩特市'],['新城区'],40.159592,0.992042513,0.0,
425,262.0,天彭阙,湔氏县,['湔氏县'],,[['']],[{'county': 150102}],County,[],modern,POINT (111.87654376409023 40.96160713329657),['内蒙古自治区'],['呼和浩特市'],['新城区'],40.159592,0.992042513,0.0,
426,264.0,乌氏,乌氏县在今宁夏回族自治区固原市东南,['乌氏县在今宁夏回族自治区固原市东南'],东南,"[['宁夏', '固原']]",[{'prefecture': 6404}],Prefecture,[],modern,POINT (106.33435613141629 35.63195698548123),['宁夏回族自治区'],['固原市'],['NA'],148.1776036,0.970639109,1.0,﻿乌氏
427,265.0,成都,四川省成都市,['四川省成都市'],,"[['四川', '成都', '']]",[{'county': 510105}],County,[],modern,POINT (103.95662205094197 30.68587587799874),['四川省'],['成都市'],['青羊区'],17.61737652,0.996509176,1.0,﻿成都
428,266.0,成都,四川省成都市,['四川省成都市'],,"[['四川', '成都', '']]",[{'county': 510105}],County,[],modern,POINT (103.95662205094197 30.68587587799874),['四川省'],['成都市'],['青羊区'],17.61737652,0.996509176,0.0,
429,266.0,郫城,四川省郫县,['四川省郫县'],,"[['四川', '郫']]",[{'county': 510117}],County,[],modern,POINT (103.87109819215422 30.826298798770082),['四川省'],['成都市'],['郫都区'],32.04354527,0.99365068,0.0,
430,267.0,成都,四川省,['四川省'],,"[['四川', '']]",[{'county': 510105}],County,[],modern,POINT (103.95662205094197 30.68587587799874),['四川省'],['成都市'],['青羊区'],17.61737652,0.996509176,0.0,
431,267.0,郫,四川省,['四川省'],,"[['四川', '']]",[{'county': 510105}],County,[],modern,POINT (103.95662205094197 30.68587587799874),['四川省'],['成都市'],['青羊区'],17.61737652,0.996509176,0.0,
432,267.0,临邛,四川省邛崃市,['四川省邛崃市'],,"[['四川', '邛崃']]",[{'county': 510183}],County,[],modern,POINT (103.43078694949861 30.376885528351863),['四川省'],['成都市'],['邛崃市'],68.8922896,0.986349226,1.0,﻿临邛
433,268.0,郿邑,陕西省眉县东北,['陕西省眉县东北'],东北,"[['陕西', '眉']]",[{'county': 610326}],County,[],modern,POINT (107.89926559127012 34.17936920883804),['陕西省'],['宝鸡市'],['眉县'],42.31770958,0.991614889,0.0,
434,270.0,宜阳,山西省垣曲县东南,['山西省垣曲县东南'],东南,"[['山西', '垣曲']]",[{'county': 140827}],County,[],modern,POINT (111.95547897846053 35.17075479973811),['山西省'],['运城市'],['垣曲县'],55.85266806,0.988932983,0.0,
435,270.0,武遂,山西省垣曲县东南,['山西省垣曲县东南'],东南,"[['山西', '垣曲']]",[{'county': 140827}],County,[],modern,POINT (111.95547897846053 35.17075479973811),['山西省'],['运城市'],['垣曲县'],55.85266806,0.988932983,1.0,﻿武遂
436,275.0,广衍,内蒙古自治区准格尔旗西南,['内蒙古自治区准格尔旗西南'],西南,"[['内蒙古', '准格尔旗']]",[{'county': 150622}],County,[],modern,POINT (110.61314772747882 39.562919507989925),['内蒙古自治区'],['鄂尔多斯市'],['准格尔旗'],119.5357604,0.976314394,1.0,广衍
437,275.0,漆垣,内蒙古自治区准格尔旗南,['内蒙古自治区准格尔旗南'],南,"[['内蒙古', '准格尔旗']]",[{'county': 150622}],County,[],modern,POINT (110.66394595188339 39.54567139207688),['内蒙古自治区'],['鄂尔多斯市'],['准格尔旗'],119.5357604,0.976314394,0.0,
438,277.0,邯郸,陕西省延安市东南,['陕西省延安市东南'],东南,"[['陕西', '延安']]",[{'prefecture': 6106}],Prefecture,[],modern,POINT (109.90557162811635 36.029932889983094),['陕西省'],['延安市'],['NA'],294.1588303,0.941713423,0.0,
439,277.0,定阳,陕西省延安市东南,['陕西省延安市东南'],东南,"[['陕西', '延安']]",[{'prefecture': 6106}],Prefecture,[],modern,POINT (109.90557162811635 36.029932889983094),['陕西省'],['延安市'],['NA'],294.1588303,0.941713423,1.0,﻿定阳
440,284.0,梗阳,汉时太原郡榆次县下,['汉时太原郡榆次县下'],,"[['榆次县', '太原郡']]",[{'county': 'hvd_95644'}],County,[],historic,POINT (112.74468 37.67847),[],['太原郡'],['榆次县'],0.000376825,0.999999925,1.0,﻿梗阳
441,290.0,狄道,甘肃省临洮县,['甘肃省临洮县'],,"[['甘肃', '临洮']]",[{'county': 621124}],County,[],modern,POINT (104.03289503000583 35.52038835747743),['甘肃省'],['定西市'],['临洮县'],99.80944108,0.980223097,1.0,﻿狄道
442,293.0,穰,河南省邓州市,['河南省邓州市'],,"[['河南', '邓州']]",[{'county': 411381}],County,[],modern,POINT (112.09207514991527 32.70213990455176),['河南省'],['南阳市'],['邓州市'],73.69042945,0.985398491,1.0,﻿穰
443,293.0,鄢郢,穰县故城南,['穰县故城南'],南,[['故城']],[{'county': 131126}],County,[],modern,POINT (115.83947959860129 37.205434133471144),['河北省'],['衡水市'],['故城县'],58.38236767,0.988431731,0.0,
444,294.0,筑阳县,湖北省谷城县东,['湖北省谷城县东'],东,"[['湖北', '谷城']]",[{'county': 420625}],County,[],modern,POINT (111.60537401688737 32.226937456873486),['湖北省'],['襄阳市'],['谷城县'],70.24257298,0.986081672,1.0,﻿筑阳
445,295.0,枳,重庆市涪陵区东北,['重庆市涪陵区东北'],东北,"[['重庆', '涪陵']]",[{'county': 500102}],County,[],modern,POINT (107.47158982960522 29.803349296687948),['重庆市'],['重庆市辖区'],['涪陵区'],79.65273665,0.98421708,1.0,﻿枳
446,295.0,枳县,重庆市涪陵区,['重庆市涪陵区'],,"[['重庆', '涪陵']]",[{'county': 500102}],County,[],modern,POINT (107.31483157123321 29.688802703627246),['重庆市'],['重庆市辖区'],['涪陵区'],79.65273665,0.98421708,0.8554406207074652,﻿枳
447,296.0,郢,江陵县西北纪南城,['江陵县西北纪南城'],,"[['南城'], ['江陵']]","[{'county': 361021}, {'county': 421024}]",County,['Multiple Matches'],modern,POINT (114.56772186923723 28.819102721824812),"['江西省', '湖北省']","['抚州市', '荆州市']","['江陵县', '南城县']",65.25339541,0.987070261,0.0,﻿郢
448,299.0,巫本,重庆市巫山县北,['重庆市巫山县北'],北,"[['重庆', '巫山']]",[{'county': 500237}],County,[],modern,POINT (109.93246161656182 31.336727825061292),['重庆市'],['重庆市辖县'],['巫山县'],88.58474515,0.982447233,0.0,
449,299.0,巫县,重庆市巫山县,['重庆市巫山县'],,"[['重庆', '巫山']]",[{'county': 500237}],County,[],modern,POINT (109.96630345162689 31.142293026111695),['重庆市'],['重庆市辖县'],['巫山县'],88.58474515,0.982447233,0.8578992571675573,﻿巫
450,303.0,华阳,河南省新郑市北,['河南省新郑市北'],北,"[['河南', '新郑']]",[{'county': 410184}],County,[],modern,POINT (113.75323506341584 34.567189221284956),['河南省'],['郑州市'],['新郑市'],41.76272481,0.991724857,1.0,﻿华阳
451,304.0,卷地,河南省原阳县西南原武西北,['河南省原阳县西南原武西北'],西北,"[['河南', '原阳']]",[{'county': 410725}],County,[],modern,POINT (113.87174639248101 35.11626934245543),['河南省'],['新乡市'],['原阳县'],63.93833859,0.987330835,0.0,
452,304.0,卷县,河南省原阳县西南原武西北,['河南省原阳县西南原武西北'],西北,"[['河南', '原阳']]",[{'county': 410725}],County,[],modern,POINT (113.87174639248101 35.11626934245543),['河南省'],['新乡市'],['原阳县'],63.93833859,0.987330835,1.0,﻿卷
453,307.0,陶,山东省定陶县,['山东省定陶县'],,"[['山东', '定陶']]",[{'county': 371703}],County,[],modern,POINT (115.62928609886544 35.131485986724925),['山东省'],['菏泽市'],['定陶区'],44.59219611,0.991164207,1.0,﻿陶
454,308.0,郏地,河南省洛阳市西,['河南省洛阳市西'],西,"[['河南', '洛阳']]",[{'prefecture': 4103}],Prefecture,[],modern,POINT (111.5952484042518 34.340656502886404),['河南省'],['洛阳市'],['NA'],184.0920369,0.963522786,0.0,
455,308.0,河南,河南省,['河南省'],,"[['河南', '']]",[{'county': 410103}],County,[],modern,POINT (113.58890162690777 34.69682914812475),['河南省'],['郑州市'],['二七区'],18.8121651,0.996272433,0.0,﻿河南
456,309.0,汝水,河南省汝州市西南,['河南省汝州市西南'],西南,"[['河南', '汝州']]",[{'county': 410482}],County,[],modern,POINT (112.6889180656963 34.037985744007),['河南省'],['平顶山市'],['汝州市'],57.18441276,0.988669102,0.0,
457,309.0,三里水,梁县西北,['梁县西北'],西北,[['']],[{'county': 150102}],County,[],modern,POINT (111.81446593050288 41.04329863010605),['内蒙古自治区'],['呼和浩特市'],['新城区'],40.159592,0.992042513,0.0,
458,311.0,缑氏,河南偃师市东南,['河南偃师市东南'],东南,"[['河南', '偃师']]",[{'county': 410381}],County,[],modern,POINT (112.81733550072434 34.55477811443505),['河南省'],['洛阳市'],['偃师市'],44.69381359,0.991144072,1.0,﻿缑氏
459,312.0,纶,洛州嵩县,['洛州嵩县'],,[['嵩']],[{'county': 410325}],County,[],modern,POINT (112.00753972103428 33.964938693358164),['河南省'],['洛阳市'],['嵩县'],87.55897426,0.982650486,0.0,纶氏
460,312.0,蔺,西河,['西河'],,[['西']],[{'county': 530829}],County,[],modern,POINT (99.50836955615424 22.68596839337485),['云南省'],['普洱市'],['西盟佤族自治县'],53.16703367,0.989465132,0.0,
461,314.0,宁新中,河南省安阳市南,['河南省安阳市南'],南,"[['河南', '安阳']]",[{'prefecture': 4105}],Prefecture,[],modern,POINT (114.70460181217771 35.549333655835994),['河南省'],['安阳市'],['NA'],151.1603241,0.970048093,1.0,﻿宁新中
462,314.0,安阳,河南省安阳市,['河南省安阳市'],,"[['河南', '安阳']]",[{'prefecture': 4105}],Prefecture,[],modern,POINT (113.91996657201076 35.78345203480426),['河南省'],['安阳市'],['NA'],151.1603241,0.970048093,0.49935613981066573,安阳
463,315.0,郑县,今河南新郑,['今河南新郑'],,"[['河南', '新郑']]",[{'county': 410184}],County,[],modern,POINT (113.78138131984028 34.480015827257546),['河南省'],['郑州市'],['新郑市'],41.76272481,0.991724857,1.0,﻿郑
464,315.0,韩桓惠王九年至三十四年、韩王安元年到八年由郑县令监造的铭文,郑县,['郑县'],,[['']],[{'county': 150102}],County,[],modern,POINT (111.87654376409023 40.96160713329657),['内蒙古自治区'],['呼和浩特市'],['新城区'],40.159592,0.992042513,0.0,
465,318.0,穀城,河南省洛阳市西北,['河南省洛阳市西北'],西北,"[['河南', '洛阳']]",[{'prefecture': 4103}],Prefecture,[],modern,POINT (112.00587770416683 34.67363961176599),['河南省'],['洛阳市'],['NA'],184.0920369,0.963522786,1.0,﻿穀城
466,318.0,平阴,河南省孟津县东北,['河南省孟津县东北'],东北,"[['河南', '孟津']]",[{'county': 410322}],County,[],modern,POINT (112.50149908901741 34.891413229118484),['河南省'],['洛阳市'],['孟津县'],53.96800048,0.989306423,1.0,平阴
467,318.0,偃师,河南省偃师市东,['河南省偃师市东'],东,"[['河南', '偃师']]",[{'county': 410381}],County,[],modern,POINT (112.77570825593591 34.63491047676301),['河南省'],['洛阳市'],['偃师市'],44.69381359,0.991144072,1.0,偃师
468,318.0,巩,河南省巩义西南,['河南省巩义西南'],西南,"[['河南', '巩义']]",[{'county': 410181}],County,[],modern,POINT (112.93211342986267 34.613607627379224),['河南省'],['郑州市'],['巩义市'],44.34613735,0.991212963,1.0,巩
469,319.0,成周城,洛阳县东北二十六里,['洛阳县东北二十六里'],,[['洛阳']],[{'prefecture': 4103}],Prefecture,[],modern,POINT (111.87842175433917 34.32697013404825),['河南省'],['洛阳市'],['NA'],184.0920369,0.963522786,0.0,
470,319.0,洛阳,洛阳县,['洛阳县'],,[['洛阳']],[{'prefecture': 4103}],Prefecture,[],modern,POINT (111.87842175433917 34.32697013404825),['河南省'],['洛阳市'],['NA'],184.0920369,0.963522786,0.7291709647811854,﻿洛阳
471,319.0,雒阳,洛阳,['洛阳'],,[['洛阳']],[{'prefecture': 4103}],Prefecture,[],modern,POINT (111.87842175433917 34.32697013404825),['河南省'],['洛阳市'],['NA'],184.0920369,0.963522786,0.0,
472,324.0,尉氏县,河南省尉氏县,['河南省尉氏县'],,"[['河南', '尉氏']]",[{'county': 410223}],County,[],modern,POINT (114.11673570360213 34.40078404655394),['河南省'],['开封市'],['尉氏县'],53.39883342,0.989419202,1.0,﻿尉氏
473,325.0,邘国,河南省沁阳市西北,['河南省沁阳市西北'],西北,"[['河南', '沁阳']]",[{'county': 410882}],County,[],modern,POINT (112.82138557806744 35.190658622595265),['河南省'],['焦作市'],['沁阳市'],36.01866516,0.992863023,1.0,﻿邘
474,325.0,邘台,野王县西北三十里,['野王县西北三十里'],,"[['北'], ['西']]","[{'county': 370203}, {'county': 530829}]",County,['Multiple Matches'],modern,POINT (109.93858982084588 29.401482153864674),"['山东省', '云南省']","['青岛市', '普洱市']","['西盟佤族自治县', '市北区']",53.16703367,0.989465132,0.0,
475,326.0,安陆,湖北省云梦县,['湖北省云梦县'],,"[['湖北', '云梦']]",[{'county': 420923}],County,[],modern,POINT (113.76986584334651 30.987990195600457),['湖北省'],['孝感市'],['云梦县'],48.56801719,0.990376412,1.0,﻿安陆
476,327.0,酸枣,陈留郡,['陈留郡'],,[['']],[{'county': 150102}],County,[],modern,POINT (111.87654376409023 40.96160713329657),[],[],[''],40.159592,0.992042513,0.0,﻿酸枣
477,327.0,燕,东郡,['东郡'],,[['']],[{'county': 150102}],County,[],modern,POINT (111.87654376409023 40.96160713329657),[],[],[''],40.159592,0.992042513,0.0,燕
478,327.0,长平,汝南县,['汝南县'],,[['汝南']],[{'county': 411727}],County,[],modern,POINT (114.28378837944982 32.91278058629857),['河南省'],['驻马店市'],['汝南县'],62.55839383,0.987604266,1.0,长平
479,327.0,雍丘,陈留郡,['陈留郡'],,[['']],[{'county': 150102}],County,[],modern,POINT (111.87654376409023 40.96160713329657),[],[],[''],40.159592,0.992042513,0.0,雍丘
480,327.0,山阳,河内郡,['河内郡'],,[['']],[{'county': 150102}],County,[],modern,POINT (111.87654376409023 40.96160713329657),[],[],[''],40.159592,0.992042513,0.0,山阳
481,328.0,濮阳,河南省濮阳市西南,['河南省濮阳市西南'],西南,"[['河南', '濮阳']]",[{'prefecture': 4109}],Prefecture,[],modern,POINT (115.1009658337048 35.576298613824555),['河南省'],['濮阳市'],['NA'],126.6250462,0.974909676,1.0,﻿濮阳
482,328.0,野王,濮阳县,['濮阳县'],,[['濮阳']],[{'prefecture': 4109}],Prefecture,[],modern,POINT (115.25904961881203 35.78477199233791),['河南省'],['濮阳市'],['NA'],126.6250462,0.974909676,0.0,
483,332.0,云阳县,今陕西省淳化县西北,['今陕西省淳化县西北'],西北,"[['陕西', '淳化']]",[{'county': 610430}],County,[],modern,POINT (108.44780821231842 34.91982365147152),['陕西省'],['咸阳市'],['淳化县'],46.86912292,0.990713042,1.0,﻿云阳
484,334.0,丽邑,陕西省临潼县东北,['陕西省临潼县东北'],东北,"[['陕西', '临潼']]",[{'county': 610115}],County,[],modern,POINT (109.34907300242497 34.55444291971308),['陕西省'],['西安市'],['临潼区'],47.55745338,0.990576652,1.0,丽邑
485,334.0,新丰,陕西省临潼县,['陕西省临潼县'],,"[['陕西', '临潼']]",[{'county': 610115}],County,[],modern,POINT (109.28717823305294 34.486923390228085),['陕西省'],['西安市'],['临潼区'],47.55745338,0.990576652,0.0,
486,335.0,颍川郡,阳翟县,['阳翟县'],,[['']],[{'county': 150102}],County,[],modern,POINT (111.87654376409023 40.96160713329657),['内蒙古自治区'],['呼和浩特市'],['新城区'],40.159592,0.992042513,0.0,
487,342.0,蓟,今北京城西南隅,['今北京城西南隅'],西南,[['北京']],[{'province': 11}],Province,[],modern,POINT (115.97368064827282 39.8303451343047),['北京市'],['NA'],['NA'],206.3727352,0.959107941,1.0,﻿蓟
488,342.0,蓟县,蓟城,['蓟城'],,"[['城'], ['蓟']]","[{'county': 140302}, {'county': 120119}]",County,['Multiple Matches'],modern,POINT (115.49330240617985 38.92878528471776),"['山西省', '天津市']","['阳泉市', '天津市辖区']","['城区', '蓟州区']",57.54893782,0.988596873,0.4610160745034584,﻿蓟
489,345.0,承匡,河南省睢县,['河南省睢县'],,"[['河南', '睢']]",[{'county': 411422}],County,[],modern,POINT (115.03689856263702 34.399387471977846),['河南省'],['商丘市'],['睢县'],43.69301082,0.991342378,0.0,
490,345.0,襄陵,河南省睢县,['河南省睢县'],,"[['河南', '睢']]",[{'county': 411422}],County,[],modern,POINT (115.03689856263702 34.399387471977846),['河南省'],['商丘市'],['睢县'],43.69301082,0.991342378,0.0,
491,347.0,砀山县,安徽省砀山县南,['安徽省砀山县南'],南,"[['安徽', '砀山']]",[{'county': 341321}],County,[],modern,POINT (116.44416795583285 34.368706098787925),['安徽省'],['宿州市'],['砀山县'],48.75258792,0.99033984,0.0,
492,348.0,睢阳,河南省商丘市南,['河南省商丘市南'],南,"[['河南', '商丘']]",[{'prefecture': 4114}],Prefecture,[],modern,POINT (116.31095789518307 34.01390854688643),['河南省'],['商丘市'],['NA'],188.6200494,0.962625576,1.0,﻿睢阳
493,348.0,宋,河南省商丘市南,['河南省商丘市南'],南,"[['河南', '商丘']]",[{'prefecture': 4114}],Prefecture,[],modern,POINT (116.31095789518307 34.01390854688643),['河南省'],['商丘市'],['NA'],188.6200494,0.962625576,0.0,
494,348.0,砀郡,河南省商丘市南,['河南省商丘市南'],南,"[['河南', '商丘']]",[{'prefecture': 4114}],Prefecture,[],modern,POINT (116.31095789518307 34.01390854688643),['河南省'],['商丘市'],['NA'],188.6200494,0.962625576,0.0,
495,350.0,新都,安徽省太和县北,['安徽省太和县北'],北,"[['安徽', '太和']]",[{'county': 341222}],County,[],modern,POINT (115.61521606085273 33.47240304533855),['安徽省'],['阜阳市'],['太和县'],59.75525352,0.988159699,0.0,
496,351.0,鲁县,曲阜市,['曲阜市'],,[['曲阜']],[{'county': 370881}],County,[],modern,POINT (116.99218825632055 35.63486109652786),['山东省'],['济宁市'],['曲阜市'],40.84760909,0.991906184,1.0,﻿鲁
497,356.0,沛,江苏省沛县,['江苏省沛县'],,"[['江苏', '沛']]",[{'county': 320322}],County,[],modern,POINT (116.8921715649647 34.725892071254705),['江苏省'],['徐州市'],['沛县'],55.25973791,0.98905047,1.0,﻿沛
498,357.0,相邑,安徽省濉溪县西北,['安徽省濉溪县西北'],西北,"[['安徽', '濉溪']]",[{'county': 340621}],County,[],modern,POINT (116.57220905011505 33.81557706191165),['安徽省'],['淮北市'],['濉溪县'],78.00848627,0.984542882,0.0,
499,357.0,相县,安徽省濉溪县,['安徽省濉溪县'],,"[['安徽', '濉溪']]",[{'county': 340621}],County,[],modern,POINT (116.68704625329389 33.644688491439496),['安徽省'],['淮北市'],['濉溪县'],78.00848627,0.984542882,0.8203287917651831,﻿相
500,363.0,青阳地,湖南省长沙市,['湖南省长沙市'],,"[['湖南', '长沙', '']]",[{'county': 430104}],County,[],modern,POINT (112.70885462641817 28.14709707454235),['湖南省'],['长沙市'],['岳麓区'],38.03888051,0.992462725,0.0,
501,363.0,临湘,湖南省长沙市,['湖南省长沙市'],,"[['湖南', '长沙', '']]",[{'county': 430104}],County,[],modern,POINT (112.70885462641817 28.14709707454235),['湖南省'],['长沙市'],['岳麓区'],38.03888051,0.992462725,1.0,﻿临湘
502,364.0,罗国,湖北省宜城市,['湖北省宜城市'],,"[['湖北', '宜城']]",[{'county': 420684}],County,[],modern,POINT (112.40848498654628 31.67562340909594),['湖北省'],['襄阳市'],['宜城市'],77.65796106,0.984612338,0.0,﻿罗
503,364.0,罗国,湖北省枝江市,['湖北省枝江市'],,"[['湖北', '枝江']]",[{'county': 420583}],County,[],modern,POINT (111.66932290963607 30.471344663357364),['湖北省'],['宜昌市'],['枝江市'],63.86762538,0.987344846,0.0,﻿罗
504,364.0,罗国,湖南省汨罗市,['湖南省汨罗市'],,"[['湖南', '汨罗']]",[{'county': 430681}],County,[],modern,POINT (113.10813874719693 28.75877736154243),['湖南省'],['岳阳市'],['汨罗市'],64.279412,0.987263252,0.777091071692416,﻿罗
505,364.0,罗县,湖北省宜城市,['湖北省宜城市'],,"[['湖北', '宜城']]",[{'county': 420684}],County,[],modern,POINT (112.40848498654628 31.67562340909594),['湖北省'],['襄阳市'],['宜城市'],77.65796106,0.984612338,0.0,﻿罗
506,364.0,罗县,湖南省汨罗市,['湖南省汨罗市'],,"[['湖南', '汨罗']]",[{'county': 430681}],County,[],modern,POINT (113.10813874719693 28.75877736154243),['湖南省'],['岳阳市'],['汨罗市'],64.279412,0.987263252,0.777091071692416,﻿罗
507,364.0,罗水,湖北省宜城县,['湖北省宜城县'],,"[['湖北', '宜城']]",[{'county': 420684}],County,[],modern,POINT (112.40848498654628 31.67562340909594),['湖北省'],['襄阳市'],['宜城市'],77.65796106,0.984612338,0.0,
508,364.0,罗县城,湖南省湘阴县,['湖南省湘阴县'],,"[['湖南', '湘阴']]",[{'county': 430624}],County,[],modern,POINT (112.81430865065548 28.76705008798463),['湖南省'],['岳阳市'],['湘阴县'],64.56209612,0.987207239,0.0,
509,366.0,吴国都城,江苏省苏州市,['江苏省苏州市'],,"[['江苏', '苏州']]",[{'prefecture': 3205}],Prefecture,[],modern,POINT (120.70793150044615 31.401362843263264),['江苏省'],['苏州市'],['NA'],139.5234535,0.9723539,0.0,
510,366.0,吴,江苏省苏州市,['江苏省苏州市'],,"[['江苏', '苏州']]",[{'prefecture': 3205}],Prefecture,[],modern,POINT (120.70793150044615 31.401362843263264),['江苏省'],['苏州市'],['NA'],139.5234535,0.9723539,1.0,﻿吴
511,366.0,会稽郡,江苏省苏州市,['江苏省苏州市'],,"[['江苏', '苏州']]",[{'prefecture': 3205}],Prefecture,[],modern,POINT (120.70793150044615 31.401362843263264),['江苏省'],['苏州市'],['NA'],139.5234535,0.9723539,0.0,
512,367.0,朱方县,丹徒县,['丹徒县'],,[['丹徒']],[{'county': 321112}],County,[],modern,POINT (119.41384689493543 32.04274323946893),['江苏省'],['镇江市'],['丹徒区'],46.85956796,0.990714935,0.0,
513,370.0,迁陵,湖南龙山里耶城址,['湖南龙山里耶城址'],,"[['湖南', '龙山']]",[{'county': 433130}],County,[],modern,POINT (109.46454076136605 29.20563679612888),['湖南省'],['湘西土家族苗族自治州'],['龙山县'],103.4029749,0.97951105,1.0,﻿迁陵
514,371.0,酉阳,湖南省永顺县南,['湖南省永顺县南'],南,"[['湖南', '永顺']]",[{'county': 433127}],County,[],modern,POINT (110.02819007430975 28.842707731418407),['湖南省'],['湘西土家族苗族自治州'],['永顺县'],86.93057274,0.982775001,1.0,﻿酉阳
515,373.0,零阳,湖南省慈利县东,['湖南省慈利县东'],东,"[['湖南', '慈利']]",[{'county': 430821}],County,[],modern,POINT (111.10635278559474 29.480760706076342),['湖南省'],['张家界市'],['慈利县'],84.01251964,0.983353204,1.0,﻿零阳
516,373.0,秦县,湖南省慈利县东,['湖南省慈利县东'],东,"[['湖南', '慈利']]",[{'county': 430821}],County,[],modern,POINT (111.10635278559474 29.480760706076342),['湖南省'],['张家界市'],['慈利县'],84.01251964,0.983353204,0.0,
517,374.0,孱陵,湖南安乡县,['湖南安乡县'],,"[['湖南', '安乡']]",[{'county': 430721}],County,[],modern,POINT (112.14553733627226 29.41751063917132),['湖南省'],['常德市'],['安乡县'],61.95055693,0.987724707,1.0,孱陵
518,374.0,索,湖南汉寿县,['湖南汉寿县'],,"[['湖南', '汉寿']]",[{'county': 430722}],County,[],modern,POINT (112.019087647659 28.878837553384805),['湖南省'],['常德市'],['汉寿县'],68.72114026,0.986383139,1.0,索
