id,toponym,location,Address,Direction,Match Elements,Match Result,Match Level,Match Error,Match Period,geometry,Province,Prefecture,County,Maximum Error Distance,Certainty
1,权县,今湖北省荆门市东南,['今湖北省荆门市东南'],东南,"[['湖北', '荆门']]",[{'prefecture': 4208}],Prefecture,[],modern,POINT (112.93259024630586 30.893873672122275),['湖北省'],['荆门市'],['NA'],155.8392281,0.969120984
1,权口,今湖北省荆门市东南流权城北,['今湖北省荆门市东南流权城北'],北,"[['湖北', '荆门']]",[{'prefecture': 4208}],Prefecture,[],modern,POINT (112.63013482920267 31.34383054149237),['湖北省'],['荆门市'],['NA'],155.8392281,0.969120984
3,廖国,河南省唐河县西南,['河南省唐河县西南'],西南,"[['河南', '唐河']]",[{'county': 411328}],County,[],modern,POINT (112.69460497288287 32.48221219542366),['河南省'],['南阳市'],['唐河县'],79.25960939,0.984294977
3,蓼国,河南省固始县东北,['河南省固始县东北'],东北,"[['河南', '固始']]",[{'county': 411525}],County,[],modern,POINT (115.78803240239264 32.34860379712833),['河南省'],['信阳市'],['固始县'],95.90564323,0.980996621
4,邓,湖北省襄樊市西北,['湖北省襄樊市西北'],西北,"[['湖北', '']]",[{'county': 420102}],County,[],modern,POINT (114.29370199706662 30.67693316349547),['湖北省'],['武汉市'],['江岸区'],17.17430851,0.996596969
5,申国,今河南省南阳市,['今河南省南阳市'],,"[['河南', '南阳']]",[{'prefecture': 4113}],Prefecture,[],modern,POINT (112.18605667760141 33.06080863027986),['河南省'],['南阳市'],['NA'],281.5621608,0.944209411
6,吕原,河南省南阳市西,['河南省南阳市西'],西,"[['河南', '南阳']]",[{'prefecture': 4113}],Prefecture,[],modern,POINT (111.73482409735638 33.083013784123835),['河南省'],['南阳市'],['NA'],281.5621608,0.944209411
6,申,河南省南阳市西,['河南省南阳市西'],西,"[['河南', '南阳']]",[{'prefecture': 4113}],Prefecture,[],modern,POINT (111.73482409735638 33.083013784123835),['河南省'],['南阳市'],['NA'],281.5621608,0.944209411
7,息县,今河南省息县西南,['今河南省息县西南'],西南,"[['河南', '息']]",[{'county': 411528}],County,[],modern,POINT (114.7813614975039 32.280516102686875),['河南省'],['信阳市'],['息县'],63.4238693,0.987432775
8,商县,今湖北省均县附近,['今湖北省均县附近'],,"[['湖北', '均']]",[{'county': 420381}],County,[],modern,POINT (111.2478577665955 32.59461104834358),['湖北省'],['十堰市'],['丹江口市'],82.15262921,0.983721735
9,期思,河南省淮滨县东南期思乡,['河南省淮滨县东南期思乡'],,"[['河南', '淮滨']]",[{'county': 411527}],County,[],modern,POINT (115.31412286503618 32.46081562194832),['河南省'],['信阳市'],['淮滨县'],55.69217628,0.988964784
9,蒋国,河南省固始县东北、史灌河以东近淮河南岸,['河南省固始县东北、史灌河以东近淮河南岸'],,"[['河南', '固始']]",[{'county': 411525}],County,[],modern,POINT (115.6391085343304 32.16856521937008),['河南省'],['信阳市'],['固始县'],95.90564323,0.980996621
10,析,今河南省西峡县,['今河南省西峡县'],,"[['河南', '西峡']]",[{'county': 411323}],County,[],modern,POINT (111.33477339151108 33.463616943856806),['河南省'],['南阳市'],['西峡县'],87.43215002,0.982675615
10,白羽,析,['析'],,[['']],[{'county': 150102}],County,[],modern,POINT (111.87654376409023 40.96160713329657),['内蒙古自治区'],['呼和浩特市'],['新城区'],40.159592,0.992042513
12,庐,湖北省襄阳市,['湖北省襄阳市'],,"[['湖北', '襄阳']]",[{'prefecture': 4206}],Prefecture,[],modern,POINT (111.99218815084078 31.949474174194535),['湖北省'],['襄阳市'],['NA'],231.0556766,0.9542171
11,商密,今河南省淅川县西南,['今河南省淅川县西南'],西南,"[['河南', '淅川']]",[{'county': 411326}],County,[],modern,POINT (111.34881046227096 32.89586563317357),['河南省'],['南阳市'],['淅川县'],105.8536459,0.979025458
11,宜城,今湖北省宜城县东南,['今湖北省宜城县东南'],东南,"[['湖北', '宜城']]",[{'county': 420684}],County,[],modern,POINT (112.54929721526733 31.592039069509852),['湖北省'],['襄阳市'],['宜城市'],77.65796106,0.984612338
13,上庸,湖北省竹山县西南,['湖北省竹山县西南'],西南,"[['湖北', '竹山']]",[{'county': 420323}],County,[],modern,POINT (110.02016358021368 32.23409831660457),['湖北省'],['十堰市'],['竹山县'],125.8539942,0.975062457
14,宛丘,今河南省淮阳县,['今河南省淮阳县'],,"[['河南', '淮阳']]",[{'county': 411603}],County,[],modern,POINT (114.83825605453461 33.678069228952864),['河南省'],['周口市'],['淮阳区'],64.09541647,0.98729971
15,沈县,今安徽省临泉县,['今安徽省临泉县'],,"[['安徽', '临泉']]",[{'county': 341221}],County,[],modern,POINT (115.32828737405632 32.85900566936147),['安徽省'],['阜阳市'],['临泉县'],71.34504225,0.985863221
15,沈国,今河南省平舆县北,['今河南省平舆县北'],北,"[['河南', '平舆']]",[{'county': 411723}],County,[],modern,POINT (114.6141132524672 33.090581254088775),['河南省'],['驻马店市'],['平舆县'],50.68834719,0.989956276
16,城父,河南省襄城县西（即宝丰县东）,['河南省襄城县西（即宝丰县东）'],,"[['河南', '宝丰'], ['河南', '襄城']]","[{'county': 410421}, {'county': 411025}]",County,['Multiple Matches'],modern,POINT (113.29144226228192 33.89082190857292),['河南省'],"['平顶山市', '许昌市']","['襄城县', '宝丰县']",56.45968555,0.988812704
16,成公乾,城父（成）县,['城父（成）县'],,"[['城'], ['成']]","[{'county': 140302}, {'county': 621221}]",County,['Multiple Matches'],modern,POINT (109.61554590411461 35.799362152376126),"['甘肃省', '山西省']","['阳泉市', '陇南市']","['城区', '成县']",55.86384215,0.988930769
17,郧县,今湖北省钟祥县北境,['今湖北省钟祥县北境'],,"[['湖北', '钟祥']]",[{'county': 420881}],County,[],modern,POINT (112.59551676913844 31.17367125516534),['湖北省'],['荆门市'],['钟祥市'],100.1772377,0.980150219
18,州来,今安徽省凤台县,['今安徽省凤台县'],,"[['安徽', '凤台']]",[{'county': 340421}],County,[],modern,POINT (116.58463247421815 32.77307801044718),['安徽省'],['淮南市'],['凤台县'],55.82160225,0.988939138
18,下蔡,州来,['州来'],,[['']],[{'county': 150102}],County,[],modern,POINT (111.87654376409023 40.96160713329657),['内蒙古自治区'],['呼和浩特市'],['新城区'],40.159592,0.992042513
19,叶县,今河南省叶县南,['今河南省叶县南'],南,"[['河南', '叶']]",[{'county': 410422}],County,[],modern,POINT (113.25559749685087 33.447944054547875),['河南省'],['平顶山市'],['叶县'],59.43074139,0.988224
19,许,今河南省许昌市东,['今河南省许昌市东'],东,"[['河南', '许昌']]",[{'prefecture': 4110}],Prefecture,[],modern,POINT (114.00400805581671 34.01837218896118),['河南省'],['许昌市'],['NA'],125.9937488,0.975034765
20,东不羹,河南省舞阳县西北,['河南省舞阳县西北'],西北,"[['河南', '舞阳']]",[{'county': 411121}],County,[],modern,POINT (113.63693409772601 33.62173883629204),['河南省'],['漯河市'],['舞阳县'],41.26131085,0.991824211
20,西不羹,河南省襄城县东南,['河南省襄城县东南'],东南,"[['河南', '襄城']]",[{'county': 411025}],County,[],modern,POINT (113.66109938929417 33.78758458318967),['河南省'],['许昌市'],['襄城县'],44.64150679,0.991154437
21,蔡叔始封,河南省修武县以西地带,['河南省修武县以西地带'],,"[['河南', '修武']]",[{'county': 410821}],County,[],modern,POINT (113.25353098993187 35.333201968868536),['河南省'],['焦作市'],['修武县'],41.84330132,0.991708891
21,蔡仲复封时建都上蔡,河南省上蔡县城关一带,['河南省上蔡县城关一带'],,"[['河南', '上蔡']]",[{'county': 411722}],County,[],modern,POINT (114.43138227105428 33.31576190188675),['河南省'],['驻马店市'],['上蔡县'],59.4675017,0.988216716
21,新蔡县,河南省新蔡县西,['河南省新蔡县西'],西,"[['河南', '新蔡']]",[{'county': 411729}],County,[],modern,POINT (114.80801318705777 32.8026341611258),['河南省'],['驻马店市'],['新蔡县'],53.79125465,0.989341445
21,蔡国旧地上蔡,楚县,['楚县'],,[['']],[{'county': 150102}],County,[],modern,POINT (111.87654376409023 40.96160713329657),['内蒙古自治区'],['呼和浩特市'],['新城区'],40.159592,0.992042513
22,白县,河南省息县东北或淮滨县西南,['河南省息县东北或淮滨县西南'],西南,"[['河南', '淮滨']]",[{'county': 411527}],County,[],modern,POINT (115.2991493578337 32.3614640685046),['河南省'],['信阳市'],['淮滨县'],55.69217628,0.988964784
22,鄢,河南省漯河市东,['河南省漯河市东'],东,"[['河南', '漯河']]",[{'prefecture': 4111}],Prefecture,[],modern,POINT (114.0007136693999 33.71990268071875),['河南省'],['漯河市'],['NA'],82.05264287,0.983741546
22,巢,安徽省寿县南,['安徽省寿县南'],南,"[['安徽', '寿']]",[{'county': 340422}],County,[],modern,POINT (116.77973113562749 32.08973873873581),['安徽省'],['淮南市'],['寿县'],83.85817003,0.983383787
23,巢,今六安县东北,['今六安县东北'],东北,[['六安']],[{'prefecture': 3415}],Prefecture,[],modern,POINT (116.38500765126264 32.11546780411756),['安徽省'],['六安市'],['NA'],187.4399413,0.96285941
23,钟离,今安徽省凤阳县东北,['今安徽省凤阳县东北'],东北,"[['安徽', '凤阳']]",[{'county': 341126}],County,[],modern,POINT (117.72595438088499 32.928151831793116),['安徽省'],['滁州市'],['凤阳县'],78.72892723,0.98440013
24,钟离,安徽省凤阳县东北临淮关,['安徽省凤阳县东北临淮关'],,"[['安徽', '凤阳']]",[{'county': 341126}],County,[],modern,POINT (117.61672510764127 32.84248527073355),['安徽省'],['滁州市'],['凤阳县'],78.72892723,0.98440013
25,阴县,今湖北省老河口北,['今湖北省老河口北'],北,"[['湖北', '老河口']]",[{'county': 420682}],County,[],modern,POINT (111.67881903115388 32.57905262069674),['湖北省'],['襄阳市'],['老河口市'],51.66357793,0.989763037
26,棠县,今江苏省六合县西北,['今江苏省六合县西北'],西北,"[['江苏', '六合']]",[{'county': 320116}],County,[],modern,POINT (118.71467117795228 32.50284665302389),['江苏省'],['南京市'],['六合区'],62.0393857,0.987707106
27,武城,河南省信阳市东北,['河南省信阳市东北'],东北,"[['河南', '信阳']]",[{'prefecture': 4115}],Prefecture,[],modern,POINT (115.3846284156569 32.34860379712833),['河南省'],['信阳市'],['NA'],217.9936215,0.956805302
28,蓝县,今湖北省钟祥县西北,['今湖北省钟祥县西北'],西北,"[['湖北', '钟祥']]",[{'county': 420881}],County,[],modern,POINT (112.36713444868397 31.43243108495811),['湖北省'],['荆门市'],['钟祥市'],100.1772377,0.980150219
29,苦县,今河南省鹿邑县东,['今河南省鹿邑县东'],东,"[['河南', '鹿邑']]",[{'county': 411628}],County,[],modern,POINT (115.47993533666437 33.906247185226704),['河南省'],['周口市'],['鹿邑县'],60.25245178,0.988061181
29,相县,今安徽省濉溪县西北,['今安徽省濉溪县西北'],西北,"[['安徽', '濉溪']]",[{'county': 340621}],County,[],modern,POINT (116.57220905011505 33.81557706191165),['安徽省'],['淮北市'],['濉溪县'],78.00848627,0.984542882
30,荀,山西省新绛县东北,['山西省新绛县东北'],东北,"[['山西', '新绛']]",[{'county': 140825}],County,[],modern,POINT (111.20238728567072 35.707798259774584),['山西省'],['运城市'],['新绛县'],40.22313184,0.992029923
30,荀城,河东,['河东'],东,[['']],[{'county': 150102}],County,[],modern,POINT (111.93860629841855 41.00528120866028),['内蒙古自治区'],['呼和浩特市'],['新城区'],40.159592,0.992042513
31,耿,今山西省河津县东南,['今山西省河津县东南'],东南,"[['山西', '河津']]",[{'county': 140882}],County,[],modern,POINT (110.7598338169628 35.58016543415298),['山西省'],['运城市'],['河津市'],35.33819181,0.992997857
31,魏,今山西省芮城县北,['今山西省芮城县北'],北,"[['山西', '芮城']]",[{'county': 140830}],County,[],modern,POINT (110.66961129097986 34.77434754112491),['山西省'],['运城市'],['芮城县'],65.72258329,0.986977293
32,州,今河南省温县东北,['今河南省温县东北'],东北,"[['河南', '温']]",[{'county': 410825}],County,[],modern,POINT (113.1172096613217 35.004093281468705),['河南省'],['焦作市'],['温县'],33.72644378,0.993317219
33,原,今河南省济源市西北,['今河南省济源市西北'],西北,"[['河南', '济源']]",[{'county': 419001}],County,[],modern,POINT (112.24817757435811 35.17075479973811),['河南省'],['省直辖县级行政单位'],['济源市'],66.0486936,0.986912675
34,温,今河南省温县西南,['今河南省温县西南'],西南,"[['河南', '温']]",[{'county': 410825}],County,[],modern,POINT (112.99257268385784 34.893863025996794),['河南省'],['焦作市'],['温县'],33.72644378,0.993317219
35,阳樊,河南省济源市西南,['河南省济源市西南'],西南,"[['河南', '济源']]",[{'county': 419001}],County,[],modern,POINT (112.25943466823742 35.03525757751568),['河南省'],['省直辖县级行政单位'],['济源市'],66.0486936,0.986912675
36,欑茅,河南省修武县北,['河南省修武县北'],北,"[['河南', '修武']]",[{'county': 410821}],County,[],modern,POINT (113.3287401283438 35.42285373701984),['河南省'],['焦作市'],['修武县'],41.84330132,0.991708891
36,絺,河南省沁阳市西南,['河南省沁阳市西南'],西南,"[['河南', '沁阳']]",[{'county': 410882}],County,[],modern,POINT (112.81479212927705 35.08154068835),['河南省'],['焦作市'],['沁阳市'],36.01866516,0.992863023
36,陉,河南省沁阳市西北,['河南省沁阳市西北'],西北,"[['河南', '沁阳']]",[{'county': 410882}],County,[],modern,POINT (112.82138557806744 35.190658622595265),['河南省'],['焦作市'],['沁阳市'],36.01866516,0.992863023
37,阳樊,今河南省南阳市,['今河南省南阳市'],,"[['河南', '南阳']]",[{'prefecture': 4113}],Prefecture,[],modern,POINT (112.18605667760141 33.06080863027986),['河南省'],['南阳市'],['NA'],281.5621608,0.944209411
37,温,今河南省温县,['今河南省温县'],,"[['河南', '温']]",[{'county': 410825}],County,[],modern,POINT (113.04985216390031 34.95060243994841),['河南省'],['焦作市'],['温县'],33.72644378,0.993317219
37,原,今河南省原阳县,['今河南省原阳县'],,"[['河南', '原阳']]",[{'county': 410725}],County,[],modern,POINT (113.9335926168259 35.022581390415695),['河南省'],['新乡市'],['原阳县'],63.93833859,0.987330835
37,州,今河南省巩义市,['今河南省巩义市'],,"[['河南', '巩义']]",[{'county': 410181}],County,[],modern,POINT (113.07670812825705 34.70520319415691),['河南省'],['郑州市'],['巩义市'],44.34613735,0.991212963
37,陉,今河南省陕县,['今河南省陕县'],,"[['河南', '陕']]",[{'county': 411203}],County,[],modern,POINT (111.40518819323518 34.63864555062233),['河南省'],['三门峡市'],['陕州区'],65.87087084,0.98694791
37,鉏之田,今河南省滑县东,['今河南省滑县东'],东,"[['河南', '滑']]",[{'county': 410526}],County,[],modern,POINT (114.80422719072979 35.49067926779013),['河南省'],['安阳市'],['滑县'],62.36188389,0.987643204
39,瑕县,今河南省灵宝市西北,['今河南省灵宝市西北'],西北,"[['河南', '灵宝']]",[{'county': 411282}],County,[],modern,POINT (110.56905901632433 34.55543679804472),['河南省'],['三门峡市'],['灵宝市'],78.79853179,0.984386338
40,阴地,今河南省卢氏县东北之阴地城,['今河南省卢氏县东北之阴地城'],,"[['河南', '卢氏']]",[{'county': 411224}],County,[],modern,POINT (111.00043935782008 33.97959176567885),['河南省'],['三门峡市'],['卢氏县'],91.74699459,0.981820644
41,瓜衍之县,今山西省孝义市北,['今山西省孝义市北'],北,"[['山西', '孝义']]",[{'county': 141181}],County,[],modern,POINT (111.47332812158838 37.21365600896934),['山西省'],['吕梁市'],['孝义市'],50.85595132,0.989923065
42,邢丘,今河南省温县东北,['今河南省温县东北'],东北,"[['河南', '温']]",[{'county': 410825}],County,[],modern,POINT (113.1172096613217 35.004093281468705),['河南省'],['焦作市'],['温县'],33.72644378,0.993317219
43,长子,今山西省长子县,['今山西省长子县'],,"[['山西', '长子']]",[{'county': 140428}],County,[],modern,POINT (112.74601270384923 36.096420533715026),['山西省'],['长治市'],['长子县'],47.71652397,0.990545132
43,纯留,今山西省屯留县东南,['今山西省屯留县东南'],东南,"[['山西', '屯留']]",[{'county': 140405}],County,[],modern,POINT (112.88287121093828 36.268995887901944),['山西省'],['长治市'],['屯留区'],52.61571028,0.989574375
44,绛,山西省翼城县东南,['山西省翼城县东南'],东南,"[['山西', '翼城']]",[{'county': 141022}],County,[],modern,POINT (111.90603287202585 35.548721585602976),['山西省'],['临汾市'],['翼城县'],59.46143143,0.988217919
44,新绛,山西省侯马市西,['山西省侯马市西'],西,"[['山西', '侯马']]",[{'county': 141081}],County,[],modern,POINT (111.32846183259753 35.59036828305365),['山西省'],['临汾市'],['侯马市'],18.11651056,0.996410275
45,羽颉,河北省任县东南,['河北省任县东南'],东南,"[['河北', '任']]",[{'county': 130505}],County,[],modern,POINT (114.83840681780181 37.130563019371905),['河北省'],['邢台市'],['任泽区'],31.61770578,0.993735059
45,任县,河北省任县东南,['河北省任县东南'],东南,"[['河北', '任']]",[{'county': 130505}],County,[],modern,POINT (114.83840681780181 37.130563019371905),['河北省'],['邢台市'],['任泽区'],31.61770578,0.993735059
46,中牟,今河南省鹤壁市西,['今河南省鹤壁市西'],西,"[['河南', '鹤壁']]",[{'prefecture': 4106}],Prefecture,[],modern,POINT (114.17099681983701 35.748493488758115),['河南省'],['鹤壁市'],['NA'],70.38062339,0.986054318
48,邬县,山西省介休市东北,['山西省介休市东北'],东北,"[['山西', '介休']]",[{'county': 140781}],County,[],modern,POINT (112.07433048751864 37.0744554990241),['山西省'],['晋中市'],['介休市'],40.88995185,0.991897794
48,祁县,山西省祁县东南,['山西省祁县东南'],东南,"[['山西', '祁']]",[{'county': 140727}],County,[],modern,POINT (112.56366474085573 37.178344199597525),['山西省'],['晋中市'],['祁县'],47.73548334,0.990541376
48,平陵县,山西省文水县东北,['山西省文水县东北'],东北,"[['山西', '文水']]",[{'county': 141121}],County,[],modern,POINT (112.02085390132206 37.501287527895926),['山西省'],['吕梁市'],['文水县'],70.54339101,0.986022066
48,梗阳县,山西省清徐县,['山西省清徐县'],,"[['山西', '清徐']]",[{'county': 140121}],County,[],modern,POINT (112.28442053702733 37.61975373872302),['山西省'],['太原市'],['清徐县'],40.44159733,0.991986634
48,涂水县,山西省榆次市西南,['山西省榆次市西南'],西南,"[['山西', '榆次']]",[{'county': 140702}],County,[],modern,POINT (112.71080729830437 37.580962019394775),['山西省'],['晋中市'],['榆次区'],59.0183775,0.988305708
48,马首县,山西省寿阳县东南,['山西省寿阳县东南'],东南,"[['山西', '寿阳']]",[{'county': 140725}],County,[],modern,POINT (113.23339424621481 37.67317466233141),['山西省'],['晋中市'],['寿阳县'],65.28824085,0.987063356
48,孟县,山西省阳曲县东北,['山西省阳曲县东北'],东北,"[['山西', '阳曲']]",[{'county': 140122}],County,[],modern,POINT (112.93120833021128 38.279632932372),['山西省'],['太原市'],['阳曲县'],87.44477665,0.982673113
49,铜鞮,山西省沁县南,['山西省沁县南'],南,"[['山西', '沁']]",[{'county': 140430}],County,[],modern,POINT (112.61813237788624 36.57589974482548),['山西省'],['长治市'],['沁县'],61.43167988,0.987827521
49,平阳,山西省临汾市西南,['山西省临汾市西南'],西南,"[['山西', '临汾']]",[{'prefecture': 1410}],Prefecture,[],modern,POINT (110.95969003614391 35.8697002512513),['山西省'],['临汾市'],['NA'],219.4164836,0.956523366
49,杨,山西省洪洞县东南,['山西省洪洞县东南'],东南,"[['山西', '洪洞']]",[{'county': 141024}],County,[],modern,POINT (111.76672382011358 36.20860499514204),['山西省'],['临汾市'],['洪洞县'],60.14682682,0.98808211
50,邯郸,今河北省邯郸市,['今河北省邯郸市'],,"[['河北', '邯郸']]",[{'prefecture': 1304}],Prefecture,[],modern,POINT (114.44668734096498 36.541271873895774),['河北省'],['邯郸市'],['NA'],190.7269408,0.962208102
50,晋阳,今山西省太原市,['今山西省太原市'],,"[['山西', '太原']]",[{'prefecture': 1401}],Prefecture,[],modern,POINT (112.16363247158904 37.938105067474794),['山西省'],['太原市'],['NA'],150.1895488,0.970240449
51,原,今河南省济源市西北,['今河南省济源市西北'],西北,"[['河南', '济源']]",[{'county': 419001}],County,[],modern,POINT (112.24817757435811 35.17075479973811),['河南省'],['省直辖县级行政单位'],['济源市'],66.0486936,0.986912675
51,冀,今山西省河津县东北,['今山西省河津县东北'],东北,"[['山西', '河津']]",[{'county': 140882}],County,[],modern,POINT (110.75914438497132 35.67038605850372),['山西省'],['运城市'],['河津市'],35.33819181,0.992997857
52,甘县,今河南省洛阳市南,['今河南省洛阳市南'],南,"[['河南', '洛阳']]",[{'prefecture': 4103}],Prefecture,[],modern,POINT (111.88502779612631 33.936568536157154),['河南省'],['洛阳市'],['NA'],184.0920369,0.963522786
53,邽县,今甘肃省天水市,['今甘肃省天水市'],,"[['甘肃', '天水']]",[{'prefecture': 6205}],Prefecture,[],modern,POINT (105.5352232950286 34.619472378442836),['甘肃省'],['天水市'],['NA'],201.4318231,0.960086966
53,冀县,今甘肃省甘谷县,['今甘肃省甘谷县'],,"[['甘肃', '甘谷']]",[{'county': 620523}],County,[],modern,POINT (105.29211680774137 34.798646697617116),['甘肃省'],['天水市'],['甘谷县'],61.32412183,0.987848833
53,杜县,今陕西省西安市南,['今陕西省西安市南'],南,"[['陕西', '西安', '']]",[{'county': 610102}],County,[],modern,POINT (109.00912340681806 34.250181297737655),['陕西省'],['西安市'],['新城区'],9.406437512,0.998136146
53,郑县,今陕西省华县,['今陕西省华县'],,"[['陕西', '华']]",[{'county': 610503}],County,[],modern,POINT (109.79253308275264 34.415757407111215),['陕西省'],['渭南市'],['华州区'],51.39288001,0.989816675
53,下邽县,今陕西省渭南市北,['今陕西省渭南市北'],北,"[['陕西', '渭南']]",[{'prefecture': 6105}],Prefecture,[],modern,POINT (110.00115251300494 35.400639776140196),['陕西省'],['渭南市'],['NA'],197.4939403,0.960867244
53,虢县,今陕西省宝鸡县西,['今陕西省宝鸡县西'],西,"[['陕西', '宝鸡', '']]",[{'county': 610303}],County,[],modern,POINT (107.0234891672807 34.446506655867054),['陕西省'],['宝鸡市'],['金台区'],39.19364265,0.992233912
54,棠县,山东省平度市东南,['山东省平度市东南'],东南,"[['山东', '平度']]",[{'county': 370283}],County,[],modern,POINT (120.10953551148197 36.666384138213765),['山东省'],['青岛市'],['平度市'],75.75054554,0.984990286
54,临菑,齐国五都之一,['齐国五都之一'],,[['']],[{'county': 150102}],County,[],modern,POINT (111.87654376409023 40.96160713329657),['内蒙古自治区'],['呼和浩特市'],['新城区'],40.159592,0.992042513
55,朱方,今江苏省镇江市东南,['今江苏省镇江市东南'],东南,"[['江苏', '镇江']]",[{'prefecture': 3211}],Prefecture,[],modern,POINT (119.62245573671458 31.889315970181663),['江苏省'],['镇江市'],['NA'],96.77066532,0.98082522
55,卑梁,今安徽省天长市西北,['今安徽省天长市西北'],西北,"[['安徽', '天长']]",[{'county': 341181}],County,[],modern,POINT (118.8655749544128 32.823934315023585),['安徽省'],['滁州市'],['天长市'],60.45801971,0.988020448
57,颍水,河南阳城阳翟,['河南阳城阳翟'],,"[['河南', '']]",[{'county': 410103}],County,[],modern,POINT (113.58890162690777 34.69682914812475),['河南省'],['郑州市'],['二七区'],18.8121651,0.996272433
57,栎,今阳翟,['今阳翟'],,[['']],[{'county': 150102}],County,[],modern,POINT (111.87654376409023 40.96160713329657),['内蒙古自治区'],['呼和浩特市'],['新城区'],40.159592,0.992042513
58,临淄,今山东省淄博市临淄北,['今山东省淄博市临淄北'],北,"[['山东', '淄博', '临淄']]",[{'county': 370305}],County,[],modern,POINT (118.33493738075714 36.92475525528664),['山东省'],['淄博市'],['临淄区'],43.10172805,0.991459538
58,薄姑,今山东省博兴县,['今山东省博兴县'],,"[['山东', '博兴']]",[{'county': 371625}],County,[],modern,POINT (118.23400008749486 37.1945877552475),['山东省'],['滨州市'],['博兴县'],48.63679615,0.990362783
59,高唐,山东省高唐县东,['山东省高唐县东'],东,"[['山东', '高唐']]",[{'county': 371526}],County,[],modern,POINT (116.33732372305903 36.84298649357507),['山东省'],['聊城市'],['高唐县'],45.36134352,0.991011803
60,安平,山东省淄博市东北,['山东省淄博市东北'],东北,"[['山东', '淄博']]",[{'prefecture': 3703}],Prefecture,[],modern,POINT (118.2691054737019 36.85991483250163),['山东省'],['淄博市'],['NA'],163.0909326,0.967684084
60,酅邑,山东省淄博市东北,['山东省淄博市东北'],东北,"[['山东', '淄博']]",[{'prefecture': 3703}],Prefecture,[],modern,POINT (118.2691054737019 36.85991483250163),['山东省'],['淄博市'],['NA'],163.0909326,0.967684084
61,阿县,今山东省邹城市,['今山东省邹城市'],,"[['山东', '邹城']]",[{'county': 370883}],County,[],modern,POINT (117.10011420251385 35.336480986820426),['山东省'],['济宁市'],['邹城市'],68.01856213,0.986522352
61,甄城,今山东省甄城县北,['今山东省甄城县北'],北,"[['山东', '']]",[{'county': 370103}],County,[],modern,POINT (117.00726465536935 36.61871069504737),['山东省'],['济南市'],['市中区'],29.95470545,0.994064576
62,即墨,山东省平度市东南,['山东省平度市东南'],东南,"[['山东', '平度']]",[{'county': 370283}],County,[],modern,POINT (120.10953551148197 36.666384138213765),['山东省'],['青岛市'],['平度市'],75.75054554,0.984990286
62,阿,山东省阳谷县东北阿城镇,['山东省阳谷县东北阿城镇'],,"[['山东', '阳谷']]",[{'county': 371521}],County,[],modern,POINT (115.89599300368246 36.13660391775855),['山东省'],['聊城市'],['阳谷县'],51.79464603,0.989737066
63,南武城,山东省平邑县东南故县,['山东省平邑县东南故县'],,"[['山东', '平邑']]",[{'county': 371326}],County,[],modern,POINT (117.69571212322336 35.43307694006579),['山东省'],['临沂市'],['平邑县'],65.66592939,0.986988518
64,薛,今山东省滕州市南,['今山东省滕州市南'],南,"[['山东', '滕州']]",[{'county': 370481}],County,[],modern,POINT (117.18857537588664 34.957232410003584),['山东省'],['枣庄市'],['滕州市'],56.84437582,0.988736479
66,蒙,今河南省商丘市东北,['今河南省商丘市东北'],东北,"[['河南', '商丘']]",[{'prefecture': 4114}],Prefecture,[],modern,POINT (115.94129939141018 34.46248224368045),['河南省'],['商丘市'],['NA'],188.6200494,0.962625576
67,昌城,山东省淄博市东南昌城,['山东省淄博市东南昌城'],,"[['山东', '淄博']]",[{'prefecture': 3703}],Prefecture,[],modern,POINT (117.97021332650442 36.600497675699785),['山东省'],['淄博市'],['NA'],163.0909326,0.967684084
68,聊城,山东省聊城市西北,['山东省聊城市西北'],西北,"[['山东', '聊城']]",[{'prefecture': 3715}],Prefecture,[],modern,POINT (115.67934270139241 36.72552756576119),['山东省'],['聊城市'],['NA'],163.68846,0.967565686
70,夜邑,山东省莱州市,['山东省莱州市'],,"[['山东', '莱州']]",[{'county': 370683}],County,[],modern,POINT (120.09115158114481 37.237674681837504),['山东省'],['烟台市'],['莱州市'],70.68717372,0.985993576
71,盖大夫,山东省沂源县东南,['山东省沂源县东南'],东南,"[['山东', '沂源']]",[{'county': 370323}],County,[],modern,POINT (118.34226760773868 36.068079813885504),['山东省'],['淄博市'],['沂源县'],57.28950744,0.988648278
72,平陆都,今山东省汶上县北,['今山东省汶上县北'],北,"[['山东', '汶上']]",[{'county': 370830}],County,[],modern,POINT (116.59036192116336 35.83594935953927),['山东省'],['济宁市'],['汶上县'],52.95605999,0.989506936
73,平陵县,今山东省济南市历城区境内,['今山东省济南市历城区境内'],,"[['山东', '济南', '历城']]",[{'county': 370112}],County,[],modern,POINT (117.26419499342173 36.60683837397319),['山东省'],['济南市'],['历城区'],64.03915346,0.987310858
75,安阳,今山东阳谷东北,['今山东阳谷东北'],东北,"[['山东', '阳谷']]",[{'county': 371521}],County,[],modern,POINT (115.97405502340088 36.23617323228588),['山东省'],['聊城市'],['阳谷县'],51.79464603,0.989737066
76,阳都,今山东省沂水县一带,['今山东省沂水县一带'],,"[['山东', '沂水']]",[{'county': 371323}],County,[],modern,POINT (118.4998252027747 35.896948852100344),['山东省'],['临沂市'],['沂水县'],81.56099993,0.983838964
76,高密,今山东省高密市,['今山东省高密市'],,"[['山东', '高密']]",[{'county': 370785}],County,[],modern,POINT (119.70412526659143 36.4209547819697),['山东省'],['潍坊市'],['高密市'],60.89086863,0.98793468
76,平阿,今山东省平阴县或者安徽省阜南县,['今山东省平阴县或者安徽省阜南县'],,"[['安徽', '阜南'], ['山东', '平阴']]","[{'county': 341225}, {'county': 370124}]",County,['Multiple Matches'],modern,POINT (116.02551980959825 34.427967608429825),"['安徽省', '山东省']","['济南市', '阜阳市']","['阜南县', '平阴县']",72.91391364,0.985552355
76,平陆,今山东省平邑县,['今山东省平邑县'],,"[['山东', '平邑']]",[{'county': 371326}],County,[],modern,POINT (117.69571212322336 35.43307694006579),['山东省'],['临沂市'],['平邑县'],65.66592939,0.986988518
77,平阳,今山西省临汾市西南,['今山西省临汾市西南'],西南,"[['山西', '临汾']]",[{'prefecture': 1410}],Prefecture,[],modern,POINT (110.95969003614391 35.8697002512513),['山西省'],['临汾市'],['NA'],219.4164836,0.956523366
77,阳翟,今河南省禹州市,['今河南省禹州市'],,"[['河南', '禹州']]",[{'county': 411081}],County,[],modern,POINT (113.35143618723392 34.20804183504339),['河南省'],['许昌市'],['禹州市'],55.97553144,0.988908638
78,杨氏县,今山西省洪洞县东南,['今山西省洪洞县东南'],东南,"[['山西', '洪洞']]",[{'county': 141024}],County,[],modern,POINT (111.76672382011358 36.20860499514204),['山西省'],['临汾市'],['洪洞县'],60.14682682,0.98808211
78,长子,今山西省长子县西南,['今山西省长子县西南'],西南,"[['山西', '长子']]",[{'county': 140428}],County,[],modern,POINT (112.73650880783453 36.037037708848246),['山西省'],['长治市'],['长子县'],47.71652397,0.990545132
79,铜鞮,山西省沁县南,['山西省沁县南'],南,"[['山西', '沁']]",[{'county': 140430}],County,[],modern,POINT (112.61813237788624 36.57589974482548),['山西省'],['长治市'],['沁县'],61.43167988,0.987827521
80,屯留,今山西省屯留县南,['今山西省屯留县南'],南,"[['山西', '屯留']]",[{'county': 140405}],County,[],modern,POINT (112.76587678224547 36.27309000567509),['山西省'],['长治市'],['屯留区'],52.61571028,0.989574375
81,京,今河南省荥阳市东南,['今河南省荥阳市东南'],东南,"[['河南', '荥阳']]",[{'county': 410182}],County,[],modern,POINT (113.42713048062978 34.695882459958945),['河南省'],['郑州市'],['荥阳市'],45.42760202,0.990998674
81,雍丘,郑城京,['郑城京'],,[['城']],[{'county': 140302}],County,[],modern,POINT (113.54813158677086 37.86591791066611),['山西省'],['阳泉市'],['城区'],11.21288178,0.997778205
83,邢丘,今河南省温县东平皋故城,['今河南省温县东平皋故城'],,"[['河南', '温']]",[{'county': 410825}],County,[],modern,POINT (113.04985216390031 34.95060243994841),['河南省'],['焦作市'],['温县'],33.72644378,0.993317219
84,卢氏县,河南省卢氏县,['河南省卢氏县'],,"[['河南', '卢氏']]",[{'county': 411224}],County,[],modern,POINT (111.00043935782008 33.97959176567885),['河南省'],['三门峡市'],['卢氏县'],91.74699459,0.981820644
85,新城,今河南省伊川县西南,['今河南省伊川县西南'],西南,"[['河南', '伊川']]",[{'county': 410329}],County,[],modern,POINT (112.29911588403783 34.31849099148184),['河南省'],['洛阳市'],['伊川县'],53.19816679,0.989458963
86,路,山西省潞城县东北,['山西省潞城县东北'],东北,"[['山西', '潞城']]",[{'county': 140406}],County,[],modern,POINT (113.31552966168692 36.42392405047477),['山西省'],['长治市'],['潞城区'],42.44207846,0.991590246
86,涉,河北省涉县西北,['河北省涉县西北'],西北,"[['河北', '涉']]",[{'county': 130426}],County,[],modern,POINT (113.63040281653161 36.68555202916863),['河北省'],['邯郸市'],['涉县'],62.63587666,0.987588913
86,端氏,山西省沁水县东,['山西省沁水县东'],东,"[['山西', '沁水']]",[{'county': 140521}],County,[],modern,POINT (112.53505901783956 35.79707011165995),['山西省'],['晋城市'],['沁水县'],95.54393548,0.981068293
87,修鱼,今河南原武县东,['今河南原武县东'],东,"[['河南', '']]",[{'county': 410103}],County,[],modern,POINT (113.6338570331626 34.69682914812475),['河南省'],['郑州市'],['二七区'],18.8121651,0.996272433
88,宜阳,今河南省宜阳县西,['今河南省宜阳县西'],西,"[['河南', '宜阳']]",[{'county': 410327}],County,[],modern,POINT (111.90287371157324 34.493351038567894),['河南省'],['洛阳市'],['宜阳县'],66.29070063,0.986864722
90,皋落,山西垣曲县东南,['山西垣曲县东南'],东南,"[['山西', '垣曲']]",[{'county': 140827}],County,[],modern,POINT (111.95547897846053 35.17075479973811),['山西省'],['运城市'],['垣曲县'],55.85266806,0.988932983
92,洱阳,汝阳（在今河南商水县附近）,['汝阳（在今河南商水县附近）'],,"[['河南', '汝阳'], ['河南', '商水']]","[{'county': 410326}, {'county': 411623}]",County,['Multiple Matches'],modern,POINT (113.4863876710892 33.79033899412565),['河南省'],"['周口市', '洛阳市']","['汝阳县', '商水县']",65.05481495,0.987109609
93,野王,河南省沁阳市,['河南省沁阳市'],,"[['河南', '沁阳']]",[{'county': 410882}],County,[],modern,POINT (112.85669844553732 35.14110672107772),['河南省'],['焦作市'],['沁阳市'],36.01866516,0.992863023
95,纶氏,今河南登封县西南,['今河南登封县西南'],西南,"[['河南', '登封']]",[{'county': 410185}],County,[],modern,POINT (112.891039664918 34.36013385793426),['河南省'],['郑州市'],['登封市'],55.44965752,0.989012838
96,阳翟,今河南省禹州市,['今河南省禹州市'],,"[['河南', '禹州']]",[{'county': 411081}],County,[],modern,POINT (113.35143618723392 34.20804183504339),['河南省'],['许昌市'],['禹州市'],55.97553144,0.988908638
97,阳人县,河南汝州市西,['河南汝州市西'],西,"[['河南', '汝州']]",[{'county': 410482}],County,[],modern,POINT (112.70565219216941 34.1422310702784),['河南省'],['平顶山市'],['汝州市'],57.18441276,0.988669102
99,格氏县,今河南荣阳北,['今河南荣阳北'],北,"[['河南', '']]",[{'county': 410103}],County,[],modern,POINT (113.64591382649851 34.72681534223693),['河南省'],['郑州市'],['二七区'],18.8121651,0.996272433
100,盂,山西省阳曲县东北,['山西省阳曲县东北'],东北,"[['山西', '阳曲']]",[{'county': 140122}],County,[],modern,POINT (112.93120833021128 38.279632932372),['山西省'],['太原市'],['阳曲县'],87.44477665,0.982673113
100,平陵,山西省文水县东北,['山西省文水县东北'],东北,"[['山西', '文水']]",[{'county': 141121}],County,[],modern,POINT (112.02085390132206 37.501287527895926),['山西省'],['吕梁市'],['文水县'],70.54339101,0.986022066
101,梗阳,今山西省清徐县,['今山西省清徐县'],,"[['山西', '清徐']]",[{'county': 140121}],County,[],modern,POINT (112.28442053702733 37.61975373872302),['山西省'],['太原市'],['清徐县'],40.44159733,0.991986634
102,邬,山西省介休市东北,['山西省介休市东北'],东北,"[['山西', '介休']]",[{'county': 140781}],County,[],modern,POINT (112.07433048751864 37.0744554990241),['山西省'],['晋中市'],['介休市'],40.88995185,0.991897794
103,涂水,山西省榆次市西南,['山西省榆次市西南'],西南,"[['山西', '榆次']]",[{'county': 140702}],County,[],modern,POINT (112.71080729830437 37.580962019394775),['山西省'],['晋中市'],['榆次区'],59.0183775,0.988305708
104,邯郸,今河北省邯郸市,['今河北省邯郸市'],,"[['河北', '邯郸']]",[{'prefecture': 1304}],Prefecture,[],modern,POINT (114.44668734096498 36.541271873895774),['河北省'],['邯郸市'],['NA'],190.7269408,0.962208102
105,晋县,今山西省祁县东南,['今山西省祁县东南'],东南,"[['山西', '祁']]",[{'county': 140727}],County,[],modern,POINT (112.56366474085573 37.178344199597525),['山西省'],['晋中市'],['祁县'],47.73548334,0.990541376
105,祁县,属秦国,['属秦国'],,[['']],[{'county': 150102}],County,[],modern,POINT (111.87654376409023 40.96160713329657),['内蒙古自治区'],['呼和浩特市'],['新城区'],40.159592,0.992042513
106,中牟,今河南省鹤壁市西,['今河南省鹤壁市西'],西,"[['河南', '鹤壁']]",[{'prefecture': 4106}],Prefecture,[],modern,POINT (114.17099681983701 35.748493488758115),['河南省'],['鹤壁市'],['NA'],70.38062339,0.986054318
106,邯郸,今河南省邯郸市,['今河南省邯郸市'],,"[['河南', '']]",[{'county': 410103}],County,[],modern,POINT (113.58890162690777 34.69682914812475),['河南省'],['郑州市'],['二七区'],18.8121651,0.996272433
107,晋阳,今山西省太原市西南,['今山西省太原市西南'],西南,"[['山西', '太原']]",[{'prefecture': 1401}],Prefecture,[],modern,POINT (112.23326042897403 37.68957885305545),['山西省'],['太原市'],['NA'],150.1895488,0.970240449
108,泫氏,今山西省高平市,['今山西省高平市'],,"[['山西', '高平']]",[{'county': 140581}],County,[],modern,POINT (112.90838004946175 35.82144933697499),['山西省'],['晋城市'],['高平市'],44.0610721,0.991269448
109,平邑,今山西省大同县东,['今山西省大同县东'],东,"[['山西', '大同']]",[{'prefecture': 1402}],Prefecture,[],modern,POINT (113.91355460955305 39.89883588503277),['山西省'],['大同市'],['NA'],191.8953337,0.961976589
111,番吾,今河北省平山县东南,['今河北省平山县东南'],东南,"[['河北', '平山']]",[{'county': 130131}],County,[],modern,POINT (114.03488238466727 38.315971981912384),['河北省'],['石家庄市'],['平山县'],74.58545793,0.985221144
115,榆次,今山西省榆次市,['今山西省榆次市'],,"[['山西', '榆次']]",[{'county': 140702}],County,[],modern,POINT (112.80606991650117 37.635511644302525),['山西省'],['晋中市'],['榆次区'],59.0183775,0.988305708
115,邯郸,赵国之代称,['赵国之代称'],,"[['赵'], ['代']]","[{'county': 130133}, {'county': 140923}]",County,['Multiple Matches'],modern,POINT (113.93694262237949 38.430446347665175),"['河北省', '山西省']","['忻州市', '石家庄市']","['赵县', '代县']",56.77946794,0.988749341
116,蔺,今山西省离石县西,['今山西省离石县西'],西,"[['山西', '离石']]",[{'county': 141102}],County,[],modern,POINT (111.16440600917059 37.58621469802759),['山西省'],['吕梁市'],['离石区'],64.08513554,0.987301747
118,鄗,河北省柏乡县北,['河北省柏乡县北'],北,"[['河北', '柏乡']]",[{'county': 130524}],County,[],modern,POINT (114.72275114359101 37.59527286626825),['河北省'],['邢台市'],['柏乡县'],25.39233258,0.994968595
120,代郡,今河北省蔚县东北代王城,['今河北省蔚县东北代王城'],,"[['河北', '蔚']]",[{'county': 130726}],County,[],modern,POINT (114.61045190069535 39.892225568658716),['河北省'],['张家口市'],['蔚县'],77.82585652,0.98457907
120,代县,今河北省蔚县东北代王城,['今河北省蔚县东北代王城'],,"[['河北', '蔚']]",[{'county': 130726}],County,[],modern,POINT (114.61045190069535 39.892225568658716),['河北省'],['张家口市'],['蔚县'],77.82585652,0.98457907
122,石邑,今河北省获鹿县东南,['今河北省获鹿县东南'],东南,"[['河北', '获鹿']]",[{'county': 130110}],County,[],modern,POINT (114.41174983454458 37.95967940322291),['河北省'],['石家庄市'],['鹿泉区'],40.98093584,0.991879766
123,云中,内蒙古自治区托克托县东北,['内蒙古自治区托克托县东北'],东北,"[['内蒙古', '托克托']]",[{'county': 150122}],County,[],modern,POINT (111.39971247209442 40.446017266527306),['内蒙古自治区'],['呼和浩特市'],['托克托县'],57.38170765,0.988630009
124,善无,今山西省右玉县南,['今山西省右玉县南'],南,"[['山西', '右玉']]",[{'county': 140623}],County,[],modern,POINT (112.41846099600633 39.85267986191653),['山西省'],['朔州市'],['右玉县'],65.02937462,0.987114649
124,雁门郡,善无县属秦，为雁门郡治所,['善无县属秦，为雁门郡治所'],,"[['善无县', '雁门郡', '秦']]",[{'county': 'hvd_95551'}],County,[],historic,POINT (112.34358 40.16037),['秦'],['雁门郡'],['善无县'],0.000170388,0.999999966
126,南行唐,今河北省行唐县东北,['今河北省行唐县东北'],东北,"[['河北', '行唐']]",[{'county': 130125}],County,[],modern,POINT (114.49322173591435 38.63932089106895),['河北省'],['石家庄市'],['行唐县'],51.66138736,0.989763471
127,兹氏县,今山西省汾阳南,['今山西省汾阳南'],南,"[['山西', '汾阳']]",[{'county': 141182}],County,[],modern,POINT (111.7458049313197 37.243195012916445),['山西省'],['吕梁市'],['汾阳市'],52.98319982,0.989501558
128,防陵,河南安阳西南,['河南安阳西南'],西南,"[['河南', '安阳']]",[{'prefecture': 4105}],Prefecture,[],modern,POINT (113.91782422078211 35.77153853379669),['河南省'],['安阳市'],['NA'],151.1603241,0.970048093
131,武垣县,今河北省肃宁县东南,['今河北省肃宁县东南'],东南,"[['河北', '肃宁']]",[{'county': 130926}],County,[],modern,POINT (115.96564043013896 38.35780706157759),['河北省'],['沧州市'],['肃宁县'],31.25143864,0.993807633
132,元氏,今河北省元氏县西北,['今河北省元氏县西北'],西北,"[['河北', '元氏']]",[{'county': 130132}],County,[],modern,POINT (114.31931924460764 37.862395235119365),['河北省'],['石家庄市'],['元氏县'],44.29488856,0.991223118
132,上原县,疑近元氏,['疑近元氏'],,[['元氏']],[{'county': 130132}],County,[],modern,POINT (114.40973340753749 37.79201864352964),['河北省'],['石家庄市'],['元氏县'],44.29488856,0.991223118
133,邢县,今河北邢台,['今河北邢台'],,"[['河北', '邢台']]",[{'prefecture': 1305}],Prefecture,[],modern,POINT (114.78086583070218 37.27875526653931),['河北省'],['邢台市'],['NA'],184.8426817,0.963374048
134,新城县,今山西省朔州南,['今山西省朔州南'],南,"[['山西', '朔州']]",[{'prefecture': 1406}],Prefecture,[],modern,POINT (112.7577333418269 39.3625088603206),['山西省'],['朔州市'],['NA'],148.9075147,0.97049448
135,狼孟县,今山西省阳曲县,['今山西省阳曲县'],,"[['山西', '阳曲']]",[{'county': 140122}],County,[],modern,POINT (112.59149975175032 38.186747937047),['山西省'],['太原市'],['阳曲县'],87.44477665,0.982673113
138,柏人,今河北省隆尧县西,['今河北省隆尧县西'],西,"[['河北', '隆尧']]",[{'county': 130525}],County,[],modern,POINT (114.67569049505056 37.38107330666618),['河北省'],['邢台市'],['隆尧县'],45.58473877,0.990967538
140,平原津令,今山东省平原县南,['今山东省平原县南'],南,"[['山东', '平原']]",[{'county': 371426}],County,[],modern,POINT (116.40304329278604 37.04535351505217),['山东省'],['德州市'],['平原县'],47.29866895,0.990627929
141,富昌,内蒙古自治区准格尔旗,['内蒙古自治区准格尔旗'],,"[['内蒙古', '准格尔旗']]",[{'county': 150622}],County,[],modern,POINT (110.86678954140831 39.802110284004044),['内蒙古自治区'],['鄂尔多斯市'],['准格尔旗'],119.5357604,0.976314394
142,武平,今河北省文安县北,['今河北省文安县北'],北,"[['河北', '文安']]",[{'county': 131026}],County,[],modern,POINT (116.5031976717793 38.97044642638492),['河北省'],['廊坊市'],['文安县'],46.94317953,0.990698368
144,栾县,今河北省赵县西北南轮城,['今河北省赵县西北南轮城'],,"[['河北', '赵']]",[{'county': 130133}],County,[],modern,POINT (114.84986570556961 37.7772686779257),['河北省'],['石家庄市'],['赵县'],40.5970445,0.991955833
145,晋县,今河南省温县西南,['今河南省温县西南'],西南,"[['河南', '温']]",[{'county': 410825}],County,[],modern,POINT (112.99257268385784 34.893863025996794),['河南省'],['焦作市'],['温县'],33.72644378,0.993317219
145,魏县,战国时为晋县所在地,['战国时为晋县所在地'],,[['晋']],[{'county': 130183}],County,[],modern,POINT (115.08725515145593 37.99490758059366),['河北省'],['石家庄市'],['晋州市'],41.98202073,0.991681405
146,少梁,今陕西省韩城市西南,['今陕西省韩城市西南'],西南,"[['陕西', '韩城']]",[{'county': 610581}],County,[],modern,POINT (110.28597016323522 35.446027127981765),['陕西省'],['渭南市'],['韩城市'],60.05591236,0.988100124
147,雒阴,今陕西省大荔县西南洛河南岸,['今陕西省大荔县西南洛河南岸'],,"[['陕西', '大荔']]",[{'county': 610523}],County,[],modern,POINT (110.01210300467098 34.82411115789529),['陕西省'],['渭南市'],['大荔县'],67.2192057,0.986680742
147,合阳,今陕西省合阳县东南,['今陕西省合阳县东南'],东南,"[['陕西', '合阳']]",[{'county': 610524}],County,[],modern,POINT (110.25805341874907 35.1197875851478),['陕西省'],['渭南市'],['合阳县'],54.72411301,0.989156602
148,邺,今河北省临漳县西南,['今河北省临漳县西南'],西南,"[['河北', '临漳']]",[{'county': 130423}],County,[],modern,POINT (114.54267540902563 36.16729457408801),['河北省'],['邯郸市'],['临漳县'],37.37513676,0.992594243
150,苦陉,河北省无极县东北,['河北省无极县东北'],东北,"[['河北', '无极']]",[{'county': 130130}],County,[],modern,POINT (115.02830651520212 38.23850613689574),['河北省'],['石家庄市'],['无极县'],32.78421452,0.993503919
151,酸枣,河南省延津县西南,['河南省延津县西南'],西南,"[['河南', '延津']]",[{'county': 410726}],County,[],modern,POINT (114.12924841501902 35.193294016954795),['河南省'],['新乡市'],['延津县'],50.74193854,0.989945657
152,承匡,河南省睢县西南匡城,['河南省睢县西南匡城'],,"[['河南', '睢']]",[{'county': 411422}],County,[],modern,POINT (115.03689856263702 34.399387471977846),['河南省'],['商丘市'],['睢县'],43.69301082,0.991342378
152,襄陵,河南省睢县西南匡城,['河南省睢县西南匡城'],,"[['河南', '睢']]",[{'county': 411422}],County,[],modern,POINT (115.03689856263702 34.399387471977846),['河南省'],['商丘市'],['睢县'],43.69301082,0.991342378
153,安邑,今山西省夏县西北,['今山西省夏县西北'],西北,"[['山西', '夏']]",[{'county': 140828}],County,[],modern,POINT (111.20683237037606 35.22600849766492),['山西省'],['运城市'],['夏县'],64.14364937,0.987290153
153,垣,今山西省垣曲县东南,['今山西省垣曲县东南'],东南,"[['山西', '垣曲']]",[{'county': 140827}],County,[],modern,POINT (111.95547897846053 35.17075479973811),['山西省'],['运城市'],['垣曲县'],55.85266806,0.988932983
157,大梁,今河南省开封市,['今河南省开封市'],,"[['河南', '开封']]",[{'prefecture': 4102}],Prefecture,[],modern,POINT (114.53029986642758 34.60656434330035),['河南省'],['开封市'],['NA'],139.3962435,0.972379106
158,绛,山西省侯马市西,['山西省侯马市西'],西,"[['山西', '侯马']]",[{'county': 141081}],County,[],modern,POINT (111.32846183259753 35.59036828305365),['山西省'],['临汾市'],['侯马市'],18.11651056,0.996410275
158,安邑,绛县之南,['绛县之南'],南,[['绛']],[{'county': 140826}],County,[],modern,POINT (111.61584147539875 35.42307127687708),['山西省'],['运城市'],['绛县'],44.90163885,0.991102892
161,济阳县故城,今河南省兰考县东北,['今河南省兰考县东北'],东北,"[['河南', '兰考']]",[{'county': 410225}],County,[],modern,POINT (115.09196939744291 34.94527385867838),['河南省'],['开封市'],['兰考县'],50.45387348,0.990002736
162,㶏阴,今河南省沙河南岸自漯河市以东至周口市一带,['今河南省沙河南岸自漯河市以东至周口市一带'],,"[['河南', '漯河'], ['河南', '周口']]","[{'prefecture': 4111}, {'prefecture': 4116}]",Prefecture,['Multiple Matches'],modern,POINT (114.39245479669374 33.69235373031368),['河南省'],"['周口市', '漯河市']",['NA'],215.3081824,0.957337412
163,顿丘,河南浚县西,['河南浚县西'],西,"[['河南', '浚']]",[{'county': 410621}],County,[],modern,POINT (114.3762208187668 35.651547135524595),['河南省'],['鹤壁市'],['浚县'],51.47458677,0.989800485
164,阴晋,今陕西省华阴市东,['今陕西省华阴市东'],东,"[['陕西', '华阴']]",[{'county': 610582}],County,[],modern,POINT (110.11763006113412 34.52954863737746),['陕西省'],['渭南市'],['华阴市'],34.04787866,0.993253528
166,蒲子县,今山西隰县,['今山西隰县'],,"[['山西', '隰']]",[{'county': 141031}],County,[],modern,POINT (111.03617294127261 36.698794930447754),['山西省'],['临汾市'],['隰县'],55.13781978,0.989074628
167,漆垣,今陕西铜川西北,['今陕西铜川西北'],西北,"[['陕西', '铜川', '']]",[{'county': 610204}],County,[],modern,POINT (108.74739197537846 35.20198579500413),['陕西省'],['铜川市'],['耀州区'],56.62119825,0.988780701
168,咎奴,陕西延安市东北延河北岸,['陕西延安市东北延河北岸'],,"[['陕西', '延安']]",[{'prefecture': 6106}],Prefecture,[],modern,POINT (109.55932185655246 36.421073135683955),['陕西省'],['延安市'],['NA'],294.1588303,0.941713423
169,皮氏,今山西省河津县西,['今山西省河津县西'],西,"[['山西', '河津']]",[{'county': 140882}],County,[],modern,POINT (110.63696218903414 35.60377636215732),['山西省'],['运城市'],['河津市'],35.33819181,0.992997857
170,蒲坂,今山西省永济县西南,['今山西省永济县西南'],西南,"[['山西', '永济']]",[{'county': 140881}],County,[],modern,POINT (110.38275114057996 34.850721704762805),['山西省'],['运城市'],['永济市'],56.14067997,0.988875914
172,平丘,河南省封丘县东,['河南省封丘县东'],东,"[['河南', '封丘']]",[{'county': 410727}],County,[],modern,POINT (114.57358337979448 35.08449169212227),['河南省'],['新乡市'],['封丘县'],54.13969195,0.989272403
173,首垣,河南省长垣县东北,['河南省长垣县东北'],东北,"[['河南', '长垣']]",[{'county': 410783}],County,[],modern,POINT (114.85840202117504 35.303874201856985),['河南省'],['新乡市'],['长垣市'],52.75198117,0.989547373
177,单父,今山东省单县,['今山东省单县'],,"[['山东', '单']]",[{'county': 371722}],County,[],modern,POINT (116.0959644590623 34.75478208139464),['山东省'],['菏泽市'],['单县'],67.02648053,0.98671893
178,高都,今山西晋城市,['今山西晋城市'],,"[['山西', '晋城']]",[{'prefecture': 1405}],Prefecture,[],modern,POINT (112.78425521101443 35.63529741551079),['山西省'],['晋城市'],['NA'],154.3934257,0.969407465
180,燕,今河南省延津县东北,['今河南省延津县东北'],东北,"[['河南', '延津']]",[{'county': 410726}],County,[],modern,POINT (114.34314971462354 35.40672040912101),['河南省'],['新乡市'],['延津县'],50.74193854,0.989945657
180,虚,今河南省延津县东,['今河南省延津县东'],东,"[['河南', '延津']]",[{'county': 410726}],County,[],modern,POINT (114.31549415358043 35.305012622603826),['河南省'],['新乡市'],['延津县'],50.74193854,0.989945657
180,长平,今河南省西华县东北,['今河南省西华县东北'],东北,"[['河南', '西华']]",[{'county': 411622}],County,[],modern,POINT (114.58752658261426 33.88403925529807),['河南省'],['周口市'],['西华县'],63.14239531,0.987488548
180,雍丘,今河南省杞县,['今河南省杞县'],,"[['河南', '杞']]",[{'county': 410221}],County,[],modern,POINT (114.77638938048682 34.511538392033245),['河南省'],['开封市'],['杞县'],57.88441876,0.988530398
180,山阳,今河南省焦作市东北,['今河南省焦作市东北'],东北,"[['河南', '焦作']]",[{'prefecture': 4108}],Prefecture,[],modern,POINT (113.32227126353712 35.30517401911678),['河南省'],['焦作市'],['NA'],101.3232812,0.979923135
181,修武郡,今河南省获嘉县,['今河南省获嘉县'],,"[['河南', '获嘉']]",[{'county': 410724}],County,[],modern,POINT (113.63134816943477 35.19593376370737),['河南省'],['新乡市'],['获嘉县'],34.20392909,0.993222607
182,共城,河南辉县共城故城,['河南辉县共城故城'],,"[['河南', '辉']]",[{'county': 410782}],County,[],modern,POINT (113.73885767437748 35.57204064092735),['河南省'],['新乡市'],['辉县市'],62.91150614,0.987534298
183,宅阳县,今河南荥阳东,['今河南荥阳东'],东,"[['河南', '荥阳']]",[{'county': 410182}],County,[],modern,POINT (113.39968027785254 34.80274196294287),['河南省'],['郑州市'],['荥阳市'],45.42760202,0.990998674
184,郚,今河南许昌、鄢陵一带,['今河南许昌、鄢陵一带'],,"[['河南', '许昌', '鄢陵']]",[{'county': 411024}],County,[],modern,POINT (114.17751412411593 34.01837218896118),['河南省'],['许昌市'],['鄢陵县'],52.12701883,0.989671208
186,涑[睘阝],今山西西南的涑水边,['今山西西南的涑水边'],,[['山西']],[{'province': 14}],Province,[],modern,POINT (112.47245736275306 37.66516721635999),['山西省'],['NA'],['NA'],758.2426072,0.849756793
187,沮阳,河北省怀来县东南,['河北省怀来县东南'],东南,"[['河北', '怀来']]",[{'county': 130730}],County,[],modern,POINT (115.77200785501473 40.23234942571935),['河北省'],['张家口市'],['怀来县'],61.43451425,0.987826959
187,渔阳,北京市密云县西南,['北京市密云县西南'],西南,"[['北京', '密云']]",[{'county': 110118}],County,[],modern,POINT (116.86363974872192 40.35196484413998),['北京市'],['北京市辖区'],['密云区'],77.12663161,0.984717619
187,无终,天津市蓟县,['天津市蓟县'],,"[['天津', '蓟']]",[{'county': 120119}],County,[],modern,POINT (117.49261585476611 39.9984463212956),['天津市'],['天津市辖区'],['蓟州区'],57.54893782,0.988596873
187,阳乐,辽宁省义县西,['辽宁省义县西'],西,"[['辽宁', '义']]",[{'county': 210727}],County,[],modern,POINT (121.14163596973492 41.57433157873268),['辽宁省'],['锦州市'],['义县'],86.78088544,0.982804661
188,辽西郡,今辽宁省西部,['今辽宁省西部'],西部,"[['辽宁', '']]",[{'county': 210103}],County,[],modern,POINT (123.44721908484843 41.79665341868581),['辽宁省'],['沈阳市'],['沈河区'],6.290812819,0.998753497
188,令支县,今河北省迁安县西,['今河北省迁安县西'],西,"[['河北', '迁安']]",[{'county': 130283}],County,[],modern,POINT (118.59179770813469 40.03581773318275),['河北省'],['唐山市'],['迁安市'],52.28807219,0.989639295
189,襄平,辽宁省辽阳市,['辽宁省辽阳市'],,"[['辽宁', '辽阳', '']]",[{'county': 211002}],County,[],modern,POINT (123.16150717595335 41.2797125555676),['辽宁省'],['辽阳市'],['白塔区'],7.584709263,0.998497116
190,昌城,今河北固安县南,['今河北固安县南'],南,"[['河北', '固安']]",[{'county': 131022}],County,[],modern,POINT (116.30021394242681 39.250922439659846),['河北省'],['廊坊市'],['固安县'],47.16281424,0.990654848
190,涿,涿州市,['涿州市'],,[['涿州']],[{'county': 130681}],County,[],modern,POINT (115.96450473952339 39.48642971288701),['河北省'],['保定市'],['涿州市'],41.23563601,0.991829298
190,方城,今河北固安县南,['今河北固安县南'],南,"[['河北', '固安']]",[{'county': 131022}],County,[],modern,POINT (116.30021394242681 39.250922439659846),['河北省'],['廊坊市'],['固安县'],47.16281424,0.990654848
191,邓,湖北省襄樊市西北,['湖北省襄樊市西北'],西北,"[['湖北', '']]",[{'county': 420102}],County,[],modern,POINT (114.29370199706662 30.67693316349547),['湖北省'],['武汉市'],['江岸区'],17.17430851,0.996596969
192,湖阳,今河南省唐河县西南,['今河南省唐河县西南'],西南,"[['河南', '唐河']]",[{'county': 411328}],County,[],modern,POINT (112.69460497288287 32.48221219542366),['河南省'],['南阳市'],['唐河县'],79.25960939,0.984294977
193,竟陵,湖北省潜江市西北,['湖北省潜江市西北'],西北,"[['湖北', '潜江']]",[{'county': 429005}],County,[],modern,POINT (112.66363494817152 30.471164239803215),['湖北省'],['省直辖县级行政单位'],['潜江市'],63.57980174,0.987401877
194,苦,河南省鹿邑县东,['河南省鹿邑县东'],东,"[['河南', '鹿邑']]",[{'county': 411628}],County,[],modern,POINT (115.47993533666437 33.906247185226704),['河南省'],['周口市'],['鹿邑县'],60.25245178,0.988061181
195,期思,今河南省淮滨县东南期思乡,['今河南省淮滨县东南期思乡'],,"[['河南', '淮滨']]",[{'county': 411527}],County,[],modern,POINT (115.31412286503618 32.46081562194832),['河南省'],['信阳市'],['淮滨县'],55.69217628,0.988964784
196,寝县,今安徽省临泉县,['今安徽省临泉县'],,"[['安徽', '临泉']]",[{'county': 341221}],County,[],modern,POINT (115.32828737405632 32.85900566936147),['安徽省'],['阜阳市'],['临泉县'],71.34504225,0.985863221
197,鄀,湖北省宜城市东南,['湖北省宜城市东南'],东南,"[['湖北', '宜城']]",[{'county': 420684}],County,[],modern,POINT (112.54929721526733 31.592039069509852),['湖北省'],['襄阳市'],['宜城市'],77.65796106,0.984612338
198,宛,河南省南阳市,['河南省南阳市'],,"[['河南', '南阳']]",[{'prefecture': 4113}],Prefecture,[],modern,POINT (112.18605667760141 33.06080863027986),['河南省'],['南阳市'],['NA'],281.5621608,0.944209411
199,析,河南省西峡县,['河南省西峡县'],,"[['河南', '西峡']]",[{'county': 411323}],County,[],modern,POINT (111.33477339151108 33.463616943856806),['河南省'],['南阳市'],['西峡县'],87.43215002,0.982675615
200,叶县,今河南省叶县南,['今河南省叶县南'],南,"[['河南', '叶']]",[{'county': 410422}],County,[],modern,POINT (113.25559749685087 33.447944054547875),['河南省'],['平顶山市'],['叶县'],59.43074139,0.988224
201,阴县,今湖北省老河口市北,['今湖北省老河口市北'],北,"[['湖北', '老河口']]",[{'county': 420682}],County,[],modern,POINT (111.67881903115388 32.57905262069674),['湖北省'],['襄阳市'],['老河口市'],51.66357793,0.989763037
202,息县,今河南省息县西南,['今河南省息县西南'],西南,"[['河南', '息']]",[{'county': 411528}],County,[],modern,POINT (114.7813614975039 32.280516102686875),['河南省'],['信阳市'],['息县'],63.4238693,0.987432775
203,武城,今河南省信阳市东北,['今河南省信阳市东北'],东北,"[['河南', '信阳']]",[{'prefecture': 4115}],Prefecture,[],modern,POINT (115.3846284156569 32.34860379712833),['河南省'],['信阳市'],['NA'],217.9936215,0.956805302
204,上庸,湖北省竹山县西南,['湖北省竹山县西南'],西南,"[['湖北', '竹山']]",[{'county': 420323}],County,[],modern,POINT (110.02016358021368 32.23409831660457),['湖北省'],['十堰市'],['竹山县'],125.8539942,0.975062457
205,随国,今湖北省随州市,['今湖北省随州市'],,"[['湖北', '随州']]",[{'prefecture': 4213}],Prefecture,[],modern,POINT (113.40714536481974 31.893582994913427),['湖北省'],['随州市'],['NA'],138.2134945,0.972613464
205,随县,今湖北省随州市,['今湖北省随州市'],,"[['湖北', '随州']]",[{'prefecture': 4213}],Prefecture,[],modern,POINT (113.40714536481974 31.893582994913427),['湖北省'],['随州市'],['NA'],138.2134945,0.972613464
206,鄢,湖北省宜城县东南楚王城,['湖北省宜城县东南楚王城'],,"[['湖北', '宜城']]",[{'county': 420684}],County,[],modern,POINT (112.40848498654628 31.67562340909594),['湖北省'],['襄阳市'],['宜城市'],77.65796106,0.984612338
207,陈县,今河南省淮阳县,['今河南省淮阳县'],,"[['河南', '淮阳']]",[{'county': 411603}],County,[],modern,POINT (114.83825605453461 33.678069228952864),['河南省'],['周口市'],['淮阳区'],64.09541647,0.98729971
207,郢陈,陈县,['陈县'],,[['']],[{'county': 150102}],County,[],modern,POINT (111.87654376409023 40.96160713329657),['内蒙古自治区'],['呼和浩特市'],['新城区'],40.159592,0.992042513
208,平舆,今河南省平舆县北,['今河南省平舆县北'],北,"[['河南', '平舆']]",[{'county': 411723}],County,[],modern,POINT (114.6141132524672 33.090581254088775),['河南省'],['驻马店市'],['平舆县'],50.68834719,0.989956276
209,计斤,山东省胶州市西南,['山东省胶州市西南'],西南,"[['山东', '胶州']]",[{'county': 370281}],County,[],modern,POINT (119.82850693451326 36.11687700930031),['山东省'],['青岛市'],['胶州市'],65.01276048,0.987117942
209,莒,山东省莒县,['山东省莒县'],,"[['山东', '莒']]",[{'county': 371122}],County,[],modern,POINT (118.94914208359154 35.702241869277174),['山东省'],['日照市'],['莒县'],79.0048276,0.984345461
210,鲁阳公,今河南省鲁山县,['今河南省鲁山县'],,"[['河南', '鲁山']]",[{'county': 410423}],County,[],modern,POINT (112.66968658592764 33.77054235455924),['河南省'],['平顶山市'],['鲁山县'],91.68392664,0.98183314
211,临沅,湖南省常德市西,['湖南省常德市西'],西,"[['湖南', '常德']]",[{'prefecture': 4307}],Prefecture,[],modern,POINT (111.37972299663335 29.266696335577038),['湖南省'],['常德市'],['NA'],227.718694,0.954878311
212,广陵,今江苏省扬州市西北,['今江苏省扬州市西北'],西北,"[['江苏', '扬州']]",[{'prefecture': 3210}],Prefecture,[],modern,POINT (119.41161384179128 33.09173205664527),['江苏省'],['扬州市'],['NA'],136.4526976,0.97296236
213,居巢,今安徽省六安县东北,['今安徽省六安县东北'],东北,"[['安徽', '六安']]",[{'prefecture': 3415}],Prefecture,[],modern,POINT (116.38500765126264 32.11546780411756),['安徽省'],['六安市'],['NA'],187.4399413,0.96285941
214,吴,江苏省苏州市,['江苏省苏州市'],,"[['江苏', '苏州']]",[{'prefecture': 3205}],Prefecture,[],modern,POINT (120.70793150044615 31.401362843263264),['江苏省'],['苏州市'],['NA'],139.5234535,0.9723539
215,蔡,今河南省上蔡县城关一带,['今河南省上蔡县城关一带'],,"[['河南', '上蔡']]",[{'county': 411722}],County,[],modern,POINT (114.43138227105428 33.31576190188675),['河南省'],['驻马店市'],['上蔡县'],59.4675017,0.988216716
215,新蔡,今河南省新蔡县,['今河南省新蔡县'],,"[['河南', '新蔡']]",[{'county': 411729}],County,[],modern,POINT (114.93192773327081 32.800446441694675),['河南省'],['驻马店市'],['新蔡县'],53.79125465,0.989341445
215,州来,今安徽省凤台县,['今安徽省凤台县'],,"[['安徽', '凤台']]",[{'county': 340421}],County,[],modern,POINT (116.58463247421815 32.77307801044718),['安徽省'],['淮南市'],['凤台县'],55.82160225,0.988939138
217,钟离,安徽省凤阳县东北临淮关,['安徽省凤阳县东北临淮关'],,"[['安徽', '凤阳']]",[{'county': 341126}],County,[],modern,POINT (117.61672510764127 32.84248527073355),['安徽省'],['滁州市'],['凤阳县'],78.72892723,0.98440013
218,朱方,江苏省镇江市东丹徒镇,['江苏省镇江市东丹徒镇'],,"[['江苏', '镇江', '丹徒']]",[{'county': 321112}],County,[],modern,POINT (119.41384689493543 32.04274323946893),['江苏省'],['镇江市'],['丹徒区'],46.85956796,0.990714935
220,汝水,河南省襄城县南,['河南省襄城县南'],南,"[['河南', '襄城']]",[{'county': 411025}],County,[],modern,POINT (113.59562990174251 33.7747106823206),['河南省'],['许昌市'],['襄城县'],44.64150679,0.991154437
220,襄城县,今河南省襄城县,['今河南省襄城县'],,"[['河南', '襄城']]",[{'county': 411025}],County,[],modern,POINT (113.56201351843009 33.8560914989737),['河南省'],['许昌市'],['襄城县'],44.64150679,0.991154437
223,兰陵,山东省苍山县西南,['山东省苍山县西南'],西南,"[['山东', '苍山']]",[{'county': 371324}],County,[],modern,POINT (117.91594666820498 34.760535810746845),['山东省'],['临沂市'],['兰陵县'],58.59692928,0.988389217
224,寿春,今安徽省寿县,['今安徽省寿县'],,"[['安徽', '寿']]",[{'county': 340422}],County,[],modern,POINT (116.78281303829905 32.288368620639915),['安徽省'],['淮南市'],['寿县'],83.85817003,0.983383787
225,上邽,今甘肃省天水市,['今甘肃省天水市'],,"[['甘肃', '天水']]",[{'prefecture': 6205}],Prefecture,[],modern,POINT (105.5352232950286 34.619472378442836),['甘肃省'],['天水市'],['NA'],201.4318231,0.960086966
225.5,秦县,今甘肃省甘谷县东,['今甘肃省甘谷县东'],东,"[['甘肃', '甘谷']]",[{'county': 620523}],County,[],modern,POINT (105.38786041632565 34.8033147929916),['甘肃省'],['天水市'],['甘谷县'],61.32412183,0.987848833
225.5,冀县,属天水郡,['属天水郡'],,[['天水']],[{'prefecture': 6205}],Prefecture,[],modern,POINT (105.5352232950286 34.619472378442836),[],[],['天水'],201.4318231,0.960086966
226,下邽县,今陕西省渭南市北,['今陕西省渭南市北'],北,"[['陕西', '渭南']]",[{'prefecture': 6105}],Prefecture,[],modern,POINT (110.00115251300494 35.400639776140196),['陕西省'],['渭南市'],['NA'],197.4939403,0.960867244
227,秦县,今陕西省西安市南,['今陕西省西安市南'],南,"[['陕西', '西安', '']]",[{'county': 610102}],County,[],modern,POINT (109.00912340681806 34.250181297737655),['陕西省'],['西安市'],['新城区'],9.406437512,0.998136146
227,杜县,属京兆尹,['属京兆尹'],,[['']],[{'county': 150102}],County,[],modern,POINT (111.87654376409023 40.96160713329657),['内蒙古自治区'],['呼和浩特市'],['新城区'],40.159592,0.992042513
228,秦县,今陕西省华县,['今陕西省华县'],,"[['陕西', '华']]",[{'county': 610503}],County,[],modern,POINT (109.79253308275264 34.415757407111215),['陕西省'],['渭南市'],['华州区'],51.39288001,0.989816675
229,小虢,今陕西省宝鸡县西,['今陕西省宝鸡县西'],西,"[['陕西', '宝鸡', '']]",[{'county': 610303}],County,[],modern,POINT (107.0234891672807 34.446506655867054),['陕西省'],['宝鸡市'],['金台区'],39.19364265,0.992233912
229,虢县,属右扶风,['属右扶风'],,[['扶风']],[{'county': 610324}],County,[],modern,POINT (107.92995406256819 34.41370324933968),['陕西省'],['宝鸡市'],['扶风县'],44.13401918,0.991254993
231,大荔,今陕西省大荔县东,['今陕西省大荔县东'],东,"[['陕西', '大荔']]",[{'county': 610523}],County,[],modern,POINT (110.13906473332085 34.831089168560425),['陕西省'],['渭南市'],['大荔县'],67.2192057,0.986680742
231,临晋,今陕西省大荔县东,['今陕西省大荔县东'],东,"[['陕西', '大荔']]",[{'county': 610523}],County,[],modern,POINT (110.13906473332085 34.831089168560425),['陕西省'],['渭南市'],['大荔县'],67.2192057,0.986680742
233,频阳,今陕西省富平县东北,['今陕西省富平县东北'],东北,"[['陕西', '富平']]",[{'county': 610528}],County,[],modern,POINT (109.33494986510146 35.00258894572769),['陕西省'],['渭南市'],['富平县'],52.34314143,0.989628384
234,雍,陕西省凤翔县西南,['陕西省凤翔县西南'],西南,"[['陕西', '凤翔']]",[{'county': 610322}],County,[],modern,POINT (107.3134763512032 34.527650557895754),['陕西省'],['宝鸡市'],['凤翔县'],48.04201719,0.990480637
234,泾阳,陕西省泾阳县,['陕西省泾阳县'],,"[['陕西', '泾阳']]",[{'county': 610423}],County,[],modern,POINT (108.76507167104455 34.5977177725984),['陕西省'],['咸阳市'],['泾阳县'],53.22166675,0.989454307
235,籍姑,今陕西省韩城市北,['今陕西省韩城市北'],北,"[['陕西', '韩城']]",[{'county': 610581}],County,[],modern,POINT (110.37062928554487 35.70511797847071),['陕西省'],['渭南市'],['韩城市'],60.05591236,0.988100124
235,庞,今陕西省韩城市东南,['今陕西省韩城市东南'],东南,"[['陕西', '韩城']]",[{'county': 610581}],County,[],modern,POINT (110.44928720726946 35.42669175191095),['陕西省'],['渭南市'],['韩城市'],60.05591236,0.988100124
236,城重泉,今陕西省蒲城县南,['今陕西省蒲城县南'],南,"[['陕西', '蒲城']]",[{'county': 610526}],County,[],modern,POINT (109.54878441162299 34.86525386003879),['陕西省'],['渭南市'],['蒲城县'],55.66178187,0.988970806
237,栎阳,今陕西省临潼县东北,['今陕西省临潼县东北'],东北,"[['陕西', '临潼']]",[{'county': 610115}],County,[],modern,POINT (109.34907300242497 34.55444291971308),['陕西省'],['西安市'],['临潼区'],47.55745338,0.990576652
237,栎邑,栎阳,['栎阳'],,[['']],[{'county': 150102}],County,[],modern,POINT (111.87654376409023 40.96160713329657),['内蒙古自治区'],['呼和浩特市'],['新城区'],40.159592,0.992042513
238,蓝田县,今陕西省蓝田县西,['今陕西省蓝田县西'],西,"[['陕西', '蓝田']]",[{'county': 610122}],County,[],modern,POINT (109.27892635219146 34.08263121859176),['陕西省'],['西安市'],['蓝田县'],63.36555053,0.987444331
242,高陵,今陕西省高陵县,['今陕西省高陵县'],,"[['陕西', '高陵']]",[{'county': 610117}],County,[],modern,POINT (109.06911747025248 34.510268812237626),['陕西省'],['西安市'],['高陵区'],24.5150891,0.995142418
243,斄,今陕西省武功县西南,['今陕西省武功县西南'],西南,"[['陕西', '武功']]",[{'county': 610431}],County,[],modern,POINT (108.14858934043724 34.270679564909784),['陕西省'],['咸阳市'],['武功县'],36.90183489,0.992688026
243,美阳,今陕西省武功县西北,['今陕西省武功县西北'],西北,"[['陕西', '武功']]",[{'county': 610431}],County,[],modern,POINT (108.10264563970856 34.371274503164045),['陕西省'],['咸阳市'],['武功县'],36.90183489,0.992688026
243,武功,今陕西省眉县东,['今陕西省眉县东'],东,"[['陕西', '眉']]",[{'county': 610326}],County,[],modern,POINT (107.89926559127012 34.15615944358678),['陕西省'],['宝鸡市'],['眉县'],42.31770958,0.991614889
244,咸阳,今陕西省咸阳市东,['今陕西省咸阳市东'],东,"[['陕西', '咸阳']]",[{'prefecture': 6104}],Prefecture,[],modern,POINT (108.55681784087722 34.885061392510835),['陕西省'],['咸阳市'],['NA'],154.2531421,0.969435262
244,冀阙,咸阳,['咸阳'],,[['咸阳']],[{'prefecture': 6104}],Prefecture,[],modern,POINT (108.51607486248429 34.883414952110954),['陕西省'],['咸阳市'],['NA'],154.2531421,0.969435262
244,栎阳,秦都栎阳,['秦都栎阳'],,[['秦都']],[{'county': 610402}],County,[],modern,POINT (108.64408132715309 34.37888319376346),['陕西省'],['咸阳市'],['秦都区'],26.19107658,0.994810327
244,渭城,故咸阳,['故咸阳'],,[['咸阳']],[{'prefecture': 6104}],Prefecture,[],modern,POINT (108.51607486248429 34.883414952110954),['陕西省'],['咸阳市'],['NA'],154.2531421,0.969435262
245,武城,今陕西华县东北,['今陕西华县东北'],东北,"[['陕西', '华']]",[{'county': 610503}],County,[],modern,POINT (109.84804060727446 34.49222526629286),['陕西省'],['渭南市'],['华州区'],51.39288001,0.989816675
246,於商,陕西省丹凤县西北,['陕西省丹凤县西北'],西北,"[['陕西', '丹凤']]",[{'county': 611022}],County,[],modern,POINT (110.31910484136895 33.81936465878717),['陕西省'],['商洛市'],['丹凤县'],67.09282882,0.986705783
249,陕县,今河南省陕县西南,['今河南省陕县西南'],西南,"[['河南', '陕']]",[{'county': 411203}],County,[],modern,POINT (111.24186643263359 34.5378990500108),['河南省'],['三门峡市'],['陕州区'],65.87087084,0.98694791
255,义渠,今甘肃省庆阳市西南,['今甘肃省庆阳市西南'],西南,"[['甘肃', '庆阳']]",[{'prefecture': 6210}],Prefecture,[],modern,POINT (107.2510416493361 35.80698140934946),['甘肃省'],['庆阳市'],['NA'],262.0798602,0.948069763
256,南郑,今陕西省汉中市,['今陕西省汉中市'],,"[['陕西', '汉中']]",[{'prefecture': 6107}],Prefecture,[],modern,POINT (107.02313109729458 33.01812403770947),['陕西省'],['汉中市'],['NA'],262.9433129,0.947898672
258,朐衍,今宁夏回族自治区盐池县境,['今宁夏回族自治区盐池县境'],,"[['宁夏', '盐池']]",[{'county': 640323}],County,[],modern,POINT (106.98778738738284 37.63455424942703),['宁夏回族自治区'],['吴忠市'],['盐池县'],128.1115211,0.974615136
259,江州,今重庆市嘉陵江北岸,['今重庆市嘉陵江北岸'],,"[['重庆', '江北']]",[{'county': 500105}],County,[],modern,POINT (106.67583477107067 29.60435456341),['重庆市'],['重庆市辖区'],['江北区'],42.269765,0.991624389
260,鱼复县,今重庆市奉节县东白帝城,['今重庆市奉节县东白帝城'],,"[['重庆', '奉节']]",[{'county': 500236}],County,[],modern,POINT (109.38425764019328 30.953245560781887),['重庆市'],['重庆市辖县'],['奉节县'],99.40356819,0.980303519
261,阆中县,今四川省阆中市,['今四川省阆中市'],,"[['四川', '阆中']]",[{'county': 511381}],County,[],modern,POINT (105.97345273943043 31.60576248897682),['四川省'],['南充市'],['阆中市'],69.66061223,0.986196985
261,张仪城,阆中县府东二十里,['阆中县府东二十里'],,[['阆中县']],[{'county': 'hvd_197792'}],County,[],historic,POINT (0 31.58184),[],[],['阆中县'],8155.751226,-0.616034505
262,天彭门,汶山,['汶山'],,[['']],[{'county': 150102}],County,[],modern,POINT (111.87654376409023 40.96160713329657),['内蒙古自治区'],['呼和浩特市'],['新城区'],40.159592,0.992042513
262,湔氏县,今四川省松潘县西北,['今四川省松潘县西北'],西北,"[['四川', '松潘']]",[{'county': 513224}],County,[],modern,POINT (103.40900801854353 32.88525757117182),['四川省'],['阿坝藏族羌族自治州'],['松潘县'],151.3521838,0.970010077
264,乌氏,今宁夏回族自治区固原市东南,['今宁夏回族自治区固原市东南'],东南,"[['宁夏', '固原']]",[{'prefecture': 6404}],Prefecture,[],modern,POINT (106.33435613141629 35.63195698548123),['宁夏回族自治区'],['固原市'],['NA'],148.1776036,0.970639109
265,成都,今四川省成都市,['今四川省成都市'],,"[['四川', '成都', '']]",[{'county': 510105}],County,[],modern,POINT (103.95662205094197 30.68587587799874),['四川省'],['成都市'],['青羊区'],17.61737652,0.996509176
265,赤里街,成都县本治,['成都县本治'],,"[['成都', '']]",[{'county': 510105}],County,[],modern,POINT (103.95662205094197 30.68587587799874),['四川省'],['成都市'],['青羊区'],17.61737652,0.996509176
265,华阳县,成都城,['成都城'],,"[['成都', '']]",[{'county': 510105}],County,[],modern,POINT (103.95662205094197 30.68587587799874),['四川省'],['成都市'],['青羊区'],17.61737652,0.996509176
266,成都,今四川省成都市,['今四川省成都市'],,"[['四川', '成都', '']]",[{'county': 510105}],County,[],modern,POINT (103.95662205094197 30.68587587799874),['四川省'],['成都市'],['青羊区'],17.61737652,0.996509176
266,郫城,今四川省郫县,['今四川省郫县'],,"[['四川', '郫']]",[{'county': 510117}],County,[],modern,POINT (103.87109819215422 30.826298798770082),['四川省'],['成都市'],['郫都区'],32.04354527,0.99365068
267,成都,今四川省成都市,['今四川省成都市'],,"[['四川', '成都', '']]",[{'county': 510105}],County,[],modern,POINT (103.95662205094197 30.68587587799874),['四川省'],['成都市'],['青羊区'],17.61737652,0.996509176
267,郫城,今四川省郫县,['今四川省郫县'],,"[['四川', '郫']]",[{'county': 510117}],County,[],modern,POINT (103.87109819215422 30.826298798770082),['四川省'],['成都市'],['郫都区'],32.04354527,0.99365068
267,临邛城,今四川省邛崃市,['今四川省邛崃市'],,"[['四川', '邛崃']]",[{'county': 510183}],County,[],modern,POINT (103.43078694949861 30.376885528351863),['四川省'],['成都市'],['邛崃市'],68.8922896,0.986349226
268,郿邑,今陕西省眉县东北,['今陕西省眉县东北'],东北,"[['陕西', '眉']]",[{'county': 610326}],County,[],modern,POINT (107.89926559127012 34.17936920883804),['陕西省'],['宝鸡市'],['眉县'],42.31770958,0.991614889
270,宜阳,今河南省洛阳市宜阳县,['今河南省洛阳市宜阳县'],,"[['河南', '洛阳', '宜阳']]",[{'county': 410327}],County,[],modern,POINT (112.0275859718441 34.493351038567894),['河南省'],['洛阳市'],['宜阳县'],66.29070063,0.986864722
270,武遂,今山西省垣曲县东南,['今山西省垣曲县东南'],东南,"[['山西', '垣曲']]",[{'county': 140827}],County,[],modern,POINT (111.95547897846053 35.17075479973811),['山西省'],['运城市'],['垣曲县'],55.85266806,0.988932983
275,榆中,今陕西榆林以北、黄河以南的地区,['今陕西榆林以北、黄河以南的地区'],,"[['陕西', '榆林']]",[{'prefecture': 6108}],Prefecture,[],modern,POINT (109.72614375320131 38.2146241519104),['陕西省'],['榆林市'],['NA'],447.2351798,0.911381863
275,广衍,勿尔图沟秦汉古城,['勿尔图沟秦汉古城'],,[['古城']],[{'county': 530702}],County,[],modern,POINT (100.31763541097709 26.87645171515482),['云南省'],['丽江市'],['古城区'],73.87048176,0.985362814
277,邯郸,今河北省邯郸市,['今河北省邯郸市'],,"[['河北', '邯郸']]",[{'prefecture': 1304}],Prefecture,[],modern,POINT (114.44668734096498 36.541271873895774),['河北省'],['邯郸市'],['NA'],190.7269408,0.962208102
277,定阳,今陕西省延安市东南,['今陕西省延安市东南'],东南,"[['陕西', '延安']]",[{'prefecture': 6106}],Prefecture,[],modern,POINT (109.90557162811635 36.029932889983094),['陕西省'],['延安市'],['NA'],294.1588303,0.941713423
284,梗阳,赵县,['赵县'],,[['赵']],[{'county': 130133}],County,[],modern,POINT (114.84986570556961 37.7772686779257),['河北省'],['石家庄市'],['赵县'],40.5970445,0.991955833
290,狄道,今甘肃省临洮县,['今甘肃省临洮县'],,"[['甘肃', '临洮']]",[{'county': 621124}],County,[],modern,POINT (104.03289503000583 35.52038835747743),['甘肃省'],['定西市'],['临洮县'],99.80944108,0.980223097
293,穰,今河南省邓州市,['今河南省邓州市'],,"[['河南', '邓州']]",[{'county': 411381}],County,[],modern,POINT (112.09207514991527 32.70213990455176),['河南省'],['南阳市'],['邓州市'],73.69042945,0.985398491
294,筑阳,今湖北省谷城县东,['今湖北省谷城县东'],东,"[['湖北', '谷城']]",[{'county': 420625}],County,[],modern,POINT (111.60537401688737 32.226937456873486),['湖北省'],['襄阳市'],['谷城县'],70.24257298,0.986081672
295,枳,今重庆市涪陵区东北,['今重庆市涪陵区东北'],东北,"[['重庆', '涪陵']]",[{'county': 500102}],County,[],modern,POINT (107.47158982960522 29.803349296687948),['重庆市'],['重庆市辖区'],['涪陵区'],79.65273665,0.98421708
296,郢,湖北省江陵县西北纪南城,['湖北省江陵县西北纪南城'],,"[['湖北', '江陵']]",[{'county': 421024}],County,[],modern,POINT (112.46316854623493 30.091462266142543),['湖北省'],['荆州市'],['江陵县'],52.83034986,0.989531845
299,巫县,今重庆市巫山县北,['今重庆市巫山县北'],北,"[['重庆', '巫山']]",[{'county': 500237}],County,[],modern,POINT (109.93246161656182 31.336727825061292),['重庆市'],['重庆市辖县'],['巫山县'],88.58474515,0.982447233
303,华阳,今河南省新郑市北,['今河南省新郑市北'],北,"[['河南', '新郑']]",[{'county': 410184}],County,[],modern,POINT (113.75323506341584 34.567189221284956),['河南省'],['郑州市'],['新郑市'],41.76272481,0.991724857
304,卷地,今河南省原阳县西南原武西北,['今河南省原阳县西南原武西北'],西北,"[['河南', '原阳']]",[{'county': 410725}],County,[],modern,POINT (113.87174639248101 35.11626934245543),['河南省'],['新乡市'],['原阳县'],63.93833859,0.987330835
304,卷县,属河南郡,['属河南郡'],,"[['河南', '']]",[{'county': 410103}],County,[],modern,POINT (113.58890162690777 34.69682914812475),[],[''],['河南'],18.8121651,0.996272433
307,陶,山东省定陶县,['山东省定陶县'],,"[['山东', '定陶']]",[{'county': 371703}],County,[],modern,POINT (115.62928609886544 35.131485986724925),['山东省'],['菏泽市'],['定陶区'],44.59219611,0.991164207
308,河南郡河南县,今河南省洛阳市西,['今河南省洛阳市西'],西,"[['河南', '洛阳']]",[{'prefecture': 4103}],Prefecture,[],modern,POINT (111.5952484042518 34.340656502886404),['河南省'],['洛阳市'],['NA'],184.0920369,0.963522786
308,西周都城,今河南省洛阳市西,['今河南省洛阳市西'],西,"[['河南', '洛阳']]",[{'prefecture': 4103}],Prefecture,[],modern,POINT (111.5952484042518 34.340656502886404),['河南省'],['洛阳市'],['NA'],184.0920369,0.963522786
309,梁县,今河南省汝州市西南,['今河南省汝州市西南'],西南,"[['河南', '汝州']]",[{'county': 410482}],County,[],modern,POINT (112.6889180656963 34.037985744007),['河南省'],['平顶山市'],['汝州市'],57.18441276,0.988669102
311,缑氏,河南偃师市东南,['河南偃师市东南'],东南,"[['河南', '偃师']]",[{'county': 410381}],County,[],modern,POINT (112.81733550072434 34.55477811443505),['河南省'],['洛阳市'],['偃师市'],44.69381359,0.991144072
312,纶氏,颍川郡,['颍川郡'],,[['']],[{'county': 150102}],County,[],modern,POINT (111.87654376409023 40.96160713329657),[],[],[''],40.159592,0.992042513
314,宁新中,今河南省安阳市南,['今河南省安阳市南'],南,"[['河南', '安阳']]",[{'prefecture': 4105}],Prefecture,[],modern,POINT (114.70460181217771 35.549333655835994),['河南省'],['安阳市'],['NA'],151.1603241,0.970048093
314,安阳,今相州外城,['今相州外城'],,[['城']],[{'county': 140302}],County,[],modern,POINT (113.54813158677086 37.86591791066611),['山西省'],['阳泉市'],['城区'],11.21288178,0.997778205
315,张唐,河南新郑,['河南新郑'],,"[['河南', '新郑']]",[{'county': 410184}],County,[],modern,POINT (113.78138131984028 34.480015827257546),['河南省'],['郑州市'],['新郑市'],41.76272481,0.991724857
315,郑县,河南新郑,['河南新郑'],,"[['河南', '新郑']]",[{'county': 410184}],County,[],modern,POINT (113.78138131984028 34.480015827257546),['河南省'],['郑州市'],['新郑市'],41.76272481,0.991724857
316,曲阳,今安徽省淮南市东南,['今安徽省淮南市东南'],东南,"[['安徽', '淮南', '']]",[{'county': 340402}],County,[],modern,POINT (117.16250546047284 32.57778654434758),['安徽省'],['淮南市'],['大通区'],26.9814359,0.99465372
318,穀城,河南省洛阳市西北,['河南省洛阳市西北'],西北,"[['河南', '洛阳']]",[{'prefecture': 4103}],Prefecture,[],modern,POINT (112.00587770416683 34.67363961176599),['河南省'],['洛阳市'],['NA'],184.0920369,0.963522786
318,平阴,河南省孟津县东北,['河南省孟津县东北'],东北,"[['河南', '孟津']]",[{'county': 410322}],County,[],modern,POINT (112.50149908901741 34.891413229118484),['河南省'],['洛阳市'],['孟津县'],53.96800048,0.989306423
318,偃师,河南省偃师市东,['河南省偃师市东'],东,"[['河南', '偃师']]",[{'county': 410381}],County,[],modern,POINT (112.77570825593591 34.63491047676301),['河南省'],['洛阳市'],['偃师市'],44.69381359,0.991144072
318,巩,河南省巩义西南,['河南省巩义西南'],西南,"[['河南', '巩义']]",[{'county': 410181}],County,[],modern,POINT (112.93211342986267 34.613607627379224),['河南省'],['郑州市'],['巩义市'],44.34613735,0.991212963
319,洛阳,河南省洛阳市,['河南省洛阳市'],,"[['河南', '洛阳']]",[{'prefecture': 4103}],Prefecture,[],modern,POINT (111.87842175433917 34.32697013404825),['河南省'],['洛阳市'],['NA'],184.0920369,0.963522786
319,成周城,河南省洛阳市东北二十六里,['河南省洛阳市东北二十六里'],,"[['河南', '洛阳']]",[{'prefecture': 4103}],Prefecture,[],modern,POINT (111.87842175433917 34.32697013404825),['河南省'],['洛阳市'],['NA'],184.0920369,0.963522786
324,尉氏县,今河南省尉氏县,['今河南省尉氏县'],,"[['河南', '尉氏']]",[{'county': 410223}],County,[],modern,POINT (114.11673570360213 34.40078404655394),['河南省'],['开封市'],['尉氏县'],53.39883342,0.989419202
325,邘国,河南省沁阳市西北,['河南省沁阳市西北'],西北,"[['河南', '沁阳']]",[{'county': 410882}],County,[],modern,POINT (112.82138557806744 35.190658622595265),['河南省'],['焦作市'],['沁阳市'],36.01866516,0.992863023
325,邘县,今亭是也,['今亭是也'],,[['']],[{'county': 150102}],County,[],modern,POINT (111.87654376409023 40.96160713329657),['内蒙古自治区'],['呼和浩特市'],['新城区'],40.159592,0.992042513
326,安陆,今湖北省云梦县,['今湖北省云梦县'],,"[['湖北', '云梦']]",[{'county': 420923}],County,[],modern,POINT (113.76986584334651 30.987990195600457),['湖北省'],['孝感市'],['云梦县'],48.56801719,0.990376412
327,酸枣,陈留郡,['陈留郡'],,[['']],[{'county': 150102}],County,[],modern,POINT (111.87654376409023 40.96160713329657),[],[],[''],40.159592,0.992042513
327,燕,东郡,['东郡'],,[['']],[{'county': 150102}],County,[],modern,POINT (111.87654376409023 40.96160713329657),[],[],[''],40.159592,0.992042513
327,长平,汝南县,['汝南县'],,[['汝南']],[{'county': 411727}],County,[],modern,POINT (114.28378837944982 32.91278058629857),['河南省'],['驻马店市'],['汝南县'],62.55839383,0.987604266
327,雍丘,陈留郡,['陈留郡'],,[['']],[{'county': 150102}],County,[],modern,POINT (111.87654376409023 40.96160713329657),[],[],[''],40.159592,0.992042513
327,山阳,河内郡,['河内郡'],,[['']],[{'county': 150102}],County,[],modern,POINT (111.87654376409023 40.96160713329657),[],[],[''],40.159592,0.992042513
327,顿丘,东郡,['东郡'],,[['']],[{'county': 150102}],County,[],modern,POINT (111.87654376409023 40.96160713329657),[],[],[''],40.159592,0.992042513
328,濮阳,今河南省濮阳市西南,['今河南省濮阳市西南'],西南,"[['河南', '濮阳']]",[{'prefecture': 4109}],Prefecture,[],modern,POINT (115.1009658337048 35.576298613824555),['河南省'],['濮阳市'],['NA'],126.6250462,0.974909676
332,云阳,今陕西省淳化县西北,['今陕西省淳化县西北'],西北,"[['陕西', '淳化']]",[{'county': 610430}],County,[],modern,POINT (108.44780821231842 34.91982365147152),['陕西省'],['咸阳市'],['淳化县'],46.86912292,0.990713042
334,丽邑,今陕西省临潼县东北,['今陕西省临潼县东北'],东北,"[['陕西', '临潼']]",[{'county': 610115}],County,[],modern,POINT (109.34907300242497 34.55444291971308),['陕西省'],['西安市'],['临潼区'],47.55745338,0.990576652
335,颍川郡,河南阳城阳翟,['河南阳城阳翟'],,"[['河南', '']]",[{'county': 410103}],County,[],modern,POINT (113.58890162690777 34.69682914812475),['河南省'],['郑州市'],['二七区'],18.8121651,0.996272433
342,蓟,今北京城西南隅,['今北京城西南隅'],西南,[['北京']],[{'province': 11}],Province,[],modern,POINT (115.97368064827282 39.8303451343047),['北京市'],['NA'],['NA'],206.3727352,0.959107941
342,广阳郡,蓟为郡治,['蓟为郡治'],,[['蓟']],[{'county': 120119}],County,[],modern,POINT (117.49261585476611 39.9984463212956),[],[],['蓟'],57.54893782,0.988596873
345,承匡,河南省睢县,['河南省睢县'],,"[['河南', '睢']]",[{'county': 411422}],County,[],modern,POINT (115.03689856263702 34.399387471977846),['河南省'],['商丘市'],['睢县'],43.69301082,0.991342378
345,襄邑县,河南省睢县,['河南省睢县'],,"[['河南', '睢']]",[{'county': 411422}],County,[],modern,POINT (115.03689856263702 34.399387471977846),['河南省'],['商丘市'],['睢县'],43.69301082,0.991342378
347,砀,今安徽省砀山县南,['今安徽省砀山县南'],南,"[['安徽', '砀山']]",[{'county': 341321}],County,[],modern,POINT (116.44416795583285 34.368706098787925),['安徽省'],['宿州市'],['砀山县'],48.75258792,0.99033984
348,睢阳,河南省商丘市南,['河南省商丘市南'],南,"[['河南', '商丘']]",[{'prefecture': 4114}],Prefecture,[],modern,POINT (116.31095789518307 34.01390854688643),['河南省'],['商丘市'],['NA'],188.6200494,0.962625576
350,新都,安徽省太和县北,['安徽省太和县北'],北,"[['安徽', '太和']]",[{'county': 341222}],County,[],modern,POINT (115.61521606085273 33.47240304533855),['安徽省'],['阜阳市'],['太和县'],59.75525352,0.988159699
351,鲁县,山东省曲阜市,['山东省曲阜市'],,"[['山东', '曲阜']]",[{'county': 370881}],County,[],modern,POINT (116.99218825632055 35.63486109652786),['山东省'],['济宁市'],['曲阜市'],40.84760909,0.991906184
356,沛邑,今江苏省沛县,['今江苏省沛县'],,"[['江苏', '沛']]",[{'county': 320322}],County,[],modern,POINT (116.8921715649647 34.725892071254705),['江苏省'],['徐州市'],['沛县'],55.25973791,0.98905047
356,泗水郡治,沛县,['沛县'],,[['沛']],[{'county': 320322}],County,[],modern,POINT (116.8921715649647 34.725892071254705),['江苏省'],['徐州市'],['沛县'],55.25973791,0.98905047
357,相邑,今安徽省濉溪县西北,['今安徽省濉溪县西北'],西北,"[['安徽', '濉溪']]",[{'county': 340621}],County,[],modern,POINT (116.57220905011505 33.81557706191165),['安徽省'],['淮北市'],['濉溪县'],78.00848627,0.984542882
357,相县,秦泗水郡属县,['秦泗水郡属县'],,[['泗水']],[{'county': 370831}],County,[],modern,POINT (117.36498246654861 35.63486109652786),[],[],['泗水'],47.87733241,0.990513269
363,临湘,湖南省长沙市,['湖南省长沙市'],,"[['湖南', '长沙', '']]",[{'county': 430104}],County,[],modern,POINT (112.70885462641817 28.14709707454235),['湖南省'],['长沙市'],['岳麓区'],38.03888051,0.992462725
363,长沙郡,苍梧郡,['苍梧郡'],,[['苍梧']],[{'county': 450421}],County,[],modern,POINT (111.33304493366762 23.78917511346703),[],[],['苍梧'],101.1859394,0.979950349
364,罗国,湖北省宜城市西,['湖北省宜城市西'],西,"[['湖北', '宜城']]",[{'county': 420684}],County,[],modern,POINT (112.23451827992028 31.698903014797366),['湖北省'],['襄阳市'],['宜城市'],77.65796106,0.984612338
364,罗国,湖北省枝江市东北,['湖北省枝江市东北'],东北,"[['湖北', '枝江']]",[{'county': 420583}],County,[],modern,POINT (111.81785152329252 30.54698759566027),['湖北省'],['宜昌市'],['枝江市'],63.86762538,0.987344846
364,罗县,湖南省汨罗市西北,['湖南省汨罗市西北'],西北,"[['湖南', '汨罗']]",[{'county': 430681}],County,[],modern,POINT (112.99686845714868 28.91161641968847),['湖南省'],['岳阳市'],['汨罗市'],64.279412,0.987263252
364,罗县,岳州湘阴县东北六十里,['岳州湘阴县东北六十里'],,[['湘阴']],[{'county': 430624}],County,[],modern,POINT (112.81430865065548 28.76705008798463),['湖南省'],['岳阳市'],['湘阴县'],64.56209612,0.987207239
366,吴,江苏省苏州市,['江苏省苏州市'],,"[['江苏', '苏州']]",[{'prefecture': 3205}],Prefecture,[],modern,POINT (120.70793150044615 31.401362843263264),['江苏省'],['苏州市'],['NA'],139.5234535,0.9723539
366,会稽郡,浙江省,['浙江省'],,"[['浙江', '']]",[{'county': 330105}],County,[],modern,POINT (120.15570175940822 30.336885247903123),['浙江省'],['杭州市'],['拱墅区'],15.03970156,0.997019934
367,朱方,丹徒县,['丹徒县'],,[['丹徒']],[{'county': 321112}],County,[],modern,POINT (119.41384689493543 32.04274323946893),['江苏省'],['镇江市'],['丹徒区'],46.85956796,0.990714935
370,迁陵,湖南龙山里耶城址,['湖南龙山里耶城址'],,"[['湖南', '龙山']]",[{'county': 433130}],County,[],modern,POINT (109.46454076136605 29.20563679612888),['湖南省'],['湘西土家族苗族自治州'],['龙山县'],103.4029749,0.97951105
371,酉阳,今湖南省永顺县南,['今湖南省永顺县南'],南,"[['湖南', '永顺']]",[{'county': 433127}],County,[],modern,POINT (110.02819007430975 28.842707731418407),['湖南省'],['湘西土家族苗族自治州'],['永顺县'],86.93057274,0.982775001
372,益阳,今湖南益阳东,['今湖南益阳东'],东,"[['湖南', '益阳', '']]",[{'county': 430903}],County,[],modern,POINT (112.5489700245345 28.50377549310899),['湖南省'],['益阳市'],['赫山区'],54.37926517,0.989224933
372,临沅,秦苍梧郡属县,['秦苍梧郡属县'],,[['苍梧']],[{'county': 450421}],County,[],modern,POINT (111.33304493366762 23.78917511346703),[],[],['苍梧'],101.1859394,0.979950349
373,零阳,今湖南省慈利县东,['今湖南省慈利县东'],东,"[['湖南', '慈利']]",[{'county': 430821}],County,[],modern,POINT (111.10635278559474 29.480760706076342),['湖南省'],['张家界市'],['慈利县'],84.01251964,0.983353204
374,孱陵,湖南安乡县,['湖南安乡县'],,"[['湖南', '安乡']]",[{'county': 430721}],County,[],modern,POINT (112.14553733627226 29.41751063917132),['湖南省'],['常德市'],['安乡县'],61.95055693,0.987724707
374,索,湖南汉寿县,['湖南汉寿县'],,"[['湖南', '汉寿']]",[{'county': 430722}],County,[],modern,POINT (112.019087647659 28.878837553384805),['湖南省'],['常德市'],['汉寿县'],68.72114026,0.986383139
