,index,id,toponym,location,Address,Direction,Match Elements,Match Result,Match Level,Match Error,Match Period,geometry,Province,Prefecture,County,LEV1,LEV2,LEV3,LEV4,LEV5,BEG,END,Maximum Error Distance,Certainty,X,Y,closeness,target_toponym
0,0,1.0,权县,湖北省荆门县东南,['湖北省荆门县东南'],东南,"[['湖北', '荆门']]",[{'prefecture': 4208}],Prefecture,[],modern,POINT (112.93259024630586 30.893873672122275),['湖北省'],['荆门市'],['NA'],[],[],[],[],[],[],[],155.83922808846603,0.9691209843431546,112.93259024630586,30.893873672122275,0.999999999999998,﻿权
1,1,1.0,权城,钟祥县西南,['钟祥县西南'],西南,[['钟祥']],[{'county': 420881}],County,[],modern,POINT (112.4354671451893 31.06718251504033),['湖北省'],['荆门市'],['钟祥市'],[],[],[],[],[],[],[],100.17723773452764,0.9801502193612768,112.4354671451893,31.06718251504033,0.0,
2,2,3.0,蓼国,湖阳县,['湖阳县'],,[['湖阳']],[{'LEV1': 'hvd_82644'}],['县'],[],historic,POINT (112.745 32.40853),[],[],[],['湖阳县'],['南阳郡'],['秦'],[],[],[-272],[265],6.1995211941420205,0.9987715858557116,112.745,32.40853,0.9653642947466282,湖阳；蓼
3,3,3.0,蓼,今河南省唐河县西南,['今河南省唐河县西南'],西南,"[['河南', '唐河']]",[{'county': 411328}],County,[],modern,POINT (112.69460497288287 32.48221219542366),['河南省'],['南阳市'],['唐河县'],[],[],[],[],[],[],[],79.25960938735419,0.9842949766291308,112.69460497288289,32.48221219542366,0.9999999999999973,湖阳；蓼
4,4,4.0,邓国,湖北省襄樊市,['湖北省襄樊市'],,[['湖北']],[{'province': 42}],Province,[],modern,POINT (112.96002501880612 31.152191210560233),['湖北省'],['NA'],['NA'],[],[],[],[],[],[],[],750.73917366521,0.8512435733790001,112.96002501880612,31.152191210560236,0.0,邓
5,5,4.0,邓县,河南省邓州市,['河南省邓州市'],,"[['河南', '邓州']]",[{'county': 411381}],County,[],modern,POINT (112.09207514991527 32.70213990455176),['河南省'],['南阳市'],['邓州市'],[],[],[],[],[],[],[],73.69042944612337,0.9853984907873468,112.09207514991527,32.70213990455176,0.0,邓
6,6,5.0,申国,今河南省南阳市,['今河南省南阳市'],,"[['河南', '南阳']]",[{'prefecture': 4113}],Prefecture,[],modern,POINT (112.18605667760141 33.06080863027986),['河南省'],['南阳市'],['NA'],[],[],[],[],[],[],[],281.5621607697731,0.9442094107021022,112.1860566776014,33.06080863027986,0.9999999999999999,﻿申
7,7,5.0,申,今南阳宛县,['今南阳宛县'],,"[['宛县', '南阳']]",[{'LEV1': 'hvd_82610'}],['县'],[],historic,POINT (112.53547 33.00168),['河南省'],['南阳市'],['NA'],['宛县'],['南阳郡'],['秦'],[],[],[-272],[13],7.241005299999832,0.9985652193047116,112.53547,33.00168,0.9658937080773788,﻿申
8,8,5.0,申,今南阳宛县,['今南阳宛县'],,"[['宛县', '南阳']]",[{'LEV1': 'hvd_82610'}],['县'],[],historic,POINT (112.53547 33.00168),['河南省'],['南阳市'],['NA'],['宛县'],['南阳郡'],['秦'],[],[],[-272],[13],7.241005299999832,0.9985652193047116,112.53547,33.00168,0.9658937080773788,﻿申
9,9,5.0,申,今南阳宛县,['今南阳宛县'],,"[['宛县', '南阳']]",[{'LEV1': 'hvd_82610'}],['县'],[],historic,POINT (112.53547 33.00168),['河南省'],['南阳市'],['NA'],['宛县'],['南阳郡'],['秦'],[],[],[-272],[13],7.241005299999832,0.9985652193047116,112.53547,33.00168,0.9658937080773788,﻿申
10,10,6.0,吕国,河南省南阳市西,['河南省南阳市西'],西,"[['河南', '南阳']]",[{'prefecture': 4113}],Prefecture,[],modern,POINT (111.73482409735638 33.083013784123835),['河南省'],['南阳市'],['NA'],[],[],[],[],[],[],[],281.5621607697731,0.9442094107021022,111.73482409735638,33.083013784123835,1.0,吕
11,11,6.0,申,楚县,['楚县'],,[['楚']],[{'LEV2': 'hvd_115121'}],['国'],[],historic,POINT (112.19077 30.35045),[],[],[],[],['楚'],[],[],[],[-616.0],[-207.0],0.0011085836965403,0.9999997803378922,112.19077,30.35045,0.0,
12,12,7.0,息县,今河南省息县西南,['今河南省息县西南'],西南,"[['息县', '河南']]",[{'LEV1': 'hvd_617'}],['县'],[],historic,POINT (114.72909 32.34243),['河南省'],['信阳市'],['息县'],['息县'],['光州'],['河南'],[],[],[1820],[1820],3.9742886596587694,0.9992125081518194,114.72909,32.34243,0.9568576323084672,﻿息
13,13,8.0,商县,今湖北省均县附近,['今湖北省均县附近'],,"[['湖北', '均']]",[{'county': 420381}],County,[],modern,POINT (111.2478577665955 32.59461104834358),['湖北省'],['十堰市'],['丹江口市'],[],[],[],[],[],[],[],82.15262921111567,0.9837217345415687,111.2478577665955,32.59461104834358,0.9999999999999964,商
14,14,9.0,期思国,今河南省淮滨县东南期思乡,['今河南省淮滨县东南期思乡'],,"[['河南', '淮滨']]",[{'county': 411527}],County,[],modern,POINT (115.31412286503618 32.46081562194832),['河南省'],['信阳市'],['淮滨县'],[],[],[],[],[],[],[],55.69217627928692,0.9889647837429248,115.31412286503618,32.46081562194832,0.9999999999999913,﻿期思
15,15,10.0,析县,河南省西峡县,['河南省西峡县'],,"[['河南', '西峡']]",[{'county': 411323}],County,[],modern,POINT (111.33477339151108 33.463616943856806),['河南省'],['南阳市'],['西峡县'],[],[],[],[],[],[],[],87.43215001714287,0.9826756153607332,111.33477339151108,33.463616943856806,0.9999999999999998,﻿析；白羽
16,16,10.0,析君,析县,['析县'],,[['析县']],[{'LEV1': 'hvd_82759'}],['县'],[],historic,POINT (111.47452 33.30071),[],[],[],['析县'],['三川郡'],[],[],[],[-298],[13],13.799979475585475,0.9972655807686056,111.47452,33.30071,0.0,
18,18,10.0,容城,河南省鲁山县东南,['河南省鲁山县东南'],东南,"[['河南', '鲁山']]",[{'county': 410423}],County,[],modern,POINT (112.97315054814776 33.635538449837114),['河南省'],['平顶山市'],['鲁山县'],[],[],[],[],[],[],[],91.6839266446544,0.9818331402107936,112.97315054814776,33.635538449837114,0.0,
19,19,12.0,庐,湖北省襄樊市西南,['湖北省襄樊市西南'],西南,[['湖北']],[{'province': 42}],Province,[],modern,POINT (109.51835403262527 30.068949733121002),['湖北省'],['NA'],['NA'],[],[],[],[],[],[],[],750.73917366521,0.8512435733790001,109.51835403262528,30.068949733121,0.0,﻿庐
20,20,12.0,庐戢桨,襄阳中庐县,['襄阳中庐县'],,"[['中庐', '襄阳']]",[{'LEV1': 'hvd_45696'}],['县'],[],historic,POINT (112.0238 31.91545),['山东省'],['济南市'],['市中区'],['中庐县'],['襄阳郡'],[],[],[],[208],[551],4.012971928098163,0.9992048431930894,112.0238,31.91545,0.0,
21,21,11.0,商密,河南省淅川县西南,['河南省淅川县西南'],西南,"[['河南', '淅川']]",[{'county': 411326}],County,[],modern,POINT (111.34881046227096 32.89586563317357),['河南省'],['南阳市'],['淅川县'],[],[],[],[],[],[],[],105.8536458764005,0.979025458297984,111.34881046227096,32.89586563317357,0.0,
22,22,11.0,宜城,湖北省宜城县东南,['湖北省宜城县东南'],东南,"[['湖北', '宜城']]",[{'county': 420684}],County,[],modern,POINT (112.54929721526733 31.592039069509852),['湖北省'],['襄阳市'],['宜城市'],[],[],[],[],[],[],[],77.6579610638108,0.9846123378241656,112.54929721526732,31.59203906950985,0.0,
23,23,11.0,鄀,今河南淅川下寺八号楚墓中,['今河南淅川下寺八号楚墓中'],,"[['河南', '淅川']]",[{'county': 411326}],County,[],modern,POINT (111.40831487747542 32.979228249657424),['河南省'],['南阳市'],['淅川县'],[],[],[],[],[],[],[],105.8536458764005,0.979025458297984,111.40831487747542,32.979228249657424,0.9745775727127685,鄀
24,24,11.0,番,楚昭王十二年,['楚昭王十二年'],,[['楚']],[{'LEV2': 'hvd_115121'}],['国'],[],historic,POINT (112.19077 30.35045),[],[],[],[],['楚'],[],[],[],[-616.0],[-207.0],0.0011085836965403,0.9999997803378922,112.19077,30.35045,0.0,
25,25,11.0,郢,楚昭王十三年,['楚昭王十三年'],,[['楚']],[{'LEV2': 'hvd_115121'}],['国'],[],historic,POINT (112.19077 30.35045),[],[],[],[],['楚'],[],[],[],[-616.0],[-207.0],0.0011085836965403,0.9999997803378922,112.19077,30.35045,0.0,
26,26,11.0,鄢,楚惠王即位之初,['楚惠王即位之初'],,[['楚']],[{'LEV2': 'hvd_115121'}],['国'],[],historic,POINT (112.19077 30.35045),[],[],[],[],['楚'],[],[],[],[-616.0],[-207.0],0.0011085836965403,0.9999997803378922,112.19077,30.35045,0.0,
27,27,13.0,庸,湖北省竹山县西南,['湖北省竹山县西南'],西南,"[['湖北', '竹山']]",[{'county': 420323}],County,[],modern,POINT (110.02016358021368 32.23409831660457),['湖北省'],['十堰市'],['竹山县'],[],[],[],[],[],[],[],125.85399421180506,0.975062456960216,110.02016358021368,32.23409831660457,0.9999999999999994,﻿庸；上庸
28,28,14.0,宛丘,河南省淮阳县,['河南省淮阳县'],,"[['河南', '淮阳']]",[{'county': 411603}],County,[],modern,POINT (114.83825605453461 33.678069228952864),['河南省'],['周口市'],['淮阳区'],[],[],[],[],[],[],[],64.09541647393486,0.9872997101364804,114.8382560545346,33.678069228952864,0.9999999999999893,陈；宛丘
29,29,15.0,沈尹,今安徽省临泉县,['今安徽省临泉县'],,"[['安徽', '临泉']]",[{'county': 341221}],County,[],modern,POINT (115.32828737405632 32.85900566936147),['安徽省'],['阜阳市'],['临泉县'],[],[],[],[],[],[],[],71.345042247318,0.9858632213235644,115.32828737405632,32.85900566936147,0.0,
30,30,15.0,沈县,今临泉县,['今临泉县'],,[['临泉']],[{'county': 341221}],County,[],modern,POINT (115.32828737405632 32.85900566936147),['安徽省'],['阜阳市'],['临泉县'],[],[],[],[],[],[],[],71.345042247318,0.9858632213235644,115.32828737405632,32.85900566936147,0.9999999999999971,﻿沈
31,31,16.0,城父,河南省襄城县西,['河南省襄城县西'],西,"[['河南', '襄城']]",[{'county': 411025}],County,[],modern,POINT (113.47250298944223 33.86734107714353),['河南省'],['许昌市'],['襄城县'],[],[],[],[],[],[],[],44.64150679413128,0.9911544365038908,113.47250298944223,33.86734107714353,0.793571143963129,﻿城父
32,32,16.0,城父,安徽省亳州市东南,['安徽省亳州市东南'],东南,"[['安徽', '亳州']]",[{'prefecture': 3416}],Prefecture,[],modern,POINT (116.47773728565241 33.15166844473542),['安徽省'],['亳州市'],['NA'],[],[],[],[],[],[],[],164.22402857972116,0.9674595645015344,116.4777372856524,33.15166844473542,0.0,﻿城父
34,34,17.0,郧县,汉晋江夏郡之竟陵县,['汉晋江夏郡之竟陵县'],,"[['竟陵', '江夏']]",[{'LEV1': 'hvd_43593'}],['县'],[],historic,POINT (112.84528 30.48291),"['福建省', '湖北省']","['泉州市', '武汉市']","['晋江市', '江夏区']",['竟陵县'],['江夏郡'],['东汉'],[],[],[23],[61],1.937457815449728,0.9996160992905856,112.84528,30.48291,0.0,﻿郧
35,35,18.0,州来,安徽省凤台县,['安徽省凤台县'],,"[['安徽', '凤台']]",[{'county': 340421}],County,[],modern,POINT (116.58463247421815 32.77307801044718),['安徽省'],['淮南市'],['凤台县'],[],[],[],[],[],[],[],55.82160224992787,0.9889391384248438,116.58463247421815,32.77307801044718,0.9999999999999953,州来
36,36,19.0,叶县,今南阳叶县,['今南阳叶县'],,"[['叶县', '南阳']]",[{'LEV1': 'hvd_598'}],['县'],[],historic,POINT (113.34553 33.6233),['河南省'],"['平顶山市', '南阳市']","['NA', '叶县']",['叶县'],['南阳府'],['河南'],[],[],[1820],[1820],4.515929743701452,0.9991051838040304,113.34553,33.6233,0.7183189632417666,﻿叶
37,37,19.0,许国,今河南省许昌市东,['今河南省许昌市东'],东,"[['河南', '许昌']]",[{'prefecture': 4110}],Prefecture,[],modern,POINT (114.00400805581671 34.01837218896118),['河南省'],['许昌市'],['NA'],[],[],[],[],[],[],[],125.99374879965328,0.9750347650615891,114.00400805581673,34.01837218896118,0.0,
38,38,19.0,叶,今河南省叶县南,['今河南省叶县南'],南,"[['叶县', '河南']]",[{'LEV1': 'hvd_598'}],['县'],[],historic,POINT (113.34553 33.6233),['河南省'],['平顶山市'],['叶县'],['叶县'],['南阳府'],['河南'],[],[],[1820],[1820],4.515929743701452,0.9991051838040304,113.34553,33.6233,0.7183189632417666,﻿叶
39,39,20.0,陈,今河南省舞阳县西北,['今河南省舞阳县西北'],西北,"[['河南', '舞阳']]",[{'county': 411121}],County,[],modern,POINT (113.63693409772601 33.62173883629204),['河南省'],['漯河市'],['舞阳县'],[],[],[],[],[],[],[],41.261310845840725,0.991824210891834,113.636934097726,33.62173883629204,0.0,
40,40,20.0,蔡,今河南省襄城县东南,['今河南省襄城县东南'],东南,"[['河南', '襄城']]",[{'county': 411025}],County,[],modern,POINT (113.66109938929417 33.78758458318967),['河南省'],['许昌市'],['襄城县'],[],[],[],[],[],[],[],44.64150679413128,0.9911544365038908,113.66109938929417,33.78758458318967,0.0,
41,41,20.0,不羹,东不羹在今河南省舞阳县西北，西不羹在今河南省襄城县东南,['东不羹在今河南省舞阳县西北，西不羹在今河南省襄城县东南'],东南,"[['河南', '襄城'], ['河南', '舞阳']]","[{'county': 411025}, {'county': 411121}]",County,['Multiple Matches'],modern,POINT (113.62220628277615 33.70610714392495),['河南省'],"['许昌市', '漯河市']","['舞阳县', '襄城县']",[],[],[],[],[],[],[],70.57892618862594,0.9860150246279152,113.62220628277616,33.70610714392495,0.8758879042075853,东不羹
42,42,21.0,蔡,商王畿内的河南省修武县以西地带,['商王畿内的河南省修武县以西地带'],,"[['河南', '修武']]",[{'county': 410821}],County,[],modern,POINT (113.25353098993187 35.333201968868536),['河南省'],['焦作市'],['修武县'],[],[],[],[],[],[],[],41.84330131676752,0.9917088914495836,113.25353098993187,35.333201968868536,0.0,上蔡
43,43,21.0,上蔡,今河南省上蔡县城关一带,['今河南省上蔡县城关一带'],,"[['河南', '上蔡']]",[{'county': 411722}],County,[],modern,POINT (114.43138227105428 33.31576190188675),['河南省'],['驻马店市'],['上蔡县'],[],[],[],[],[],[],[],59.46750170343979,0.9882167157865313,114.43138227105428,33.31576190188675,0.9999999999999949,上蔡
44,44,21.0,新蔡,河南省新蔡县西,['河南省新蔡县西'],西,"[['河南', '新蔡']]",[{'county': 411729}],County,[],modern,POINT (114.80801318705777 32.8026341611258),['河南省'],['驻马店市'],['新蔡县'],[],[],[],[],[],[],[],53.79125465482472,0.9893414449297402,114.80801318705775,32.8026341611258,0.9999999999999987,新蔡
46,46,22.0,白县,今河南省息县东北,['今河南省息县东北'],东北,"[['息县', '河南']]",[{'LEV1': 'hvd_617'}],['县'],[],historic,POINT (114.72909 32.34243),['河南省'],['信阳市'],['息县'],['息县'],['光州'],['河南'],[],[],[1820],[1820],3.9742886596587694,0.9992125081518194,114.72909,32.34243,0.5041947944005036,﻿白
48,48,22.0,鄢,今河南省漯河市东,['今河南省漯河市东'],东,"[['河南', '漯河']]",[{'prefecture': 4111}],Prefecture,[],modern,POINT (114.0007136693999 33.71990268071875),['河南省'],['漯河市'],['NA'],[],[],[],[],[],[],[],82.05264286710856,0.9837415464972616,114.0007136693999,33.71990268071875,0.0,
49,49,22.0,巢,今安徽省寿县南,['今安徽省寿县南'],南,"[['安徽', '寿']]",[{'county': 340422}],County,[],modern,POINT (116.77973113562749 32.08973873873581),['安徽省'],['淮南市'],['寿县'],[],[],[],[],[],[],[],83.85817003144743,0.983383787399887,116.77973113562749,32.08973873873581,0.0,
50,50,22.0,巢国,今安徽省桐城县以南,['今安徽省桐城县以南'],南,"[['安徽', '桐城']]",[{'county': 340881}],County,[],modern,POINT (116.9452997284169 30.82298027080508),['安徽省'],['安庆市'],['桐城市'],[],[],[],[],[],[],[],65.58566323288215,0.9870044227844668,116.9452997284169,30.82298027080508,0.0,
51,51,22.0,巢邑,今安徽省六安县东北,['今安徽省六安县东北'],东北,"[['安徽', '六安']]",[{'prefecture': 3415}],Prefecture,[],modern,POINT (116.38500765126264 32.11546780411756),['安徽省'],['六安市'],['NA'],[],[],[],[],[],[],[],187.43994125182329,0.9628594099725164,116.38500765126264,32.11546780411756,0.0,
52,52,23.0,巢国,安徽省巢县东北,['安徽省巢县东北'],东北,"[['巢县', '安徽']]",[{'LEV1': 'hvd_1672'}],['县'],[],historic,POINT (117.86485 31.60174),['安徽省'],['合肥市'],['巢湖市'],['巢县'],['庐州府'],['安徽'],[],[],[1820],[1820],4.394715405972038,0.9991292020148396,117.86485,31.60174,0.08948554704311229,﻿居巢
53,53,23.0,钟离,安徽省凤阳县东北,['安徽省凤阳县东北'],东北,"[['安徽', '凤阳']]",[{'county': 341126}],County,[],modern,POINT (117.72595438088499 32.928151831793116),['安徽省'],['滁州市'],['凤阳县'],[],[],[],[],[],[],[],78.72892723219927,0.984400129502248,117.725954380885,32.92815183179312,0.0,
54,54,24.0,钟离,今安徽省凤阳县东北临淮关,['今安徽省凤阳县东北临淮关'],,"[['安徽', '凤阳']]",[{'county': 341126}],County,[],modern,POINT (117.61672510764127 32.84248527073355),['安徽省'],['滁州市'],['凤阳县'],[],[],[],[],[],[],[],78.72892723219927,0.984400129502248,117.61672510764129,32.84248527073355,0.9999999999999998,﻿钟离
55,55,25.0,阴大夫,阴县大夫,['阴县大夫'],,[['阴县']],[{'LEV1': 'hvd_45751'}],['县'],[],historic,POINT (111.62382 32.46271),[],[],[],['阴县'],['南阳郡'],[],[],[],[-202],[553],1.129451024899699,0.999776203101688,111.62382,32.46271,0.0,
56,56,25.0,阴县,湖北省老河口北,['湖北省老河口北'],北,"[['湖北', '老河口']]",[{'county': 420682}],County,[],modern,POINT (111.67881903115388 32.57905262069674),['湖北省'],['襄阳市'],['老河口市'],[],[],[],[],[],[],[],51.66357793365909,0.989763036871586,111.67881903115388,32.57905262069674,0.999999999999992,﻿阴
57,57,26.0,棠县,江苏省六合县西北,['江苏省六合县西北'],西北,"[['江苏', '六合']]",[{'county': 320116}],County,[],modern,POINT (118.71467117795228 32.50284665302389),['江苏省'],['南京市'],['六合区'],[],[],[],[],[],[],[],62.03938569555323,0.9877071056772267,118.71467117795228,32.50284665302389,0.9999999999999971,﻿棠
58,58,27.0,武城,今河南省信阳市东北,['今河南省信阳市东北'],东北,"[['河南', '信阳']]",[{'prefecture': 4115}],Prefecture,[],modern,POINT (115.3846284156569 32.34860379712833),['河南省'],['信阳市'],['NA'],[],[],[],[],[],[],[],217.99362149396168,0.9568053016318638,115.3846284156569,32.34860379712833,0.9999999999999999,﻿武城
59,59,28.0,蓝县,成臼附近,['成臼附近'],,[['成']],[{'county': 621221}],County,[],modern,POINT (105.69706389135146 33.77029862141447),['甘肃省'],['陇南市'],['成县'],[],[],[],[],[],[],[],55.863842145594425,0.9889307687324652,105.69706389135146,33.77029862141447,0.0,﻿蓝
60,60,29.0,苦县,河南省鹿邑县东,['河南省鹿邑县东'],东,"[['河南', '鹿邑']]",[{'county': 411628}],County,[],modern,POINT (115.47993533666437 33.906247185226704),['河南省'],['周口市'],['鹿邑县'],[],[],[],[],[],[],[],60.25245178122582,0.9880611805850348,115.47993533666435,33.906247185226704,0.999999999999992,﻿苦
61,61,29.0,相县,安徽省濉溪县西北,['安徽省濉溪县西北'],西北,"[['安徽', '濉溪']]",[{'county': 340621}],County,[],modern,POINT (116.57220905011505 33.81557706191165),['安徽省'],['淮北市'],['濉溪县'],[],[],[],[],[],[],[],78.00848626887532,0.9845428824410246,116.57220905011503,33.81557706191165,0.0,
62,62,30.0,荀,山西省新绛县东北,['山西省新绛县东北'],东北,"[['山西', '新绛']]",[{'county': 140825}],County,[],modern,POINT (111.20238728567072 35.707798259774584),['山西省'],['运城市'],['新绛县'],[],[],[],[],[],[],[],40.22313184037208,0.9920299225483772,111.20238728567072,35.707798259774584,0.9999999999999974,﻿荀
63,63,30.0,荀叔,山西省新绛县东北,['山西省新绛县东北'],东北,"[['山西', '新绛']]",[{'county': 140825}],County,[],modern,POINT (111.20238728567072 35.707798259774584),['山西省'],['运城市'],['新绛县'],[],[],[],[],[],[],[],40.22313184037208,0.9920299225483772,111.20238728567072,35.707798259774584,0.0,
65,65,31.0,耿,今山西省河津县东南,['今山西省河津县东南'],东南,"[['山西', '河津']]",[{'county': 140882}],County,[],modern,POINT (110.7598338169628 35.58016543415298),['山西省'],['运城市'],['河津市'],[],[],[],[],[],[],[],35.338191807329146,0.9929978568843804,110.7598338169628,35.58016543415298,0.9999999999999949,﻿耿
66,66,31.0,魏,今山西省芮城县北,['今山西省芮城县北'],北,"[['山西', '芮城']]",[{'county': 140830}],County,[],modern,POINT (110.66961129097986 34.77434754112491),['山西省'],['运城市'],['芮城县'],[],[],[],[],[],[],[],65.72258329065103,0.9869772925383828,110.66961129097986,34.77434754112491,0.9999999999999996,魏
67,67,32.0,州,河南省温县东北,['河南省温县东北'],东北,"[['温县', '河南']]",[{'LEV1': 'hvd_562'}],['县'],[],historic,POINT (113.07546 34.93812),['河南省'],['焦作市'],['温县'],['温县'],['怀庆府'],['河南'],[],[],[1820],[1820],3.809706139204343,0.9992451196212696,113.07546,34.93812,0.8594006173772877,州
68,68,32.0,温,河南省温县,['河南省温县'],,"[['温县', '河南']]",[{'LEV1': 'hvd_562'}],['县'],[],historic,POINT (113.07546 34.93812),['河南省'],['焦作市'],['温县'],['温县'],['怀庆府'],['河南'],[],[],[1820],[1820],3.809706139204343,0.9992451196212696,113.07546,34.93812,0.0,
69,69,32.0,原,河南省温县,['河南省温县'],,"[['温县', '河南']]",[{'LEV1': 'hvd_562'}],['县'],[],historic,POINT (113.07546 34.93812),['河南省'],['焦作市'],['温县'],['温县'],['怀庆府'],['河南'],[],[],[1820],[1820],3.809706139204343,0.9992451196212696,113.07546,34.93812,0.0,
70,70,32.0,州,河南省温县东北,['河南省温县东北'],东北,"[['温县', '河南']]",[{'LEV1': 'hvd_562'}],['县'],[],historic,POINT (113.07546 34.93812),['河南省'],['焦作市'],['温县'],['温县'],['怀庆府'],['河南'],[],[],[1820],[1820],3.809706139204343,0.9992451196212696,113.07546,34.93812,0.8594006173772877,州
71,71,33.0,原,河南省济源市西北,['河南省济源市西北'],西北,"[['河南', '济源']]",[{'county': 419001}],County,[],modern,POINT (112.24817757435811 35.17075479973811),['河南省'],['省直辖县级行政单位'],['济源市'],[],[],[],[],[],[],[],66.04869360111029,0.9869126748839832,112.24817757435812,35.17075479973811,0.9999999999999969,﻿原
72,72,33.0,苏忿生,河南省济源市西北,['河南省济源市西北'],西北,"[['河南', '济源']]",[{'county': 419001}],County,[],modern,POINT (112.24817757435811 35.17075479973811),['河南省'],['省直辖县级行政单位'],['济源市'],[],[],[],[],[],[],[],66.04869360111029,0.9869126748839832,112.24817757435812,35.17075479973811,0.0,
73,73,33.0,温,河南省济源市西北,['河南省济源市西北'],西北,"[['河南', '济源']]",[{'county': 419001}],County,[],modern,POINT (112.24817757435811 35.17075479973811),['河南省'],['省直辖县级行政单位'],['济源市'],[],[],[],[],[],[],[],66.04869360111029,0.9869126748839832,112.24817757435812,35.17075479973811,0.0,
74,74,33.0,樊,河南省济源市西北,['河南省济源市西北'],西北,"[['河南', '济源']]",[{'county': 419001}],County,[],modern,POINT (112.24817757435811 35.17075479973811),['河南省'],['省直辖县级行政单位'],['济源市'],[],[],[],[],[],[],[],66.04869360111029,0.9869126748839832,112.24817757435812,35.17075479973811,0.0,
75,75,33.0,隰郕,河南省济源市西北,['河南省济源市西北'],西北,"[['河南', '济源']]",[{'county': 419001}],County,[],modern,POINT (112.24817757435811 35.17075479973811),['河南省'],['省直辖县级行政单位'],['济源市'],[],[],[],[],[],[],[],66.04869360111029,0.9869126748839832,112.24817757435812,35.17075479973811,0.0,
76,76,33.0,楼茅,河南省济源市西北,['河南省济源市西北'],西北,"[['河南', '济源']]",[{'county': 419001}],County,[],modern,POINT (112.24817757435811 35.17075479973811),['河南省'],['省直辖县级行政单位'],['济源市'],[],[],[],[],[],[],[],66.04869360111029,0.9869126748839832,112.24817757435812,35.17075479973811,0.0,
77,77,33.0,向,河南省济源市西北,['河南省济源市西北'],西北,"[['河南', '济源']]",[{'county': 419001}],County,[],modern,POINT (112.24817757435811 35.17075479973811),['河南省'],['省直辖县级行政单位'],['济源市'],[],[],[],[],[],[],[],66.04869360111029,0.9869126748839832,112.24817757435812,35.17075479973811,0.0,
78,78,33.0,盟,河南省济源市西北,['河南省济源市西北'],西北,"[['河南', '济源']]",[{'county': 419001}],County,[],modern,POINT (112.24817757435811 35.17075479973811),['河南省'],['省直辖县级行政单位'],['济源市'],[],[],[],[],[],[],[],66.04869360111029,0.9869126748839832,112.24817757435812,35.17075479973811,0.0,
79,79,33.0,州,河南省济源市西北,['河南省济源市西北'],西北,"[['河南', '济源']]",[{'county': 419001}],County,[],modern,POINT (112.24817757435811 35.17075479973811),['河南省'],['省直辖县级行政单位'],['济源市'],[],[],[],[],[],[],[],66.04869360111029,0.9869126748839832,112.24817757435812,35.17075479973811,0.0,
80,80,33.0,陉,河南省济源市西北,['河南省济源市西北'],西北,"[['河南', '济源']]",[{'county': 419001}],County,[],modern,POINT (112.24817757435811 35.17075479973811),['河南省'],['省直辖县级行政单位'],['济源市'],[],[],[],[],[],[],[],66.04869360111029,0.9869126748839832,112.24817757435812,35.17075479973811,0.0,
81,81,33.0,怀,河南省济源市西北,['河南省济源市西北'],西北,"[['河南', '济源']]",[{'county': 419001}],County,[],modern,POINT (112.24817757435811 35.17075479973811),['河南省'],['省直辖县级行政单位'],['济源市'],[],[],[],[],[],[],[],66.04869360111029,0.9869126748839832,112.24817757435812,35.17075479973811,0.0,
82,82,33.0,先轸,河南省济源市西北,['河南省济源市西北'],西北,"[['河南', '济源']]",[{'county': 419001}],County,[],modern,POINT (112.24817757435811 35.17075479973811),['河南省'],['省直辖县级行政单位'],['济源市'],[],[],[],[],[],[],[],66.04869360111029,0.9869126748839832,112.24817757435812,35.17075479973811,0.0,
83,83,33.0,赵同,河南省济源市西北,['河南省济源市西北'],西北,"[['河南', '济源']]",[{'county': 419001}],County,[],modern,POINT (112.24817757435811 35.17075479973811),['河南省'],['省直辖县级行政单位'],['济源市'],[],[],[],[],[],[],[],66.04869360111029,0.9869126748839832,112.24817757435812,35.17075479973811,0.0,
84,84,33.0,乐大心,河南省济源市西北,['河南省济源市西北'],西北,"[['河南', '济源']]",[{'county': 419001}],County,[],modern,POINT (112.24817757435811 35.17075479973811),['河南省'],['省直辖县级行政单位'],['济源市'],[],[],[],[],[],[],[],66.04869360111029,0.9869126748839832,112.24817757435812,35.17075479973811,0.0,
85,85,34.0,温,河南省温县西南,['河南省温县西南'],西南,"[['温县', '河南']]",[{'LEV1': 'hvd_562'}],['县'],[],historic,POINT (113.07546 34.93812),['河南省'],['焦作市'],['温县'],['温县'],['怀庆府'],['河南'],[],[],[1820],[1820],3.809706139204343,0.9992451196212696,113.07546,34.93812,0.8334300180279839,﻿温
86,86,35.0,阳樊,河南省济源市西南,['河南省济源市西南'],西南,"[['河南', '济源']]",[{'county': 419001}],County,[],modern,POINT (112.25943466823742 35.03525757751568),['河南省'],['省直辖县级行政单位'],['济源市'],[],[],[],[],[],[],[],66.04869360111029,0.9869126748839832,112.25943466823742,35.03525757751568,0.9999999999999952,﻿阳樊
87,87,36.0,欑茅,河南省修武县北,['河南省修武县北'],北,"[['河南', '修武']]",[{'county': 410821}],County,[],modern,POINT (113.3287401283438 35.42285373701984),['河南省'],['焦作市'],['修武县'],[],[],[],[],[],[],[],41.84330131676752,0.9917088914495836,113.3287401283438,35.42285373701984,0.9999999999999905,﻿欑茅
88,88,36.0,絺,河南省沁阳市西南,['河南省沁阳市西南'],西南,"[['河南', '沁阳']]",[{'county': 410882}],County,[],modern,POINT (112.81479212927705 35.08154068835),['河南省'],['焦作市'],['沁阳市'],[],[],[],[],[],[],[],36.01866515826829,0.99286302339274,112.81479212927704,35.08154068835,0.9999999999999865,絺
89,89,36.0,陉,河南省沁阳市西北,['河南省沁阳市西北'],西北,"[['河南', '沁阳']]",[{'county': 410882}],County,[],modern,POINT (112.82138557806744 35.190658622595265),['河南省'],['焦作市'],['沁阳市'],[],[],[],[],[],[],[],36.01866515826829,0.99286302339274,112.82138557806744,35.190658622595265,0.9999999999999922,陉
90,90,37.0,阳樊,河南省滑县东,['河南省滑县东'],东,"[['滑县', '河南']]",[{'LEV1': 'hvd_541'}],['县'],[],historic,POINT (114.54346 35.56445),['河南省'],['安阳市'],['滑县'],['滑县'],['卫辉府'],['河南'],[],[],[1820],[1820],3.513315268789179,0.9993038484692006,114.54346,35.56445,0.0,
91,91,37.0,温,河南省滑县东,['河南省滑县东'],东,"[['滑县', '河南']]",[{'LEV1': 'hvd_541'}],['县'],[],historic,POINT (114.54346 35.56445),['河南省'],['安阳市'],['滑县'],['滑县'],['卫辉府'],['河南'],[],[],[1820],[1820],3.513315268789179,0.9993038484692006,114.54346,35.56445,0.0,
92,92,37.0,原,河南省滑县东,['河南省滑县东'],东,"[['滑县', '河南']]",[{'LEV1': 'hvd_541'}],['县'],[],historic,POINT (114.54346 35.56445),['河南省'],['安阳市'],['滑县'],['滑县'],['卫辉府'],['河南'],[],[],[1820],[1820],3.513315268789179,0.9993038484692006,114.54346,35.56445,0.0,
93,93,37.0,州,河南省滑县东,['河南省滑县东'],东,"[['滑县', '河南']]",[{'LEV1': 'hvd_541'}],['县'],[],historic,POINT (114.54346 35.56445),['河南省'],['安阳市'],['滑县'],['滑县'],['卫辉府'],['河南'],[],[],[1820],[1820],3.513315268789179,0.9993038484692006,114.54346,35.56445,0.0,
94,94,37.0,陉,河南省滑县东,['河南省滑县东'],东,"[['滑县', '河南']]",[{'LEV1': 'hvd_541'}],['县'],[],historic,POINT (114.54346 35.56445),['河南省'],['安阳市'],['滑县'],['滑县'],['卫辉府'],['河南'],[],[],[1820],[1820],3.513315268789179,0.9993038484692006,114.54346,35.56445,0.0,
95,95,37.0,鉏,河南省滑县东,['河南省滑县东'],东,"[['滑县', '河南']]",[{'LEV1': 'hvd_541'}],['县'],[],historic,POINT (114.54346 35.56445),['河南省'],['安阳市'],['滑县'],['滑县'],['卫辉府'],['河南'],[],[],[1820],[1820],3.513315268789179,0.9993038484692006,114.54346,35.56445,0.6525280027586384,鉏
96,96,39.0,瑕,河南省灵宝市西北,['河南省灵宝市西北'],西北,"[['河南', '灵宝']]",[{'county': 411282}],County,[],modern,POINT (110.56905901632433 34.55543679804472),['河南省'],['三门峡市'],['灵宝市'],[],[],[],[],[],[],[],78.79853179084436,0.9843863375945072,110.56905901632432,34.55543679804472,0.9999999999999991,﻿瑕
97,97,40.0,阴地,今河南省卢氏县东北之阴地城,['今河南省卢氏县东北之阴地城'],,"[['河南', '卢氏']]",[{'county': 411224}],County,[],modern,POINT (111.00043935782008 33.97959176567885),['河南省'],['三门峡市'],['卢氏县'],[],[],[],[],[],[],[],91.74699458570984,0.981820643511707,111.00043935782008,33.97959176567885,0.9999999999999956,﻿阴地
98,98,41.0,瓜衍之县,今山西省孝义市北,['今山西省孝义市北'],北,"[['山西', '孝义']]",[{'county': 141181}],County,[],modern,POINT (111.47332812158838 37.21365600896934),['山西省'],['吕梁市'],['孝义市'],[],[],[],[],[],[],[],50.855951323254935,0.9899230653512792,111.47332812158838,37.21365600896934,0.0,
99,99,42.0,邢丘,河南省温县东北,['河南省温县东北'],东北,"[['温县', '河南']]",[{'LEV1': 'hvd_562'}],['县'],[],historic,POINT (113.07546 34.93812),['河南省'],['焦作市'],['温县'],['温县'],['怀庆府'],['河南'],[],[],[1820],[1820],3.809706139204343,0.9992451196212696,113.07546,34.93812,0.8594006173772877,﻿邢丘
100,100,42.0,邢侯,晋邢侯邑,['晋邢侯邑'],,[['晋']],[{'county': 130183}],County,[],modern,POINT (115.08725515145593 37.99490758059366),['河北省'],['石家庄市'],['晋州市'],[],[],[],[],[],[],[],41.98202073094848,0.991681404667116,115.08725515145592,37.99490758059366,0.0,
101,101,43.0,长子,山西省长子县,['山西省长子县'],,"[['山西', '长子']]",[{'county': 140428}],County,[],modern,POINT (112.74601270384923 36.096420533715026),['山西省'],['长治市'],['长子县'],[],[],[],[],[],[],[],47.71652396683715,0.9905451322575484,112.74601270384925,36.09642053371503,0.9999999999999997,﻿长子
102,102,43.0,纯留,山西省屯留县东南,['山西省屯留县东南'],东南,"[['山西', '屯留']]",[{'county': 140405}],County,[],modern,POINT (112.88287121093828 36.268995887901944),['山西省'],['长治市'],['屯留区'],[],[],[],[],[],[],[],52.61571028247738,0.9895743750688604,112.88287121093828,36.26899588790194,0.9999999999999991,纯留
103,103,44.0,绛,山西省翼城县东南,['山西省翼城县东南'],东南,"[['山西', '翼城']]",[{'county': 141022}],County,[],modern,POINT (111.90603287202585 35.548721585602976),['山西省'],['临汾市'],['翼城县'],[],[],[],[],[],[],[],59.46143143277637,0.9882179185901202,111.90603287202585,35.548721585602976,0.8993660285390623,﻿绛
104,104,44.0,绛,山西省侯马市西,['山西省侯马市西'],西,"[['山西', '侯马']]",[{'county': 141081}],County,[],modern,POINT (111.32846183259753 35.59036828305365),['山西省'],['临汾市'],['侯马市'],[],[],[],[],[],[],[],18.11651056283706,0.9964102747416096,111.32846183259753,35.59036828305365,0.123836255626666,﻿绛
105,105,45.0,任县,河北省任县东南,['河北省任县东南'],东南,"[['河北', '任']]",[{'county': 130505}],County,[],modern,POINT (114.83840681780181 37.130563019371905),['河北省'],['邢台市'],['任泽区'],[],[],[],[],[],[],[],31.617705783454237,0.9937350585991958,114.8384068178018,37.13056301937191,0.9999999999999938,﻿任
106,106,46.0,中牟,河南省鹤壁市西,['河南省鹤壁市西'],西,"[['河南', '鹤壁']]",[{'prefecture': 4106}],Prefecture,[],modern,POINT (114.17099681983701 35.748493488758115),['河南省'],['鹤壁市'],['NA'],[],[],[],[],[],[],[],70.3806233928675,0.9860543176558012,114.170996819837,35.748493488758115,0.9999999999999984,﻿中牟
107,107,46.0,中牟,河南省中牟县东,['河南省中牟县东'],东,"[['河南', '中牟']]",[{'county': 410122}],County,[],modern,POINT (114.07987773020048 34.7153547336753),['河南省'],['郑州市'],['中牟县'],[],[],[],[],[],[],[],61.33837284433131,0.9878460090013388,114.07987773020048,34.7153547336753,0.0,﻿中牟
108,108,48.0,邬县,山西省介休市东北,['山西省介休市东北'],东北,"[['山西', '介休']]",[{'county': 140781}],County,[],modern,POINT (112.07433048751864 37.0744554990241),['山西省'],['晋中市'],['介休市'],[],[],[],[],[],[],[],40.88995184656126,0.9918977944207934,112.07433048751864,37.0744554990241,0.9999999999999982,﻿邬
109,109,48.0,祁县,山西省祁县东南,['山西省祁县东南'],东南,"[['祁县', '山西']]",[{'LEV2': 'hvd_121841'}],['县'],[],historic,POINT (112.3153 37.35382),['山西省'],['晋中市'],['祁县'],[],['祁县'],['太原府'],['山西'],[],[1911.0],[1911.0],3.845594371524424,0.999238008489488,112.3153,37.35382,0.32182938761939706,祁
110,110,48.0,平陵县,山西省文水县东北,['山西省文水县东北'],东北,"[['山西', '文水']]",[{'county': 141121}],County,[],modern,POINT (112.02085390132206 37.501287527895926),['山西省'],['吕梁市'],['文水县'],[],[],[],[],[],[],[],70.54339100875903,0.986022065803548,112.02085390132206,37.501287527895926,1.0,平陵
111,111,48.0,梗阳县,山西省清徐县,['山西省清徐县'],,"[['山西', '清徐']]",[{'county': 140121}],County,[],modern,POINT (112.28442053702733 37.61975373872302),['山西省'],['太原市'],['清徐县'],[],[],[],[],[],[],[],40.44159733399773,0.991986634350143,112.28442053702732,37.61975373872302,0.9999999999999838,梗阳
112,112,48.0,涂水县,山西省榆次市西南,['山西省榆次市西南'],西南,"[['山西', '榆次']]",[{'county': 140702}],County,[],modern,POINT (112.71080729830437 37.580962019394775),['山西省'],['晋中市'],['榆次区'],[],[],[],[],[],[],[],59.01837749784267,0.9883057082279504,112.71080729830436,37.580962019394775,1.0,涂水
113,113,48.0,马首县,山西省寿阳县东南,['山西省寿阳县东南'],东南,"[['山西', '寿阳']]",[{'county': 140725}],County,[],modern,POINT (113.23339424621481 37.67317466233141),['山西省'],['晋中市'],['寿阳县'],[],[],[],[],[],[],[],65.28824085142477,0.98706335602282,113.2333942462148,37.67317466233141,0.9999999999999903,马首
114,114,48.0,盂县,山西省阳曲县东北,['山西省阳曲县东北'],东北,"[['山西', '阳曲']]",[{'county': 140122}],County,[],modern,POINT (112.93120833021128 38.279632932372),['山西省'],['太原市'],['阳曲县'],[],[],[],[],[],[],[],87.44477664945516,0.9826731134362716,112.93120833021128,38.279632932372,0.9999999999999978,盂
115,115,49.0,铜鞮,山西省沁县南,['山西省沁县南'],南,"[['山西', '沁']]",[{'county': 140430}],County,[],modern,POINT (112.61813237788624 36.57589974482548),['山西省'],['长治市'],['沁县'],[],[],[],[],[],[],[],61.43167987551398,0.9878275205288782,112.61813237788624,36.57589974482548,0.9999999999999972,﻿铜鞮
116,116,49.0,平阳,山西省临汾市西南,['山西省临汾市西南'],西南,"[['山西', '临汾']]",[{'prefecture': 1410}],Prefecture,[],modern,POINT (110.95969003614391 35.8697002512513),['山西省'],['临汾市'],['NA'],[],[],[],[],[],[],[],219.4164835937833,0.9565233663220136,110.95969003614393,35.8697002512513,0.9999999999999994,平阳
117,117,49.0,杨县,山西省洪洞县东南,['山西省洪洞县东南'],东南,"[['山西', '洪洞']]",[{'county': 141024}],County,[],modern,POINT (111.76672382011358 36.20860499514204),['山西省'],['临汾市'],['洪洞县'],[],[],[],[],[],[],[],60.14682681854456,0.9880821098139356,111.76672382011358,36.20860499514204,0.9999999999999976,杨
118,118,50.0,邯郸,河北省邯郸市,['河北省邯郸市'],,"[['河北', '邯郸']]",[{'prefecture': 1304}],Prefecture,[],modern,POINT (114.44668734096498 36.541271873895774),['河北省'],['邯郸市'],['NA'],[],[],[],[],[],[],[],190.72694082937585,0.9622081021300412,114.44668734096498,36.541271873895774,0.9999999999999991,邯郸
119,119,51.0,原,河南省济源市西北,['河南省济源市西北'],西北,"[['河南', '济源']]",[{'county': 419001}],County,[],modern,POINT (112.24817757435811 35.17075479973811),['河南省'],['省直辖县级行政单位'],['济源市'],[],[],[],[],[],[],[],66.04869360111029,0.9869126748839832,112.24817757435812,35.17075479973811,0.9999999999999969,﻿原
120,120,51.0,冀,山西省河津县东北,['山西省河津县东北'],东北,"[['山西', '河津']]",[{'county': 140882}],County,[],modern,POINT (110.75914438497132 35.67038605850372),['山西省'],['运城市'],['河津市'],[],[],[],[],[],[],[],35.338191807329146,0.9929978568843804,110.75914438497132,35.67038605850372,0.0,
121,121,52.0,甘县,今河南省洛阳市南,['今河南省洛阳市南'],南,"[['河南', '洛阳']]",[{'prefecture': 4103}],Prefecture,[],modern,POINT (111.88502779612631 33.936568536157154),['河南省'],['洛阳市'],['NA'],[],[],[],[],[],[],[],184.09203691871096,0.9635227858861928,111.88502779612632,33.936568536157154,1.0,﻿甘
122,122,53.0,邽县,今甘肃省天水市,['今甘肃省天水市'],,"[['甘肃', '天水']]",[{'prefecture': 6205}],Prefecture,[],modern,POINT (105.5352232950286 34.619472378442836),['甘肃省'],['天水市'],['NA'],[],[],[],[],[],[],[],201.4318231166158,0.960086965932134,105.5352232950286,34.61947237844284,1.0,﻿上邽
123,123,53.0,冀县,今甘肃省甘谷县,['今甘肃省甘谷县'],,"[['甘肃', '甘谷']]",[{'county': 620523}],County,[],modern,POINT (105.29211680774137 34.798646697617116),['甘肃省'],['天水市'],['甘谷县'],[],[],[],[],[],[],[],61.324121826153046,0.9878488327923628,105.29211680774137,34.79864669761712,0.9999999999999996,冀
124,124,53.0,杜县,今陕西省西安市南,['今陕西省西安市南'],南,"[['陕西', '西安']]",[{'prefecture': 6101}],Prefecture,[],modern,POINT (108.37655211009269 33.90806790964804),['陕西省'],['西安市'],['NA'],[],[],[],[],[],[],[],202.7964889995957,0.9598165620057044,108.37655211009267,33.90806790964804,0.0,杜
125,125,53.0,郑县,今陕西省华县,['今陕西省华县'],,"[['陕西', '华']]",[{'county': 610503}],County,[],modern,POINT (109.79253308275264 34.415757407111215),['陕西省'],['渭南市'],['华州区'],[],[],[],[],[],[],[],51.39288001389804,0.9898166747482948,109.79253308275264,34.415757407111215,0.9999999999999976,郑
126,126,53.0,上邽,今甘肃省天水市,['今甘肃省天水市'],,"[['甘肃', '天水']]",[{'prefecture': 6205}],Prefecture,[],modern,POINT (105.5352232950286 34.619472378442836),['甘肃省'],['天水市'],['NA'],[],[],[],[],[],[],[],201.4318231166158,0.960086965932134,105.5352232950286,34.61947237844284,1.0,﻿上邽
127,127,53.0,下邽,今陕西省渭南市北,['今陕西省渭南市北'],北,"[['陕西', '渭南']]",[{'prefecture': 6105}],Prefecture,[],modern,POINT (110.00115251300494 35.400639776140196),['陕西省'],['渭南市'],['NA'],[],[],[],[],[],[],[],197.4939403291829,0.9608672440799372,110.00115251300494,35.4006397761402,0.9999999999999999,下邽
128,128,53.0,虢县,今陕西省宝鸡县西,['今陕西省宝鸡县西'],西,"[['陕西', '宝鸡']]",[{'prefecture': 6103}],Prefecture,[],modern,POINT (106.94613373891386 34.33615837434442),['陕西省'],['宝鸡市'],['NA'],[],[],[],[],[],[],[],192.54875534926427,0.961847115748284,106.94613373891386,34.33615837434442,0.711146720838435,虢
132,132,54.0,千家之县,晏子之县,['晏子之县'],,[['晏子']],[{'LEV1': 'hvd_146552'}],['村镇'],[],historic,POINT (114.09991 39.68185),[],[],[],['晏子'],['广灵县'],['大同府'],['山西'],[],[1911],[1911],3.336520652345478,0.9993388797241431,114.09991,39.68185,0.0,
133,133,54.0,棠县,山东省平度市东南,['山东省平度市东南'],东南,"[['山东', '平度']]",[{'county': 370283}],County,[],modern,POINT (120.10953551148197 36.666384138213765),['山东省'],['青岛市'],['平度市'],[],[],[],[],[],[],[],75.75054554160563,0.9849902857548424,120.10953551148197,36.666384138213765,0.9999999999999996,棠
134,134,55.0,朱方,江苏省镇江市东南,['江苏省镇江市东南'],东南,"[['江苏', '镇江']]",[{'prefecture': 3211}],Prefecture,[],modern,POINT (119.62245573671458 31.889315970181663),['江苏省'],['镇江市'],['NA'],[],[],[],[],[],[],[],96.770665316033,0.980825220157528,119.62245573671458,31.889315970181663,0.9999999999999969,﻿朱方
135,135,55.0,卑梁,安徽省天长市西北,['安徽省天长市西北'],西北,"[['安徽', '天长']]",[{'county': 341181}],County,[],modern,POINT (118.8655749544128 32.823934315023585),['安徽省'],['滁州市'],['天长市'],[],[],[],[],[],[],[],60.458019706443736,0.9880204479963328,118.8655749544128,32.823934315023585,0.9999999999999876,卑梁
137,137,57.0,栎,阳翟,['阳翟'],,[['阳翟']],[{'LEV1': 'hvd_82453'}],['县'],[],historic,POINT (113.46706 34.16249),[],[],[],['阳翟县'],['颍川郡'],['秦'],[],[],[-230],[13],3.86855046051956,0.9992334598181412,113.46706,34.16249,0.894374488059474,栎
138,138,58.0,临淄,山东省淄博市临淄北,['山东省淄博市临淄北'],北,"[['山东', '淄博', '临淄']]",[{'county': 370305}],County,[],modern,POINT (118.33493738075714 36.92475525528664),['山东省'],['淄博市'],['临淄区'],[],[],[],[],[],[],[],43.10172805111866,0.9914595384509216,118.33493738075714,36.92475525528664,0.9999999999999958,﻿临淄
139,139,59.0,高唐,山东省高唐县东,['山东省高唐县东'],东,"[['山东', '高唐']]",[{'county': 371526}],County,[],modern,POINT (116.33732372305903 36.84298649357507),['山东省'],['聊城市'],['高唐县'],[],[],[],[],[],[],[],45.36134352403315,0.991011803291922,116.33732372305904,36.84298649357507,0.9999999999999947,﻿高唐
140,140,60.0,酅,山东省淄博市东北,['山东省淄博市东北'],东北,"[['山东', '淄博']]",[{'prefecture': 3703}],Prefecture,[],modern,POINT (118.2691054737019 36.85991483250163),['山东省'],['淄博市'],['NA'],[],[],[],[],[],[],[],163.09093262217812,0.9676840836309144,118.2691054737019,36.85991483250163,0.0,
141,141,60.0,安平,山东省淄博市东北,['山东省淄博市东北'],东北,"[['山东', '淄博']]",[{'prefecture': 3703}],Prefecture,[],modern,POINT (118.2691054737019 36.85991483250163),['山东省'],['淄博市'],['NA'],[],[],[],[],[],[],[],163.09093262217812,0.9676840836309144,118.2691054737019,36.85991483250163,0.9999999999999996,﻿安平
142,142,61.0,阿,山东省甄城县北,['山东省甄城县北'],北,[['山东']],[{'LEV3': 'hvd_25010'}],['省'],[],historic,POINT (117.00149 36.65013),['山西省'],['阳泉市'],['城区'],[],[],['山东'],[],[],[1820.0],[1820.0],0.153932628922648,0.9999694987705156,117.00149,36.65013,0.0,
143,143,61.0,甄,山东省甄城县北,['山东省甄城县北'],北,[['山东']],[{'LEV3': 'hvd_25010'}],['省'],[],historic,POINT (117.00149 36.65013),['山西省'],['阳泉市'],['城区'],[],[],['山东'],[],[],[1820.0],[1820.0],0.153932628922648,0.9999694987705156,117.00149,36.65013,0.9662250148726512,甄
144,144,62.0,即墨,山东省平度市东南,['山东省平度市东南'],东南,"[['山东', '平度']]",[{'county': 370283}],County,[],modern,POINT (120.10953551148197 36.666384138213765),['山东省'],['青岛市'],['平度市'],[],[],[],[],[],[],[],75.75054554160563,0.9849902857548424,120.10953551148197,36.666384138213765,0.9999999999999996,﻿即墨
145,145,62.0,阿,山东省阳谷县东北阿城镇,['山东省阳谷县东北阿城镇'],,"[['阿城镇', '阳谷', '山东']]",[{'LEV1': 'hvd_143132'}],['村镇'],[],historic,POINT (116.0479 36.16158),['山东省'],['聊城市'],['阳谷县'],['阿城镇'],['阳谷县'],['兖州府'],['山东'],[],[1911],[1911],0.0014285957732565,0.999999716928582,116.0479,36.16158,0.8314695787186317,阿
146,146,63.0,南武城,山东省平邑县东南故县,['山东省平邑县东南故县'],,"[['山东', '平邑']]",[{'county': 371326}],County,[],modern,POINT (117.69571212322336 35.43307694006579),['山东省'],['临沂市'],['平邑县'],[],[],[],[],[],[],[],65.66592939484343,0.9869885183161098,117.69571212322336,35.43307694006579,0.9999999999999974,南武城
147,147,64.0,薛,山东省滕州市南,['山东省滕州市南'],南,"[['山东', '滕州']]",[{'county': 370481}],County,[],modern,POINT (117.18857537588664 34.957232410003584),['山东省'],['枣庄市'],['滕州市'],[],[],[],[],[],[],[],56.84437582080557,0.98873647930303,117.18857537588664,34.957232410003584,0.9999999999999962,﻿薛
148,148,66.0,蒙,河南省商丘市东北,['河南省商丘市东北'],东北,"[['河南', '商丘']]",[{'prefecture': 4114}],Prefecture,[],modern,POINT (115.94129939141018 34.46248224368045),['河南省'],['商丘市'],['NA'],[],[],[],[],[],[],[],188.620049398258,0.9626255755370056,115.94129939141018,34.46248224368045,1.0,﻿蒙
149,149,67.0,昌城,山东省淄博市东南昌城,['山东省淄博市东南昌城'],,"[['山东', '淄博']]",[{'prefecture': 3703}],Prefecture,[],modern,POINT (117.97021332650442 36.600497675699785),['山东省'],['淄博市'],['NA'],[],[],[],[],[],[],[],163.09093262217812,0.9676840836309144,117.97021332650442,36.600497675699785,0.9999999999999994,﻿昌城
150,150,68.0,聊城,山东省聊城市西北,['山东省聊城市西北'],西北,"[['山东', '聊城']]",[{'prefecture': 3715}],Prefecture,[],modern,POINT (115.67934270139241 36.72552756576119),['山东省'],['聊城市'],['NA'],[],[],[],[],[],[],[],163.68846004765427,0.9675656855937,115.6793427013924,36.72552756576119,1.0,聊城
151,151,70.0,夜邑,山东省莱州市,['山东省莱州市'],,"[['山东', '莱州']]",[{'county': 370683}],County,[],modern,POINT (120.09115158114481 37.237674681837504),['山东省'],['烟台市'],['莱州市'],[],[],[],[],[],[],[],70.68717372338587,0.9859935757452324,120.0911515811448,37.237674681837504,0.9999999999999987,﻿夜；夜邑；掖
152,152,71.0,齐县,山东省沂源县东南,['山东省沂源县东南'],东南,"[['山东', '沂源']]",[{'county': 370323}],County,[],modern,POINT (118.34226760773868 36.068079813885504),['山东省'],['淄博市'],['沂源县'],[],[],[],[],[],[],[],57.289507437673706,0.9886482779795556,118.34226760773868,36.068079813885504,0.0,
153,153,72.0,平陆都,山东省汶上县北,['山东省汶上县北'],北,"[['山东', '汶上']]",[{'county': 370830}],County,[],modern,POINT (116.59036192116336 35.83594935953927),['山东省'],['济宁市'],['汶上县'],[],[],[],[],[],[],[],52.95605999459628,0.9895069359252108,116.59036192116336,35.83594935953927,0.0,
154,154,73.0,平陵县,山东省济南市历城区,['山东省济南市历城区'],,"[['山东', '济南', '历城']]",[{'county': 370112}],County,[],modern,POINT (117.26419499342173 36.60683837397319),['山东省'],['济南市'],['历城区'],[],[],[],[],[],[],[],64.03915346442977,0.9873108584614094,117.26419499342173,36.60683837397319,0.9999999999999997,﻿平陵
155,155,75.0,安阳,山东阳谷东北,['山东阳谷东北'],东北,"[['山东', '阳谷']]",[{'county': 371521}],County,[],modern,POINT (115.97405502340088 36.23617323228588),['山东省'],['聊城市'],['阳谷县'],[],[],[],[],[],[],[],51.79464602940652,0.9897370661719724,115.97405502340088,36.23617323228588,0.9999999999999959,﻿安阳
156,156,76.0,易（阳）都,山东省沂水县,['山东省沂水县'],,"[['山东', '沂水']]",[{'county': 371323}],County,[],modern,POINT (118.4998252027747 35.896948852100344),['山东省'],['临沂市'],['沂水县'],[],[],[],[],[],[],[],81.5609999286575,0.9838389638817046,118.4998252027747,35.896948852100344,0.0,
157,157,76.0,高密,齐国兵器（铜戈）铭文,['齐国兵器（铜戈）铭文'],,[['齐国']],[{'LEV2': 'hvd_112333'}],['国'],[],historic,POINT (118.28753 36.8096),['甘肃省'],['陇南市'],['文县'],[],['齐国'],['西汉'],[],[],[-164.0],[-128.0],0.0011097407736033,0.9999997801086212,118.28753,36.8096,0.0,
158,158,76.0,平阿,齐国兵器（铜戈）铭文,['齐国兵器（铜戈）铭文'],,[['齐国']],[{'LEV2': 'hvd_112333'}],['国'],[],historic,POINT (118.28753 36.8096),['甘肃省'],['陇南市'],['文县'],[],['齐国'],['西汉'],[],[],[-164.0],[-128.0],0.0011097407736033,0.9999997801086212,118.28753,36.8096,0.0,
159,159,76.0,平陆,齐国兵器（铜戈）铭文,['齐国兵器（铜戈）铭文'],,[['齐国']],[{'LEV2': 'hvd_112333'}],['国'],[],historic,POINT (118.28753 36.8096),['甘肃省'],['陇南市'],['文县'],[],['齐国'],['西汉'],[],[],[-164.0],[-128.0],0.0011097407736033,0.9999997801086212,118.28753,36.8096,0.0,
160,160,77.0,平阳,山西省临汾市西南,['山西省临汾市西南'],西南,"[['山西', '临汾']]",[{'prefecture': 1410}],Prefecture,[],modern,POINT (110.95969003614391 35.8697002512513),['山西省'],['临汾市'],['NA'],[],[],[],[],[],[],[],219.4164835937833,0.9565233663220136,110.95969003614393,35.8697002512513,0.9999999999999994,﻿平阳
161,161,77.0,宜阳,韩大都,['韩大都'],,[['大都']],[{'LEV1': 'hvd_44266'}],['县'],[],historic,POINT (109.78043 21.98027),[],[],[],['大都县'],['廉州'],['唐'],[],[],[622],[637],5.500265098482539,0.998910141084654,109.78043,21.98027,0.0,
163,163,78.0,杨氏县,山西省洪洞县东南,['山西省洪洞县东南'],东南,"[['山西', '洪洞']]",[{'county': 141024}],County,[],modern,POINT (111.76672382011358 36.20860499514204),['山西省'],['临汾市'],['洪洞县'],[],[],[],[],[],[],[],60.14682681854456,0.9880821098139356,111.76672382011358,36.20860499514204,0.9999999999999976,﻿杨氏
164,164,78.0,长子县,山西省长子县西南,['山西省长子县西南'],西南,"[['山西', '长子']]",[{'county': 140428}],County,[],modern,POINT (112.73650880783453 36.037037708848246),['山西省'],['长治市'],['长子县'],[],[],[],[],[],[],[],47.71652396683715,0.9905451322575484,112.73650880783453,36.037037708848246,0.0,
165,165,79.0,铜鞮,山西省沁县南,['山西省沁县南'],南,"[['山西', '沁']]",[{'county': 140430}],County,[],modern,POINT (112.61813237788624 36.57589974482548),['山西省'],['长治市'],['沁县'],[],[],[],[],[],[],[],61.43167987551398,0.9878275205288782,112.61813237788624,36.57589974482548,0.9999999999999972,﻿铜鞮
166,166,80.0,屯留,山西省屯留县南,['山西省屯留县南'],南,"[['山西', '屯留']]",[{'county': 140405}],County,[],modern,POINT (112.76587678224547 36.27309000567509),['山西省'],['长治市'],['屯留区'],[],[],[],[],[],[],[],52.61571028247738,0.9895743750688604,112.76587678224548,36.27309000567509,0.9999999999999976,﻿屯留
167,167,80.0,晋,山西省,['山西省'],,[['山西']],[{'province': 14}],Province,[],modern,POINT (112.47245736275306 37.66516721635999),['山西省'],['NA'],['NA'],[],[],[],[],[],[],[],758.2426072106181,0.8497567934149899,112.47245736275306,37.66516721635999,0.0,
168,168,80.0,晋君,屯留县,['屯留县'],,[['屯留']],[{'county': 140405}],County,[],modern,POINT (112.74240510841435 36.372005508422305),['山西省'],['长治市'],['屯留区'],[],[],[],[],[],[],[],52.61571028247738,0.9895743750688604,112.74240510841436,36.37200550842231,0.0,
169,169,80.0,晋桓公,屯留,['屯留'],,[['屯留']],[{'county': 140405}],County,[],modern,POINT (112.74240510841435 36.372005508422305),['山西省'],['长治市'],['屯留区'],[],[],[],[],[],[],[],52.61571028247738,0.9895743750688604,112.74240510841436,36.37200550842231,0.0,
170,170,80.0,端氏,山西省,['山西省'],,[['山西']],[{'province': 14}],Province,[],modern,POINT (112.47245736275306 37.66516721635999),['山西省'],['NA'],['NA'],[],[],[],[],[],[],[],758.2426072106181,0.8497567934149899,112.47245736275306,37.66516721635999,0.0,
172,172,80.0,长子,屯留,['屯留'],,[['屯留']],[{'county': 140405}],County,[],modern,POINT (112.74240510841435 36.372005508422305),['山西省'],['长治市'],['屯留区'],[],[],[],[],[],[],[],52.61571028247738,0.9895743750688604,112.74240510841436,36.37200550842231,0.0,
174,174,80.0,上党郡,赵,['赵'],,[['赵']],[{'county': 130133}],County,[],modern,POINT (114.84986570556961 37.7772686779257),['河北省'],['石家庄市'],['赵县'],[],[],[],[],[],[],[],40.59704450289596,0.9919558330196878,114.8498657055696,37.7772686779257,0.0,
175,175,80.0,上党郡,秦,['秦'],,[['秦']],[{'LEV3': 'hvd_113649'}],['政权'],[],historic,POINT (108.85463 34.41219),[],[],[],[],['秦'],[],[],[],[-221.0],[-207.0],1.109483319813683,0.9997801596348764,108.85463,34.41219,0.0,
176,176,81.0,京,河南省荥阳市东南,['河南省荥阳市东南'],东南,"[['河南', '荥阳']]",[{'county': 410182}],County,[],modern,POINT (113.42713048062978 34.695882459958945),['河南省'],['郑州市'],['荥阳市'],[],[],[],[],[],[],[],45.427602023806365,0.990998674394423,113.42713048062978,34.695882459958945,0.9999999999999962,﻿京
177,177,83.0,邢丘,河南省温县东平皋故城,['河南省温县东平皋故城'],,"[['平皋', '温县', '河南']]",[{'LEV1': 'hvd_149112'}],['村镇'],[],historic,POINT (113.18154 34.95222),['河南省'],['焦作市'],['温县'],['平皋'],['温县'],['怀庆府'],['河南'],[],[1911],[1911],0.1010287956075148,0.9999799814860506,113.18154,34.95222,0.7175786692441328,﻿邢丘
178,178,83.0,郑城,韩国,['韩国'],,[['韩国']],[{'LEV2': 'hvd_112597'}],['国'],[],historic,POINT (113.46706 34.16249),[],[],[],[],['韩国'],['西汉'],[],[],[-202.0],[-202.0],3.86855046051956,0.9992334598181412,113.46706,34.16249,0.0,
179,179,83.0,陵观,韩国,['韩国'],,[['韩国']],[{'LEV2': 'hvd_112597'}],['国'],[],historic,POINT (113.46706 34.16249),[],[],[],[],['韩国'],['西汉'],[],[],[-202.0],[-202.0],3.86855046051956,0.9992334598181412,113.46706,34.16249,0.0,
180,180,83.0,廪丘,韩国,['韩国'],,[['韩国']],[{'LEV2': 'hvd_112597'}],['国'],[],historic,POINT (113.46706 34.16249),[],[],[],[],['韩国'],['西汉'],[],[],[-202.0],[-202.0],3.86855046051956,0.9992334598181412,113.46706,34.16249,0.0,
181,181,83.0,邢丘,韩国,['韩国'],,[['韩国']],[{'LEV2': 'hvd_112597'}],['国'],[],historic,POINT (113.46706 34.16249),[],[],[],[],['韩国'],['西汉'],[],[],[-202.0],[-202.0],3.86855046051956,0.9992334598181412,113.46706,34.16249,0.0,﻿邢丘
182,182,83.0,邢丘,魏,['魏'],,[['魏']],[{'county': 130434}],County,[],modern,POINT (114.93101940641381 36.2500108803376),['河北省'],['邯郸市'],['魏县'],[],[],[],[],[],[],[],44.368725312304846,0.9912084872313716,114.9310194064138,36.2500108803376,0.0,﻿邢丘
183,183,84.0,卢氏令戈,河南省卢氏县,['河南省卢氏县'],,"[['河南', '卢氏']]",[{'county': 411224}],County,[],modern,POINT (111.00043935782008 33.97959176567885),['河南省'],['三门峡市'],['卢氏县'],[],[],[],[],[],[],[],91.74699458570984,0.981820643511707,111.00043935782008,33.97959176567885,0.0,
184,184,84.0,卢氏城,河南省卢氏县,['河南省卢氏县'],,"[['河南', '卢氏']]",[{'county': 411224}],County,[],modern,POINT (111.00043935782008 33.97959176567885),['河南省'],['三门峡市'],['卢氏县'],[],[],[],[],[],[],[],91.74699458570984,0.981820643511707,111.00043935782008,33.97959176567885,0.0,
185,185,85.0,新城,河南省伊川县西南,['河南省伊川县西南'],西南,"[['河南', '伊川']]",[{'county': 410329}],County,[],modern,POINT (112.29911588403783 34.31849099148184),['河南省'],['洛阳市'],['伊川县'],[],[],[],[],[],[],[],53.19816679493248,0.9894589632820584,112.29911588403785,34.31849099148184,0.9999999999999981,﻿新城
186,186,86.0,路,山西省潞城县东北,['山西省潞城县东北'],东北,"[['山西', '潞城']]",[{'county': 140406}],County,[],modern,POINT (113.31552966168692 36.42392405047477),['山西省'],['长治市'],['潞城区'],[],[],[],[],[],[],[],42.44207845751627,0.9915902457855174,113.31552966168692,36.42392405047477,0.9999999999999838,﻿路
187,187,86.0,涉,河北省涉县西北,['河北省涉县西北'],西北,"[['河北', '涉']]",[{'county': 130426}],County,[],modern,POINT (113.63040281653161 36.68555202916863),['河北省'],['邯郸市'],['涉县'],[],[],[],[],[],[],[],62.63587666225939,0.9875889130108102,113.6304028165316,36.68555202916863,0.9999999999999987,涉
188,188,86.0,端氏,山西省沁水县东,['山西省沁水县东'],东,"[['山西', '沁水']]",[{'county': 140521}],County,[],modern,POINT (112.53505901783956 35.79707011165995),['山西省'],['晋城市'],['沁水县'],[],[],[],[],[],[],[],95.54393548189064,0.9810682925226816,112.53505901783956,35.79707011165995,0.9999999999999993,端氏
189,189,87.0,修鱼县,今河南原武县东,['今河南原武县东'],东,"[['原武', '河南']]",[{'LEV1': 'hvd_558'}],['县'],[],historic,POINT (113.78942 34.99455),['河南省'],['NA'],['NA'],['原武县'],['怀庆府'],['河南'],[],[],[1820],[1820],4.93058165277314,0.9990230219315068,113.78942,34.99455,0.0,﻿修鱼
190,190,88.0,宜阳,河南省宜阳县西,['河南省宜阳县西'],西,"[['河南', '宜阳']]",[{'county': 410327}],County,[],modern,POINT (111.90287371157324 34.493351038567894),['河南省'],['洛阳市'],['宜阳县'],[],[],[],[],[],[],[],66.2907006317192,0.9868647220098646,111.90287371157324,34.493351038567894,0.9999999999999993,﻿宜阳
191,191,90.0,皋落,山西垣曲县东南,['山西垣曲县东南'],东南,"[['山西', '垣曲']]",[{'county': 140827}],County,[],modern,POINT (111.95547897846053 35.17075479973811),['山西省'],['运城市'],['垣曲县'],[],[],[],[],[],[],[],55.8526680635654,0.988932982839004,111.95547897846052,35.17075479973811,0.9999999999999969,﻿皋落
192,192,92.0,洱阳,汝阳（在今河南商水县附近）,['汝阳（在今河南商水县附近）'],,"[['河南', '汝阳'], ['河南', '商水']]","[{'county': 410326}, {'county': 411623}]",County,['Multiple Matches'],modern,POINT (113.4863876710892 33.79033899412565),['河南省'],"['洛阳市', '周口市']","['商水县', '汝阳县']",[],[],[],[],[],[],[],65.05481495279543,0.9871096085746768,113.4863876710892,33.79033899412565,0.0,汝阳；洱阳
193,193,93.0,野王,河南省沁阳市,['河南省沁阳市'],,"[['河南', '沁阳']]",[{'county': 410882}],County,[],modern,POINT (112.85669844553732 35.14110672107772),['河南省'],['焦作市'],['沁阳市'],[],[],[],[],[],[],[],36.01866515826829,0.99286302339274,112.85669844553732,35.14110672107772,0.9999999999999671,﻿野王
194,194,95.0,纶氏,河南登封县西南,['河南登封县西南'],西南,"[['河南', '登封']]",[{'county': 410185}],County,[],modern,POINT (112.891039664918 34.36013385793426),['河南省'],['郑州市'],['登封市'],[],[],[],[],[],[],[],55.44965752429871,0.9890128380134972,112.891039664918,34.36013385793426,0.9999999999999916,纶氏；仑氏
195,195,96.0,阳翟,河南省禹州市,['河南省禹州市'],,"[['河南', '禹州']]",[{'county': 411081}],County,[],modern,POINT (113.35143618723392 34.20804183504339),['河南省'],['许昌市'],['禹州市'],[],[],[],[],[],[],[],55.97553144079654,0.988908637876598,113.35143618723392,34.20804183504339,0.9999999999999987,阳翟
198,198,97.0,阳人县,河南汝州市西,['河南汝州市西'],西,"[['河南', '汝州']]",[{'county': 410482}],County,[],modern,POINT (112.70565219216941 34.1422310702784),['河南省'],['平顶山市'],['汝州市'],[],[],[],[],[],[],[],57.184412763632416,0.9886691021335572,112.7056521921694,34.1422310702784,0.9999999999999996,﻿阳人
199,199,99.0,格氏县,河南荣阳北,['河南荣阳北'],北,[['河南']],[{'LEV3': 'hvd_25004'}],['省'],[],historic,POINT (114.34333 34.78548),['四川省'],['自贡市'],['荣县'],[],[],['河南'],[],[],[1820.0],[1820.0],8.801196752808401,0.9982560726483152,114.34333,34.78548,0.0,﻿格氏
200,200,99.0,安阳县,安阳,['安阳'],,[['安阳']],[{'prefecture': 4105}],Prefecture,[],modern,POINT (113.91996657201076 35.78345203480426),['河南省'],['安阳市'],['NA'],[],[],[],[],[],[],[],151.16032408128245,0.970048093337898,113.91996657201076,35.78345203480426,0.0,
203,203,99.0,阳城县,阳城,['阳城'],,[['阳城']],[{'county': 140522}],County,[],modern,POINT (112.35775456026812 35.469189039888896),['山西省'],['晋城市'],['阳城县'],[],[],[],[],[],[],[],59.807328538756046,0.9881493802491504,112.35775456026812,35.469189039888896,0.0,
204,204,99.0,襄城县,襄城,['襄城'],,[['襄城']],[{'county': 411025}],County,[],modern,POINT (113.56201351843009 33.8560914989737),['河南省'],['许昌市'],['襄城县'],[],[],[],[],[],[],[],44.64150679413128,0.9911544365038908,113.56201351843008,33.8560914989737,0.0,
213,213,100.0,盂,山西省阳曲县东北,['山西省阳曲县东北'],东北,"[['山西', '阳曲']]",[{'county': 140122}],County,[],modern,POINT (112.93120833021128 38.279632932372),['山西省'],['太原市'],['阳曲县'],[],[],[],[],[],[],[],87.44477664945516,0.9826731134362716,112.93120833021128,38.279632932372,0.9999999999999978,﻿盂
214,214,100.0,平陵,山西省文水县东北,['山西省文水县东北'],东北,"[['山西', '文水']]",[{'county': 141121}],County,[],modern,POINT (112.02085390132206 37.501287527895926),['山西省'],['吕梁市'],['文水县'],[],[],[],[],[],[],[],70.54339100875903,0.986022065803548,112.02085390132206,37.501287527895926,1.0,平陵
215,215,101.0,梗阳,山西省清徐县,['山西省清徐县'],,"[['山西', '清徐']]",[{'county': 140121}],County,[],modern,POINT (112.28442053702733 37.61975373872302),['山西省'],['太原市'],['清徐县'],[],[],[],[],[],[],[],40.44159733399773,0.991986634350143,112.28442053702732,37.61975373872302,0.9999999999999838,﻿梗阳
216,216,102.0,邬,山西省介休市东北,['山西省介休市东北'],东北,"[['山西', '介休']]",[{'county': 140781}],County,[],modern,POINT (112.07433048751864 37.0744554990241),['山西省'],['晋中市'],['介休市'],[],[],[],[],[],[],[],40.88995184656126,0.9918977944207934,112.07433048751864,37.0744554990241,0.9999999999999982,﻿邬
217,217,103.0,涂水,山西省榆次市西南,['山西省榆次市西南'],西南,"[['山西', '榆次']]",[{'county': 140702}],County,[],modern,POINT (112.71080729830437 37.580962019394775),['山西省'],['晋中市'],['榆次区'],[],[],[],[],[],[],[],59.01837749784267,0.9883057082279504,112.71080729830436,37.580962019394775,1.0,﻿涂水
218,218,104.0,邯郸,河北省邯郸市,['河北省邯郸市'],,"[['河北', '邯郸']]",[{'prefecture': 1304}],Prefecture,[],modern,POINT (114.44668734096498 36.541271873895774),['河北省'],['邯郸市'],['NA'],[],[],[],[],[],[],[],190.72694082937585,0.9622081021300412,114.44668734096498,36.541271873895774,0.9999999999999991,﻿邯郸
219,219,105.0,祁县,山西省祁县东南,['山西省祁县东南'],东南,"[['祁县', '山西']]",[{'LEV2': 'hvd_121841'}],['县'],[],historic,POINT (112.3153 37.35382),['山西省'],['晋中市'],['祁县'],[],['祁县'],['太原府'],['山西'],[],[1911.0],[1911.0],3.845594371524424,0.999238008489488,112.3153,37.35382,0.32182938761939706,﻿祁
220,220,106.0,中牟,河南省鹤壁市西,['河南省鹤壁市西'],西,"[['河南', '鹤壁']]",[{'prefecture': 4106}],Prefecture,[],modern,POINT (114.17099681983701 35.748493488758115),['河南省'],['鹤壁市'],['NA'],[],[],[],[],[],[],[],70.3806233928675,0.9860543176558012,114.170996819837,35.748493488758115,0.9999999999999984,﻿中牟
221,221,107.0,晋阳,山西省太原市西南,['山西省太原市西南'],西南,"[['山西', '太原']]",[{'prefecture': 1401}],Prefecture,[],modern,POINT (112.23326042897403 37.68957885305545),['山西省'],['太原市'],['NA'],[],[],[],[],[],[],[],150.18954879848383,0.9702404491749008,112.23326042897403,37.68957885305545,0.9999999999999993,﻿晋阳
222,222,108.0,泫氏,山西省高平市,['山西省高平市'],,"[['山西', '高平']]",[{'county': 140581}],County,[],modern,POINT (112.90838004946175 35.82144933697499),['山西省'],['晋城市'],['高平市'],[],[],[],[],[],[],[],44.0610721036776,0.9912694476735056,112.90838004946175,35.82144933697499,0.9999999999999745,﻿泫氏
223,223,109.0,平邑,山西省大同县东,['山西省大同县东'],东,"[['山西', '大同']]",[{'prefecture': 1402}],Prefecture,[],modern,POINT (113.91355460955305 39.89883588503277),['山西省'],['大同市'],['NA'],[],[],[],[],[],[],[],191.8953336559239,0.9619765890455192,113.91355460955305,39.89883588503277,1.0,﻿平邑
224,224,111.0,番吾,河北省平山县东南,['河北省平山县东南'],东南,"[['河北', '平山']]",[{'county': 130131}],County,[],modern,POINT (114.03488238466727 38.315971981912384),['河北省'],['石家庄市'],['平山县'],[],[],[],[],[],[],[],74.58545792593993,0.9852211439230136,114.03488238466728,38.315971981912384,0.9999999999999991,﻿番吾
225,225,115.0,榆次,山西省榆次市,['山西省榆次市'],,"[['山西', '榆次']]",[{'county': 140702}],County,[],modern,POINT (112.80606991650117 37.635511644302525),['山西省'],['晋中市'],['榆次区'],[],[],[],[],[],[],[],59.01837749784267,0.9883057082279504,112.80606991650116,37.635511644302525,0.9999999999999983,﻿榆次
226,226,116.0,蔺,今山西省离石县西,['今山西省离石县西'],西,"[['山西', '离石']]",[{'county': 141102}],County,[],modern,POINT (111.16440600917059 37.58621469802759),['山西省'],['吕梁市'],['离石区'],[],[],[],[],[],[],[],64.08513553599369,0.9873017472695408,111.1644060091706,37.58621469802759,0.9999999999999996,﻿蔺
227,227,118.0,鄗,河北省柏乡县北,['河北省柏乡县北'],北,"[['河北', '柏乡']]",[{'county': 130524}],County,[],modern,POINT (114.72275114359101 37.59527286626825),['河北省'],['邢台市'],['柏乡县'],[],[],[],[],[],[],[],25.39233257746842,0.994968595232143,114.722751143591,37.59527286626825,0.9999999999999427,﻿鄗
228,228,120.0,代郡,河北省蔚县东北代王城,['河北省蔚县东北代王城'],,"[['河北', '蔚']]",[{'county': 130726}],County,[],modern,POINT (114.61045190069535 39.892225568658716),['河北省'],['张家口市'],['蔚县'],[],[],[],[],[],[],[],77.82585651717226,0.9845790699082716,114.61045190069537,39.89222556865872,1.0,代
229,229,122.0,石邑,河北省获鹿县东南,['河北省获鹿县东南'],东南,"[['河北', '获鹿']]",[{'county': 130110}],County,[],modern,POINT (114.41174983454458 37.95967940322291),['河北省'],['石家庄市'],['鹿泉区'],[],[],[],[],[],[],[],40.98093583700995,0.9918797662509928,114.41174983454458,37.95967940322291,0.9999999999999862,石邑
230,230,123.0,云中,内蒙古自治区托克托县东北,['内蒙古自治区托克托县东北'],东北,"[['内蒙古', '托克托']]",[{'county': 150122}],County,[],modern,POINT (111.39971247209442 40.446017266527306),['内蒙古自治区'],['呼和浩特市'],['托克托县'],[],[],[],[],[],[],[],57.38170765381282,0.9886300088187504,111.39971247209442,40.446017266527306,0.9999999999999957,云中
231,231,124.0,雁门郡,山西省右玉县南,['山西省右玉县南'],南,"[['山西', '右玉']]",[{'county': 140623}],County,[],modern,POINT (112.41846099600633 39.85267986191653),['山西省'],['朔州市'],['右玉县'],[],[],[],[],[],[],[],65.02937461682531,0.9871146494911544,112.41846099600632,39.85267986191653,0.0,
232,232,124.0,善无,山西省右玉县南,['山西省右玉县南'],南,"[['山西', '右玉']]",[{'county': 140623}],County,[],modern,POINT (112.41846099600633 39.85267986191653),['山西省'],['朔州市'],['右玉县'],[],[],[],[],[],[],[],65.02937461682531,0.9871146494911544,112.41846099600632,39.85267986191653,0.9999999999999999,﻿善无
233,233,126.0,南行唐,今河北省行唐县东北,['今河北省行唐县东北'],东北,"[['河北', '行唐']]",[{'county': 130125}],County,[],modern,POINT (114.49322173591435 38.63932089106895),['河北省'],['石家庄市'],['行唐县'],[],[],[],[],[],[],[],51.66138735744993,0.9897634709268488,114.49322173591436,38.63932089106895,0.9999999999999909,﻿南行唐
234,234,127.0,兹氏县,山西省汾阳南,['山西省汾阳南'],南,"[['山西', '汾阳']]",[{'county': 141182}],County,[],modern,POINT (111.7458049313197 37.243195012916445),['山西省'],['吕梁市'],['汾阳市'],[],[],[],[],[],[],[],52.983199822298346,0.9895015582601976,111.7458049313197,37.243195012916445,0.9999999999999931,﻿兹氏
235,235,128.0,防陵,今河南安阳西南,['今河南安阳西南'],西南,"[['河南', '安阳']]",[{'prefecture': 4105}],Prefecture,[],modern,POINT (113.91782422078211 35.77153853379669),['河南省'],['安阳市'],['NA'],[],[],[],[],[],[],[],151.16032408128245,0.970048093337898,113.91782422078212,35.77153853379669,0.9999999999999996,﻿防陵
236,236,131.0,武垣县,今河北省肃宁县东南,['今河北省肃宁县东南'],东南,"[['河北', '肃宁']]",[{'county': 130926}],County,[],modern,POINT (115.96564043013896 38.35780706157759),['河北省'],['沧州市'],['肃宁县'],[],[],[],[],[],[],[],31.251438643238476,0.9938076331935136,115.96564043013896,38.35780706157759,0.9999999999999825,﻿武垣
237,237,132.0,元氏,河北省元氏县西北,['河北省元氏县西北'],西北,"[['河北', '元氏']]",[{'county': 130132}],County,[],modern,POINT (114.31931924460764 37.862395235119365),['河北省'],['石家庄市'],['元氏县'],[],[],[],[],[],[],[],44.294888556652026,0.991223117734627,114.31931924460764,37.862395235119365,0.9999999999999802,﻿元氏
238,238,133.0,邢县,河北邢台,['河北邢台'],,"[['河北', '邢台']]",[{'prefecture': 1305}],Prefecture,[],modern,POINT (114.78086583070218 37.27875526653931),['河北省'],['邢台市'],['NA'],[],[],[],[],[],[],[],184.84268165651525,0.963374048171718,114.78086583070218,37.27875526653931,0.9999999999999994,﻿邢
239,239,134.0,新城,山西省朔州南,['山西省朔州南'],南,"[['山西', '朔州']]",[{'prefecture': 1406}],Prefecture,[],modern,POINT (112.7577333418269 39.3625088603206),['山西省'],['朔州市'],['NA'],[],[],[],[],[],[],[],148.90751474609672,0.9704944798837402,112.7577333418269,39.3625088603206,0.9999999999999986,﻿新城
240,240,135.0,狼孟县,山西省阳曲县,['山西省阳曲县'],,"[['山西', '阳曲']]",[{'county': 140122}],County,[],modern,POINT (112.59149975175032 38.186747937047),['山西省'],['太原市'],['阳曲县'],[],[],[],[],[],[],[],87.44477664945516,0.9826731134362716,112.59149975175032,38.186747937047,0.9999999999999942,﻿狼孟
241,241,138.0,柏人,河北省隆尧县西,['河北省隆尧县西'],西,"[['河北', '隆尧']]",[{'county': 130525}],County,[],modern,POINT (114.67569049505056 37.38107330666618),['河北省'],['邢台市'],['隆尧县'],[],[],[],[],[],[],[],45.58473877045055,0.9909675382798554,114.67569049505056,37.38107330666618,0.9999999999999996,﻿柏人
242,242,140.0,平原津令,山东省平原县南,['山东省平原县南'],南,"[['山东', '平原']]",[{'county': 371426}],County,[],modern,POINT (116.40304329278604 37.04535351505217),['山东省'],['德州市'],['平原县'],[],[],[],[],[],[],[],47.298668948219486,0.9906279288153884,116.40304329278604,37.04535351505217,0.0,
243,243,141.0,富昌县,内蒙古自治区准格尔旗,['内蒙古自治区准格尔旗'],,"[['内蒙古', '准格尔旗']]",[{'county': 150622}],County,[],modern,POINT (110.86678954140831 39.802110284004044),['内蒙古自治区'],['鄂尔多斯市'],['准格尔旗'],[],[],[],[],[],[],[],119.53576043328532,0.9763143936013532,110.86678954140832,39.80211028400405,0.9999999999999978,﻿富昌
244,244,142.0,武平,赵县,['赵县'],,[['赵']],[{'county': 130133}],County,[],modern,POINT (114.84986570556961 37.7772686779257),['河北省'],['石家庄市'],['赵县'],[],[],[],[],[],[],[],40.59704450289596,0.9919558330196878,114.8498657055696,37.7772686779257,0.0,﻿武平
245,245,142.0,武平县,今河北省文安县北,['今河北省文安县北'],北,"[['河北', '文安']]",[{'county': 131026}],County,[],modern,POINT (116.5031976717793 38.97044642638492),['河北省'],['廊坊市'],['文安县'],[],[],[],[],[],[],[],46.94317953480522,0.9906983678396144,116.5031976717793,38.97044642638492,0.9999999999999931,﻿武平
246,246,144.0,栾县,今河北省赵县西北南轮城,['今河北省赵县西北南轮城'],,"[['河北', '赵']]",[{'county': 130133}],County,[],modern,POINT (114.84986570556961 37.7772686779257),['河北省'],['石家庄市'],['赵县'],[],[],[],[],[],[],[],40.59704450289596,0.9919558330196878,114.8498657055696,37.7772686779257,0.9999999999999996,﻿栾
247,247,144.0,商城,可能已为赵县,['可能已为赵县'],,[['赵']],[{'county': 130133}],County,[],modern,POINT (114.84986570556961 37.7772686779257),['河北省'],['石家庄市'],['赵县'],[],[],[],[],[],[],[],40.59704450289596,0.9919558330196878,114.8498657055696,37.7772686779257,0.0,
248,248,144.0,商平,可能已为赵县,['可能已为赵县'],,[['赵']],[{'county': 130133}],County,[],modern,POINT (114.84986570556961 37.7772686779257),['河北省'],['石家庄市'],['赵县'],[],[],[],[],[],[],[],40.59704450289596,0.9919558330196878,114.8498657055696,37.7772686779257,0.0,
249,249,144.0,中阳,可能已为赵县,['可能已为赵县'],,[['赵']],[{'county': 130133}],County,[],modern,POINT (114.84986570556961 37.7772686779257),['河北省'],['石家庄市'],['赵县'],[],[],[],[],[],[],[],40.59704450289596,0.9919558330196878,114.8498657055696,37.7772686779257,0.0,
250,250,144.0,阳化,可能已为赵县,['可能已为赵县'],,[['赵']],[{'county': 130133}],County,[],modern,POINT (114.84986570556961 37.7772686779257),['河北省'],['石家庄市'],['赵县'],[],[],[],[],[],[],[],40.59704450289596,0.9919558330196878,114.8498657055696,37.7772686779257,0.0,
251,251,144.0,阳丘,可能已为赵县,['可能已为赵县'],,[['赵']],[{'county': 130133}],County,[],modern,POINT (114.84986570556961 37.7772686779257),['河北省'],['石家庄市'],['赵县'],[],[],[],[],[],[],[],40.59704450289596,0.9919558330196878,114.8498657055696,37.7772686779257,0.0,
252,252,144.0,阳邑,可能已为赵县,['可能已为赵县'],,[['赵']],[{'county': 130133}],County,[],modern,POINT (114.84986570556961 37.7772686779257),['河北省'],['石家庄市'],['赵县'],[],[],[],[],[],[],[],40.59704450289596,0.9919558330196878,114.8498657055696,37.7772686779257,0.0,
253,253,144.0,武安,可能已为赵县,['可能已为赵县'],,[['赵']],[{'county': 130133}],County,[],modern,POINT (114.84986570556961 37.7772686779257),['河北省'],['石家庄市'],['赵县'],[],[],[],[],[],[],[],40.59704450289596,0.9919558330196878,114.8498657055696,37.7772686779257,0.0,
254,254,144.0,西都,可能已为赵县,['可能已为赵县'],,[['赵']],[{'county': 130133}],County,[],modern,POINT (114.84986570556961 37.7772686779257),['河北省'],['石家庄市'],['赵县'],[],[],[],[],[],[],[],40.59704450289596,0.9919558330196878,114.8498657055696,37.7772686779257,0.0,
255,255,144.0,平周,可能已为赵县,['可能已为赵县'],,[['赵']],[{'county': 130133}],County,[],modern,POINT (114.84986570556961 37.7772686779257),['河北省'],['石家庄市'],['赵县'],[],[],[],[],[],[],[],40.59704450289596,0.9919558330196878,114.8498657055696,37.7772686779257,0.0,
256,256,144.0,平州,可能已为赵县,['可能已为赵县'],,[['赵']],[{'county': 130133}],County,[],modern,POINT (114.84986570556961 37.7772686779257),['河北省'],['石家庄市'],['赵县'],[],[],[],[],[],[],[],40.59704450289596,0.9919558330196878,114.8498657055696,37.7772686779257,0.0,
257,257,144.0,寿阴,可能已为赵县,['可能已为赵县'],,[['赵']],[{'county': 130133}],County,[],modern,POINT (114.84986570556961 37.7772686779257),['河北省'],['石家庄市'],['赵县'],[],[],[],[],[],[],[],40.59704450289596,0.9919558330196878,114.8498657055696,37.7772686779257,0.0,
258,258,144.0,虑虒,可能已为赵县,['可能已为赵县'],,[['赵']],[{'county': 130133}],County,[],modern,POINT (114.84986570556961 37.7772686779257),['河北省'],['石家庄市'],['赵县'],[],[],[],[],[],[],[],40.59704450289596,0.9919558330196878,114.8498657055696,37.7772686779257,0.0,
259,259,144.0,虑虒半,可能已为赵县,['可能已为赵县'],,[['赵']],[{'county': 130133}],County,[],modern,POINT (114.84986570556961 37.7772686779257),['河北省'],['石家庄市'],['赵县'],[],[],[],[],[],[],[],40.59704450289596,0.9919558330196878,114.8498657055696,37.7772686779257,0.0,
260,260,144.0,藿人,可能已为赵县,['可能已为赵县'],,[['赵']],[{'county': 130133}],County,[],modern,POINT (114.84986570556961 37.7772686779257),['河北省'],['石家庄市'],['赵县'],[],[],[],[],[],[],[],40.59704450289596,0.9919558330196878,114.8498657055696,37.7772686779257,0.0,
261,261,144.0,大阴,可能已为赵县,['可能已为赵县'],,[['赵']],[{'county': 130133}],County,[],modern,POINT (114.84986570556961 37.7772686779257),['河北省'],['石家庄市'],['赵县'],[],[],[],[],[],[],[],40.59704450289596,0.9919558330196878,114.8498657055696,37.7772686779257,0.0,
262,262,144.0,大阴半,可能已为赵县,['可能已为赵县'],,[['赵']],[{'county': 130133}],County,[],modern,POINT (114.84986570556961 37.7772686779257),['河北省'],['石家庄市'],['赵县'],[],[],[],[],[],[],[],40.59704450289596,0.9919558330196878,114.8498657055696,37.7772686779257,0.0,
263,263,144.0,繁寺（止？）,可能已为赵县,['可能已为赵县'],,[['赵']],[{'county': 130133}],County,[],modern,POINT (114.84986570556961 37.7772686779257),['河北省'],['石家庄市'],['赵县'],[],[],[],[],[],[],[],40.59704450289596,0.9919558330196878,114.8498657055696,37.7772686779257,0.0,
264,264,144.0,娄番（弁？）,可能已为赵县,['可能已为赵县'],,[['赵']],[{'county': 130133}],County,[],modern,POINT (114.84986570556961 37.7772686779257),['河北省'],['石家庄市'],['赵县'],[],[],[],[],[],[],[],40.59704450289596,0.9919558330196878,114.8498657055696,37.7772686779257,0.0,
265,265,144.0,酆,可能已为赵县,['可能已为赵县'],,[['赵']],[{'county': 130133}],County,[],modern,POINT (114.84986570556961 37.7772686779257),['河北省'],['石家庄市'],['赵县'],[],[],[],[],[],[],[],40.59704450289596,0.9919558330196878,114.8498657055696,37.7772686779257,0.0,
266,266,144.0,尹城,可能已为赵县,['可能已为赵县'],,[['赵']],[{'county': 130133}],County,[],modern,POINT (114.84986570556961 37.7772686779257),['河北省'],['石家庄市'],['赵县'],[],[],[],[],[],[],[],40.59704450289596,0.9919558330196878,114.8498657055696,37.7772686779257,0.0,
267,267,144.0,平城,可能已为赵县,['可能已为赵县'],,[['赵']],[{'county': 130133}],County,[],modern,POINT (114.84986570556961 37.7772686779257),['河北省'],['石家庄市'],['赵县'],[],[],[],[],[],[],[],40.59704450289596,0.9919558330196878,114.8498657055696,37.7772686779257,0.0,
268,268,144.0,椁（崞）,可能已为赵县,['可能已为赵县'],,[['赵']],[{'county': 130133}],County,[],modern,POINT (114.84986570556961 37.7772686779257),['河北省'],['石家庄市'],['赵县'],[],[],[],[],[],[],[],40.59704450289596,0.9919558330196878,114.8498657055696,37.7772686779257,0.0,
269,269,144.0,邪,可能已为赵县,['可能已为赵县'],,[['赵']],[{'county': 130133}],County,[],modern,POINT (114.84986570556961 37.7772686779257),['河北省'],['石家庄市'],['赵县'],[],[],[],[],[],[],[],40.59704450289596,0.9919558330196878,114.8498657055696,37.7772686779257,0.0,
270,270,144.0,奴邑,可能已为赵县,['可能已为赵县'],,[['赵']],[{'county': 130133}],County,[],modern,POINT (114.84986570556961 37.7772686779257),['河北省'],['石家庄市'],['赵县'],[],[],[],[],[],[],[],40.59704450289596,0.9919558330196878,114.8498657055696,37.7772686779257,0.0,
271,271,144.0,博,可能已为赵县,['可能已为赵县'],,[['赵']],[{'county': 130133}],County,[],modern,POINT (114.84986570556961 37.7772686779257),['河北省'],['石家庄市'],['赵县'],[],[],[],[],[],[],[],40.59704450289596,0.9919558330196878,114.8498657055696,37.7772686779257,0.0,
272,272,144.0,平匋,可能已为赵县,['可能已为赵县'],,[['赵']],[{'county': 130133}],County,[],modern,POINT (114.84986570556961 37.7772686779257),['河北省'],['石家庄市'],['赵县'],[],[],[],[],[],[],[],40.59704450289596,0.9919558330196878,114.8498657055696,37.7772686779257,0.0,
273,273,144.0,襄洹,可能已为赵县,['可能已为赵县'],,[['赵']],[{'county': 130133}],County,[],modern,POINT (114.84986570556961 37.7772686779257),['河北省'],['石家庄市'],['赵县'],[],[],[],[],[],[],[],40.59704450289596,0.9919558330196878,114.8498657055696,37.7772686779257,0.0,
274,274,144.0,平襄,可能已为赵县,['可能已为赵县'],,[['赵']],[{'county': 130133}],County,[],modern,POINT (114.84986570556961 37.7772686779257),['河北省'],['石家庄市'],['赵县'],[],[],[],[],[],[],[],40.59704450289596,0.9919558330196878,114.8498657055696,37.7772686779257,0.0,
275,275,144.0,郎,可能已为赵县,['可能已为赵县'],,[['赵']],[{'county': 130133}],County,[],modern,POINT (114.84986570556961 37.7772686779257),['河北省'],['石家庄市'],['赵县'],[],[],[],[],[],[],[],40.59704450289596,0.9919558330196878,114.8498657055696,37.7772686779257,0.0,
276,276,144.0,成襄,可能已为赵县,['可能已为赵县'],,[['赵']],[{'county': 130133}],County,[],modern,POINT (114.84986570556961 37.7772686779257),['河北省'],['石家庄市'],['赵县'],[],[],[],[],[],[],[],40.59704450289596,0.9919558330196878,114.8498657055696,37.7772686779257,0.0,
277,277,144.0,平阴,可能已为赵县,['可能已为赵县'],,[['赵']],[{'county': 130133}],County,[],modern,POINT (114.84986570556961 37.7772686779257),['河北省'],['石家庄市'],['赵县'],[],[],[],[],[],[],[],40.59704450289596,0.9919558330196878,114.8498657055696,37.7772686779257,0.0,
278,278,144.0,鄩氏,可能已为赵县,['可能已为赵县'],,[['赵']],[{'county': 130133}],County,[],modern,POINT (114.84986570556961 37.7772686779257),['河北省'],['石家庄市'],['赵县'],[],[],[],[],[],[],[],40.59704450289596,0.9919558330196878,114.8498657055696,37.7772686779257,0.0,
279,279,144.0,鄫,可能已为赵县,['可能已为赵县'],,[['赵']],[{'county': 130133}],County,[],modern,POINT (114.84986570556961 37.7772686779257),['河北省'],['石家庄市'],['赵县'],[],[],[],[],[],[],[],40.59704450289596,0.9919558330196878,114.8498657055696,37.7772686779257,0.0,
280,280,144.0,隰城,可能已为赵县,['可能已为赵县'],,[['赵']],[{'county': 130133}],County,[],modern,POINT (114.84986570556961 37.7772686779257),['河北省'],['石家庄市'],['赵县'],[],[],[],[],[],[],[],40.59704450289596,0.9919558330196878,114.8498657055696,37.7772686779257,0.0,
281,281,144.0,莆子,可能已为赵县,['可能已为赵县'],,[['赵']],[{'county': 130133}],County,[],modern,POINT (114.84986570556961 37.7772686779257),['河北省'],['石家庄市'],['赵县'],[],[],[],[],[],[],[],40.59704450289596,0.9919558330196878,114.8498657055696,37.7772686779257,0.0,
282,282,144.0,奇氏,可能已为赵县,['可能已为赵县'],,[['赵']],[{'county': 130133}],County,[],modern,POINT (114.84986570556961 37.7772686779257),['河北省'],['石家庄市'],['赵县'],[],[],[],[],[],[],[],40.59704450289596,0.9919558330196878,114.8498657055696,37.7772686779257,0.0,
283,283,144.0,盧阳,可能已为赵县,['可能已为赵县'],,[['赵']],[{'county': 130133}],County,[],modern,POINT (114.84986570556961 37.7772686779257),['河北省'],['石家庄市'],['赵县'],[],[],[],[],[],[],[],40.59704450289596,0.9919558330196878,114.8498657055696,37.7772686779257,0.0,
284,284,144.0,平氏,可能已为赵县,['可能已为赵县'],,[['赵']],[{'county': 130133}],County,[],modern,POINT (114.84986570556961 37.7772686779257),['河北省'],['石家庄市'],['赵县'],[],[],[],[],[],[],[],40.59704450289596,0.9919558330196878,114.8498657055696,37.7772686779257,0.0,
285,285,144.0,完（冠）阳,可能已为赵县,['可能已为赵县'],,[['赵']],[{'county': 130133}],County,[],modern,POINT (114.84986570556961 37.7772686779257),['河北省'],['石家庄市'],['赵县'],[],[],[],[],[],[],[],40.59704450289596,0.9919558330196878,114.8498657055696,37.7772686779257,0.0,
286,286,144.0,星阳,可能已为赵县,['可能已为赵县'],,[['赵']],[{'county': 130133}],County,[],modern,POINT (114.84986570556961 37.7772686779257),['河北省'],['石家庄市'],['赵县'],[],[],[],[],[],[],[],40.59704450289596,0.9919558330196878,114.8498657055696,37.7772686779257,0.0,
287,287,144.0,人也,可能已为赵县,['可能已为赵县'],,[['赵']],[{'county': 130133}],County,[],modern,POINT (114.84986570556961 37.7772686779257),['河北省'],['石家庄市'],['赵县'],[],[],[],[],[],[],[],40.59704450289596,0.9919558330196878,114.8498657055696,37.7772686779257,0.0,
288,288,144.0,氏金,可能已为赵县,['可能已为赵县'],,[['赵']],[{'county': 130133}],County,[],modern,POINT (114.84986570556961 37.7772686779257),['河北省'],['石家庄市'],['赵县'],[],[],[],[],[],[],[],40.59704450289596,0.9919558330196878,114.8498657055696,37.7772686779257,0.0,
289,289,144.0,平于,可能已为赵县,['可能已为赵县'],,[['赵']],[{'county': 130133}],County,[],modern,POINT (114.84986570556961 37.7772686779257),['河北省'],['石家庄市'],['赵县'],[],[],[],[],[],[],[],40.59704450289596,0.9919558330196878,114.8498657055696,37.7772686779257,0.0,
290,290,144.0,沙乇,可能已为赵县,['可能已为赵县'],,[['赵']],[{'county': 130133}],County,[],modern,POINT (114.84986570556961 37.7772686779257),['河北省'],['石家庄市'],['赵县'],[],[],[],[],[],[],[],40.59704450289596,0.9919558330196878,114.8498657055696,37.7772686779257,0.0,
291,291,144.0,干关,可能已为赵县,['可能已为赵县'],,[['赵']],[{'county': 130133}],County,[],modern,POINT (114.84986570556961 37.7772686779257),['河北省'],['石家庄市'],['赵县'],[],[],[],[],[],[],[],40.59704450289596,0.9919558330196878,114.8498657055696,37.7772686779257,0.0,
292,292,144.0,平阳,可能已为赵县,['可能已为赵县'],,[['赵']],[{'county': 130133}],County,[],modern,POINT (114.84986570556961 37.7772686779257),['河北省'],['石家庄市'],['赵县'],[],[],[],[],[],[],[],40.59704450289596,0.9919558330196878,114.8498657055696,37.7772686779257,0.0,
293,293,144.0,邸,可能已为赵县,['可能已为赵县'],,[['赵']],[{'county': 130133}],County,[],modern,POINT (114.84986570556961 37.7772686779257),['河北省'],['石家庄市'],['赵县'],[],[],[],[],[],[],[],40.59704450289596,0.9919558330196878,114.8498657055696,37.7772686779257,0.0,
294,294,144.0,北箕,可能已为赵县,['可能已为赵县'],,[['赵']],[{'county': 130133}],County,[],modern,POINT (114.84986570556961 37.7772686779257),['河北省'],['石家庄市'],['赵县'],[],[],[],[],[],[],[],40.59704450289596,0.9919558330196878,114.8498657055696,37.7772686779257,0.0,
295,295,144.0,狋氏,可能已为赵县,['可能已为赵县'],,[['赵']],[{'county': 130133}],County,[],modern,POINT (114.84986570556961 37.7772686779257),['河北省'],['石家庄市'],['赵县'],[],[],[],[],[],[],[],40.59704450289596,0.9919558330196878,114.8498657055696,37.7772686779257,0.0,
296,296,144.0,圁阳化,可能已为赵县,['可能已为赵县'],,[['赵']],[{'county': 130133}],County,[],modern,POINT (114.84986570556961 37.7772686779257),['河北省'],['石家庄市'],['赵县'],[],[],[],[],[],[],[],40.59704450289596,0.9919558330196878,114.8498657055696,37.7772686779257,0.0,
297,297,144.0,阳新化,可能已为赵县,['可能已为赵县'],,[['赵']],[{'county': 130133}],County,[],modern,POINT (114.84986570556961 37.7772686779257),['河北省'],['石家庄市'],['赵县'],[],[],[],[],[],[],[],40.59704450289596,0.9919558330196878,114.8498657055696,37.7772686779257,0.0,
298,298,144.0,成,可能已为赵县,['可能已为赵县'],,[['赵']],[{'county': 130133}],County,[],modern,POINT (114.84986570556961 37.7772686779257),['河北省'],['石家庄市'],['赵县'],[],[],[],[],[],[],[],40.59704450289596,0.9919558330196878,114.8498657055696,37.7772686779257,0.0,
299,299,144.0,成白,可能已为赵县,['可能已为赵县'],,[['赵']],[{'county': 130133}],County,[],modern,POINT (114.84986570556961 37.7772686779257),['河北省'],['石家庄市'],['赵县'],[],[],[],[],[],[],[],40.59704450289596,0.9919558330196878,114.8498657055696,37.7772686779257,0.0,
300,300,144.0,上（曲）阳,可能已为赵县,['可能已为赵县'],,[['赵']],[{'county': 130133}],County,[],modern,POINT (114.84986570556961 37.7772686779257),['河北省'],['石家庄市'],['赵县'],[],[],[],[],[],[],[],40.59704450289596,0.9919558330196878,114.8498657055696,37.7772686779257,0.0,
301,301,144.0,下（曲）阳,可能已为赵县,['可能已为赵县'],,[['赵']],[{'county': 130133}],County,[],modern,POINT (114.84986570556961 37.7772686779257),['河北省'],['石家庄市'],['赵县'],[],[],[],[],[],[],[],40.59704450289596,0.9919558330196878,114.8498657055696,37.7772686779257,0.0,
302,302,144.0,安阳,可能已为赵县,['可能已为赵县'],,[['赵']],[{'county': 130133}],County,[],modern,POINT (114.84986570556961 37.7772686779257),['河北省'],['石家庄市'],['赵县'],[],[],[],[],[],[],[],40.59704450289596,0.9919558330196878,114.8498657055696,37.7772686779257,0.0,
303,303,144.0,家阳,可能已为赵县,['可能已为赵县'],,[['赵']],[{'county': 130133}],County,[],modern,POINT (114.84986570556961 37.7772686779257),['河北省'],['石家庄市'],['赵县'],[],[],[],[],[],[],[],40.59704450289596,0.9919558330196878,114.8498657055696,37.7772686779257,0.0,
304,304,144.0,上尃（博）,可能已为赵县,['可能已为赵县'],,[['赵']],[{'county': 130133}],County,[],modern,POINT (114.84986570556961 37.7772686779257),['河北省'],['石家庄市'],['赵县'],[],[],[],[],[],[],[],40.59704450289596,0.9919558330196878,114.8498657055696,37.7772686779257,0.0,
305,305,144.0,下尃（博）,可能已为赵县,['可能已为赵县'],,[['赵']],[{'county': 130133}],County,[],modern,POINT (114.84986570556961 37.7772686779257),['河北省'],['石家庄市'],['赵县'],[],[],[],[],[],[],[],40.59704450289596,0.9919558330196878,114.8498657055696,37.7772686779257,0.0,
306,306,144.0,北九门,可能已为赵县,['可能已为赵县'],,[['赵']],[{'county': 130133}],County,[],modern,POINT (114.84986570556961 37.7772686779257),['河北省'],['石家庄市'],['赵县'],[],[],[],[],[],[],[],40.59704450289596,0.9919558330196878,114.8498657055696,37.7772686779257,0.0,
307,307,144.0,五陉,可能已为赵县,['可能已为赵县'],,[['赵']],[{'county': 130133}],County,[],modern,POINT (114.84986570556961 37.7772686779257),['河北省'],['石家庄市'],['赵县'],[],[],[],[],[],[],[],40.59704450289596,0.9919558330196878,114.8498657055696,37.7772686779257,0.0,
308,308,144.0,封氏,可能已为赵县,['可能已为赵县'],,[['赵']],[{'county': 130133}],County,[],modern,POINT (114.84986570556961 37.7772686779257),['河北省'],['石家庄市'],['赵县'],[],[],[],[],[],[],[],40.59704450289596,0.9919558330196878,114.8498657055696,37.7772686779257,0.0,
309,309,144.0,新处,可能已为赵县,['可能已为赵县'],,[['赵']],[{'county': 130133}],County,[],modern,POINT (114.84986570556961 37.7772686779257),['河北省'],['石家庄市'],['赵县'],[],[],[],[],[],[],[],40.59704450289596,0.9919558330196878,114.8498657055696,37.7772686779257,0.0,
310,310,144.0,王夸,可能已为赵县,['可能已为赵县'],,[['赵']],[{'county': 130133}],County,[],modern,POINT (114.84986570556961 37.7772686779257),['河北省'],['石家庄市'],['赵县'],[],[],[],[],[],[],[],40.59704450289596,0.9919558330196878,114.8498657055696,37.7772686779257,0.0,
311,311,144.0,关,可能已为赵县,['可能已为赵县'],,[['赵']],[{'county': 130133}],County,[],modern,POINT (114.84986570556961 37.7772686779257),['河北省'],['石家庄市'],['赵县'],[],[],[],[],[],[],[],40.59704450289596,0.9919558330196878,114.8498657055696,37.7772686779257,0.0,
312,312,144.0,宋子,可能已为赵县,['可能已为赵县'],,[['赵']],[{'county': 130133}],County,[],modern,POINT (114.84986570556961 37.7772686779257),['河北省'],['石家庄市'],['赵县'],[],[],[],[],[],[],[],40.59704450289596,0.9919558330196878,114.8498657055696,37.7772686779257,0.0,
313,313,144.0,上艾,可能已为赵县,['可能已为赵县'],,[['赵']],[{'county': 130133}],County,[],modern,POINT (114.84986570556961 37.7772686779257),['河北省'],['石家庄市'],['赵县'],[],[],[],[],[],[],[],40.59704450289596,0.9919558330196878,114.8498657055696,37.7772686779257,0.0,
314,314,144.0,平台,可能已为赵县,['可能已为赵县'],,[['赵']],[{'county': 130133}],County,[],modern,POINT (114.84986570556961 37.7772686779257),['河北省'],['石家庄市'],['赵县'],[],[],[],[],[],[],[],40.59704450289596,0.9919558330196878,114.8498657055696,37.7772686779257,0.0,
315,315,144.0,凭,可能已为赵县,['可能已为赵县'],,[['赵']],[{'county': 130133}],County,[],modern,POINT (114.84986570556961 37.7772686779257),['河北省'],['石家庄市'],['赵县'],[],[],[],[],[],[],[],40.59704450289596,0.9919558330196878,114.8498657055696,37.7772686779257,0.0,
316,316,144.0,邓（苏）阳,可能已为赵县,['可能已为赵县'],,[['赵']],[{'county': 130133}],County,[],modern,POINT (114.84986570556961 37.7772686779257),['河北省'],['石家庄市'],['赵县'],[],[],[],[],[],[],[],40.59704450289596,0.9919558330196878,114.8498657055696,37.7772686779257,0.0,
317,317,144.0,邢,可能已为赵县,['可能已为赵县'],,[['赵']],[{'county': 130133}],County,[],modern,POINT (114.84986570556961 37.7772686779257),['河北省'],['石家庄市'],['赵县'],[],[],[],[],[],[],[],40.59704450289596,0.9919558330196878,114.8498657055696,37.7772686779257,0.0,
318,318,144.0,鸾即,可能已为赵县,['可能已为赵县'],,[['赵']],[{'county': 130133}],County,[],modern,POINT (114.84986570556961 37.7772686779257),['河北省'],['石家庄市'],['赵县'],[],[],[],[],[],[],[],40.59704450289596,0.9919558330196878,114.8498657055696,37.7772686779257,0.0,
319,319,144.0,觱,可能已为赵县,['可能已为赵县'],,[['赵']],[{'county': 130133}],County,[],modern,POINT (114.84986570556961 37.7772686779257),['河北省'],['石家庄市'],['赵县'],[],[],[],[],[],[],[],40.59704450289596,0.9919558330196878,114.8498657055696,37.7772686779257,0.0,
320,320,144.0,安险（阴？、险？）,可能已为赵县,['可能已为赵县'],,[['赵']],[{'county': 130133}],County,[],modern,POINT (114.84986570556961 37.7772686779257),['河北省'],['石家庄市'],['赵县'],[],[],[],[],[],[],[],40.59704450289596,0.9919558330196878,114.8498657055696,37.7772686779257,0.0,
321,321,144.0,大酉,可能已为赵县,['可能已为赵县'],,[['赵']],[{'county': 130133}],County,[],modern,POINT (114.84986570556961 37.7772686779257),['河北省'],['石家庄市'],['赵县'],[],[],[],[],[],[],[],40.59704450289596,0.9919558330196878,114.8498657055696,37.7772686779257,0.0,
322,322,144.0,鄚,可能已为赵县,['可能已为赵县'],,[['赵']],[{'county': 130133}],County,[],modern,POINT (114.84986570556961 37.7772686779257),['河北省'],['石家庄市'],['赵县'],[],[],[],[],[],[],[],40.59704450289596,0.9919558330196878,114.8498657055696,37.7772686779257,0.0,
323,323,144.0,阿,可能已为赵县,['可能已为赵县'],,[['赵']],[{'county': 130133}],County,[],modern,POINT (114.84986570556961 37.7772686779257),['河北省'],['石家庄市'],['赵县'],[],[],[],[],[],[],[],40.59704450289596,0.9919558330196878,114.8498657055696,37.7772686779257,0.0,
324,324,144.0,貍,可能已为赵县,['可能已为赵县'],,[['赵']],[{'county': 130133}],County,[],modern,POINT (114.84986570556961 37.7772686779257),['河北省'],['石家庄市'],['赵县'],[],[],[],[],[],[],[],40.59704450289596,0.9919558330196878,114.8498657055696,37.7772686779257,0.0,
325,325,144.0,亲（新）处,可能已为赵县,['可能已为赵县'],,[['赵']],[{'county': 130133}],County,[],modern,POINT (114.84986570556961 37.7772686779257),['河北省'],['石家庄市'],['赵县'],[],[],[],[],[],[],[],40.59704450289596,0.9919558330196878,114.8498657055696,37.7772686779257,0.0,
326,326,144.0,阳湔（原）,可能已为赵县,['可能已为赵县'],,[['赵']],[{'county': 130133}],County,[],modern,POINT (114.84986570556961 37.7772686779257),['河北省'],['石家庄市'],['赵县'],[],[],[],[],[],[],[],40.59704450289596,0.9919558330196878,114.8498657055696,37.7772686779257,0.0,
327,327,144.0,余亡（吾）,可能已为赵县,['可能已为赵县'],,[['赵']],[{'county': 130133}],County,[],modern,POINT (114.84986570556961 37.7772686779257),['河北省'],['石家庄市'],['赵县'],[],[],[],[],[],[],[],40.59704450289596,0.9919558330196878,114.8498657055696,37.7772686779257,0.0,
328,328,144.0,戏,可能已为赵县,['可能已为赵县'],,[['赵']],[{'county': 130133}],County,[],modern,POINT (114.84986570556961 37.7772686779257),['河北省'],['石家庄市'],['赵县'],[],[],[],[],[],[],[],40.59704450289596,0.9919558330196878,114.8498657055696,37.7772686779257,0.0,
329,329,144.0,武阳,可能已为赵县,['可能已为赵县'],,[['赵']],[{'county': 130133}],County,[],modern,POINT (114.84986570556961 37.7772686779257),['河北省'],['石家庄市'],['赵县'],[],[],[],[],[],[],[],40.59704450289596,0.9919558330196878,114.8498657055696,37.7772686779257,0.0,
330,330,144.0,战（沾？）,可能已为赵县,['可能已为赵县'],,[['赵']],[{'county': 130133}],County,[],modern,POINT (114.84986570556961 37.7772686779257),['河北省'],['石家庄市'],['赵县'],[],[],[],[],[],[],[],40.59704450289596,0.9919558330196878,114.8498657055696,37.7772686779257,0.0,
331,331,145.0,温县,河南省温县西南,['河南省温县西南'],西南,"[['温县', '河南']]",[{'LEV1': 'hvd_562'}],['县'],[],historic,POINT (113.07546 34.93812),['河南省'],['焦作市'],['温县'],['温县'],['怀庆府'],['河南'],[],[],[1820],[1820],3.809706139204343,0.9992451196212696,113.07546,34.93812,0.8334300180279839,﻿温
332,332,146.0,少梁,陕西省韩城市西南,['陕西省韩城市西南'],西南,"[['陕西', '韩城']]",[{'county': 610581}],County,[],modern,POINT (110.28597016323522 35.446027127981765),['陕西省'],['渭南市'],['韩城市'],[],[],[],[],[],[],[],60.05591235794816,0.9881001242066312,110.28597016323522,35.446027127981765,0.9999999999999923,﻿少梁
333,333,147.0,中山,大荔县西南洛河南岸,['大荔县西南洛河南岸'],,[['河南岸']],[{'LEV1': 'hvd_126193'}],['村镇'],[],historic,POINT (114.41546 23.07841),"['重庆市', '河南省', '陕西省']","['NA', '渭南市', '重庆市辖区']","['NA', '大荔县', '南岸区']",['河南岸'],['归善县'],['惠州府'],['广东'],[],[1911],[1911],1.2612394408198824,0.99975008967307,114.41546,23.07841,0.0,
334,334,147.0,郑,合阳县东南,['合阳县东南'],东南,[['合阳']],[{'county': 610524}],County,[],modern,POINT (110.25805341874907 35.1197875851478),['陕西省'],['渭南市'],['合阳县'],[],[],[],[],[],[],[],54.72411301305493,0.9891566022030228,110.25805341874909,35.1197875851478,0.0,
335,335,148.0,邺,河北省临漳县西南,['河北省临漳县西南'],西南,"[['河北', '临漳']]",[{'county': 130423}],County,[],modern,POINT (114.54267540902563 36.16729457408801),['河北省'],['邯郸市'],['临漳县'],[],[],[],[],[],[],[],37.37513676275535,0.9925942431348628,114.54267540902563,36.16729457408801,0.9999999999999984,﻿邺
336,336,150.0,苦陉,河北省无极县东北,['河北省无极县东北'],东北,"[['河北', '无极']]",[{'county': 130130}],County,[],modern,POINT (115.02830651520212 38.23850613689574),['河北省'],['石家庄市'],['无极县'],[],[],[],[],[],[],[],32.784214518303536,0.9935039188410676,115.02830651520212,38.23850613689574,0.9999999999999957,苦陉
337,337,151.0,酸枣,河南省延津县西南,['河南省延津县西南'],西南,"[['河南', '延津']]",[{'county': 410726}],County,[],modern,POINT (114.12924841501902 35.193294016954795),['河南省'],['新乡市'],['延津县'],[],[],[],[],[],[],[],50.74193853831405,0.9899456565987748,114.12924841501902,35.193294016954795,0.9999999999999981,﻿酸枣
338,338,152.0,承匡,河南省睢县西南匡城,['河南省睢县西南匡城'],,"[['睢县', '河南']]",[{'LEV1': 'hvd_82165'}],['县'],[],historic,POINT (115.06597 34.4305),['河南省'],['商丘市'],['睢县'],['睢县'],['开封府'],['河南布政使司'],['明'],[],[1377],[1379],7.260805827182603,0.9985612958972588,115.06597,34.4305,0.975574438802862,﻿承匡
339,339,152.0,襄陵,陈留郡襄邑下颜师古注引圈称所云“襄邑，宋地，本承匡襄陵乡也。宋襄公所葬，故曰襄陵。秦始皇以承匡卑湿，故徒县于襄陵，谓之襄邑，县西三十里有承匡城,['陈留郡襄邑下颜师古注引圈称所云“襄邑，宋地，本承匡襄陵乡也。宋襄公所葬，故曰襄陵。秦始皇以承匡卑湿，故徒县于襄陵，谓之襄邑，县西三十里有承匡城'],,"[['襄邑', '陈留']]",[{'LEV1': 'hvd_82156'}],['县'],[],historic,POINT (115.06597 34.4305),"['山西省', '山东省', '云南省']","['临沧市', '普洱市', '德州市', '临汾市', '阳泉市']","['古县', '西盟佤族自治县', '云县', '城区', '陵城区']",['襄邑县'],['陈留郡'],[],[],[],[23],[25],7.260805827182603,0.9985612958972588,115.06597,34.4305,0.0,
340,340,153.0,安邑,山西省夏县西北,['山西省夏县西北'],西北,"[['夏县', '山西']]",[{'LEV1': 'hvd_1154'}],['县'],[],historic,POINT (111.22005 35.13745),['山西省'],['运城市'],['夏县'],['夏县'],['解州'],['山西'],[],[],[1820],[1820],1.8176181191053944,0.9996398451208564,111.22005,35.13745,0.9423831403723419,﻿安邑
341,341,153.0,王垣,山西省垣曲县东南,['山西省垣曲县东南'],东南,"[['山西', '垣曲']]",[{'county': 140827}],County,[],modern,POINT (111.95547897846053 35.17075479973811),['山西省'],['运城市'],['垣曲县'],[],[],[],[],[],[],[],55.8526680635654,0.988932982839004,111.95547897846052,35.17075479973811,0.9999999999999969,王垣
342,342,157.0,大梁,河南省开封市,['河南省开封市'],,"[['河南', '开封']]",[{'prefecture': 4102}],Prefecture,[],modern,POINT (114.53029986642758 34.60656434330035),['河南省'],['开封市'],['NA'],[],[],[],[],[],[],[],139.39624347015476,0.97237910609916,114.53029986642758,34.60656434330035,0.9999999999999988,﻿大梁
343,343,158.0,绛,山西省侯马市西,['山西省侯马市西'],西,"[['山西', '侯马']]",[{'county': 141081}],County,[],modern,POINT (111.32846183259753 35.59036828305365),['山西省'],['临汾市'],['侯马市'],[],[],[],[],[],[],[],18.11651056283706,0.9964102747416096,111.32846183259753,35.59036828305365,0.9999999999999335,﻿绛
344,344,161.0,济阳县,今河南省兰考县东北,['今河南省兰考县东北'],东北,"[['河南', '兰考']]",[{'county': 410225}],County,[],modern,POINT (115.09196939744291 34.94527385867838),['河南省'],['开封市'],['兰考县'],[],[],[],[],[],[],[],50.45387348436093,0.99000273571435,115.09196939744292,34.94527385867838,1.0,﻿济阳
345,345,162.0,㶏阴,今河南省沙河南岸自漯河市以东至周口市一带,['今河南省沙河南岸自漯河市以东至周口市一带'],,"[['河南', '漯河'], ['河南', '周口']]","[{'prefecture': 4111}, {'prefecture': 4116}]",Prefecture,['Multiple Matches'],modern,POINT (114.39245479669374 33.69235373031368),['河南省'],"['漯河市', '周口市']",['NA'],[],[],[],[],[],[],[],215.3081824330984,0.9573374122937496,114.39245479669374,33.69235373031368,1.0,﻿㶏阴
346,346,163.0,顿丘,河南浚县西,['河南浚县西'],西,"[['浚县', '河南']]",[{'LEV1': 'hvd_621'}],['县'],[],historic,POINT (114.54432 35.66838),['河南省'],['鹤壁市'],['浚县'],['浚县'],['卫辉府'],['河南'],[],[],[1820],[1820],0.0011095286529319,0.9999997801506524,114.54432,35.66838,0.7965275598071269,﻿顿丘
347,347,163.0,淇,顿丘,['顿丘'],,[['顿丘']],[{'LEV1': 'hvd_44812'}],['县'],[],historic,POINT (115.03487 35.68114),['河北省'],['邯郸市'],['邱县'],['顿丘县'],['澶州'],['后晋'],[],[],[938],[1072],3.2809958997905544,0.9993498817659558,115.03487,35.68114,0.0,
348,348,163.0,顿丘,晋定公三十一年（前482）城,['晋定公三十一年（前482）城'],,"[['城'], ['晋'], ['定']]","[{'county': 140302}, {'county': 130183}, {'county': 130682}]",County,['Multiple Matches'],modern,POINT (114.5655450769592 38.106001719571935),"['山西省', '河北省']","['石家庄市', '保定市', '阳泉市']","['城区', '定州市', '晋州市']",[],[],[],[],[],[],[],52.01295936683398,0.989693808122974,114.5655450769592,38.106001719571935,0.0,﻿顿丘
349,349,164.0,阴晋,陕西省华阴市东,['陕西省华阴市东'],东,"[['陕西', '华阴']]",[{'county': 610582}],County,[],modern,POINT (110.11763006113412 34.52954863737746),['陕西省'],['渭南市'],['华阴市'],[],[],[],[],[],[],[],34.047878659728475,0.9932535280679182,110.11763006113412,34.52954863737746,0.9999999999999727,﻿阴晋
350,350,166.0,蒲子（蒲阳）,山西隰县,['山西隰县'],,"[['山西', '隰']]",[{'county': 141031}],County,[],modern,POINT (111.03617294127261 36.698794930447754),['山西省'],['临汾市'],['隰县'],[],[],[],[],[],[],[],55.1378197752324,0.989074627608158,111.0361729412726,36.69879493044776,0.9999999999999889,﻿蒲子（蒲阳）
351,351,167.0,漆垣,陕西铜川西北,['陕西铜川西北'],西北,"[['陕西', '铜川']]",[{'prefecture': 6102}],Prefecture,[],modern,POINT (108.98821904074333 35.39063147898062),['陕西省'],['铜川市'],['NA'],[],[],[],[],[],[],[],97.64363848488588,0.9806522434784232,108.98821904074332,35.39063147898062,0.44501901063187094,﻿漆垣
352,352,168.0,高奴县,今陕西延安市东北延河北岸,['今陕西延安市东北延河北岸'],,"[['陕西', '延安']]",[{'prefecture': 6106}],Prefecture,[],modern,POINT (109.55932185655246 36.421073135683955),['陕西省'],['延安市'],['NA'],[],[],[],[],[],[],[],294.1588302526417,0.9417134232735402,109.55932185655246,36.42107313568396,0.8858424387295154,﻿高奴
353,353,169.0,皮氏,山西省河津县西,['山西省河津县西'],西,"[['山西', '河津']]",[{'county': 140882}],County,[],modern,POINT (110.63696218903414 35.60377636215732),['山西省'],['运城市'],['河津市'],[],[],[],[],[],[],[],35.338191807329146,0.9929978568843804,110.63696218903414,35.60377636215732,0.999999999999998,﻿皮氏
354,354,170.0,蒲坂,山西省永济县西南,['山西省永济县西南'],西南,"[['山西', '永济']]",[{'county': 140881}],County,[],modern,POINT (110.38275114057996 34.850721704762805),['山西省'],['运城市'],['永济市'],[],[],[],[],[],[],[],56.14067997218134,0.9888759142539976,110.38275114057996,34.850721704762805,0.0,
355,355,172.0,平丘,河南省封丘县东,['河南省封丘县东'],东,"[['河南', '封丘']]",[{'county': 410727}],County,[],modern,POINT (114.57358337979448 35.08449169212227),['河南省'],['新乡市'],['封丘县'],[],[],[],[],[],[],[],54.1396919542217,0.9892724032580412,114.57358337979448,35.08449169212227,0.9999999999999971,﻿平丘
356,356,173.0,首垣,河南省长垣县东北,['河南省长垣县东北'],东北,"[['河南', '长垣']]",[{'county': 410783}],County,[],modern,POINT (114.85840202117504 35.303874201856985),['河南省'],['新乡市'],['长垣市'],[],[],[],[],[],[],[],52.75198117471097,0.9895473734527304,114.85840202117504,35.303874201856985,0.9999999999999967,﻿首垣
357,357,177.0,单父,山东省单县,['山东省单县'],,"[['单县', '山东']]",[{'LEV1': 'hvd_1072'}],['县'],[],historic,POINT (116.07925 34.7979),['山东省'],['菏泽市'],['单县'],['单县'],['曹州府'],['山东'],[],[],[1820],[1820],5.34943850741873,0.998940026863248,116.07925,34.7979,0.9862117978620055,﻿单父
358,358,178.0,高都县,山西晋城市,['山西晋城市'],,"[['山西', '晋城']]",[{'prefecture': 1405}],Prefecture,[],modern,POINT (112.78425521101443 35.63529741551079),['山西省'],['晋城市'],['NA'],[],[],[],[],[],[],[],154.39342568435433,0.9694074651966657,112.78425521101444,35.63529741551079,0.9999999999999999,﻿高都
359,359,180.0,燕,河南省延津县东北,['河南省延津县东北'],东北,"[['河南', '延津']]",[{'county': 410726}],County,[],modern,POINT (114.34314971462354 35.40672040912101),['河南省'],['新乡市'],['延津县'],[],[],[],[],[],[],[],50.74193853831405,0.9899456565987748,114.34314971462354,35.40672040912101,0.9999999999999982,﻿燕
360,360,180.0,虚,河南省延津县东,['河南省延津县东'],东,"[['河南', '延津']]",[{'county': 410726}],County,[],modern,POINT (114.31549415358043 35.305012622603826),['河南省'],['新乡市'],['延津县'],[],[],[],[],[],[],[],50.74193853831405,0.9899456565987748,114.31549415358045,35.305012622603826,0.9999999999999829,虚
361,361,180.0,长平,河南省西华县东北,['河南省西华县东北'],东北,"[['河南', '西华']]",[{'county': 411622}],County,[],modern,POINT (114.58752658261426 33.88403925529807),['河南省'],['周口市'],['西华县'],[],[],[],[],[],[],[],63.14239530505332,0.9874885480558936,114.58752658261426,33.88403925529807,0.9999999999999982,长平
362,362,180.0,雍丘,河南省杞县,['河南省杞县'],,"[['杞县', '河南']]",[{'LEV1': 'hvd_580'}],['县'],[],historic,POINT (114.77448 34.55351),['河南省'],['开封市'],['杞县'],['杞县'],['开封府'],['河南'],[],[],[1820],[1820],3.0460778658587784,0.9993964299793732,114.77448,34.55351,0.9840983838806082,雍丘
363,363,180.0,山阳,河南省焦作市东北,['河南省焦作市东北'],东北,"[['河南', '焦作']]",[{'prefecture': 4108}],Prefecture,[],modern,POINT (113.32227126353712 35.30517401911678),['河南省'],['焦作市'],['NA'],[],[],[],[],[],[],[],101.32328123719898,0.9799231347196464,113.32227126353712,35.30517401911678,0.9999999999999973,山阳
364,364,181.0,修武,河南省获嘉县,['河南省获嘉县'],,"[['河南', '获嘉']]",[{'county': 410724}],County,[],modern,POINT (113.63134816943477 35.19593376370737),['河南省'],['新乡市'],['获嘉县'],[],[],[],[],[],[],[],34.20392909358148,0.9932226072025538,113.63134816943476,35.19593376370737,0.9999999999999833,﻿修武
365,365,182.0,共城,河南辉县,['河南辉县'],,"[['辉县', '河南']]",[{'LEV1': 'hvd_533'}],['县'],[],historic,POINT (113.79414 35.45868),['河南省'],['新乡市'],['辉县市'],['辉县'],['卫辉府'],['河南'],[],[],[1820],[1820],0.0011094899814819,0.9999997801583148,113.79414,35.45868,0.0,
367,367,183.0,宅阳县,河南荥阳东,['河南荥阳东'],东,"[['河南', '荥阳']]",[{'county': 410182}],County,[],modern,POINT (113.39968027785254 34.80274196294287),['河南省'],['郑州市'],['荥阳市'],[],[],[],[],[],[],[],45.427602023806365,0.990998674394423,113.39968027785254,34.80274196294287,0.9999999999999949,﻿宅阳
368,368,184.0,垠,河南许昌、鄢陵,['河南许昌、鄢陵'],,"[['河南', '许昌', '鄢陵']]",[{'county': 411024}],County,[],modern,POINT (114.17751412411593 34.01837218896118),['河南省'],['许昌市'],['鄢陵县'],[],[],[],[],[],[],[],52.127018826082406,0.9896712076271224,114.17751412411592,34.01837218896118,0.0,
369,369,184.0,梧,河南许昌、鄢陵,['河南许昌、鄢陵'],,"[['河南', '许昌', '鄢陵']]",[{'county': 411024}],County,[],modern,POINT (114.17751412411593 34.01837218896118),['河南省'],['许昌市'],['鄢陵县'],[],[],[],[],[],[],[],52.127018826082406,0.9896712076271224,114.17751412411592,34.01837218896118,0.9999999999999956,梧；郚
370,370,186.0,涑[睘阝],山西西南的涑水边上的一个县,['山西西南的涑水边上的一个县'],,"[['山西'], ['南'], ['西']]","[{'province': 14}, {'county': 370202}, {'county': 530829}]",County,['Multiple Matches'],modern,POINT (110.72768699267468 32.1091796403756),"['云南省', '山西省', '山东省']","['青岛市', 'NA', '普洱市']","['市南区', 'NA', '西盟佤族自治县']",[],[],[],[],[],[],[],758.2426072106181,0.8497567934149899,110.72768699267468,32.1091796403756,0.0621331067008295,﻿涑[睘阝]
371,371,186.0,安成,魏国,['魏国'],,[['魏']],[{'county': 130434}],County,[],modern,POINT (114.93101940641381 36.2500108803376),['河北省'],['邯郸市'],['魏县'],[],[],[],[],[],[],[],44.368725312304846,0.9912084872313716,114.9310194064138,36.2500108803376,0.0,
372,372,186.0,焦,魏国,['魏国'],,[['魏']],[{'county': 130434}],County,[],modern,POINT (114.93101940641381 36.2500108803376),['河北省'],['邯郸市'],['魏县'],[],[],[],[],[],[],[],44.368725312304846,0.9912084872313716,114.9310194064138,36.2500108803376,0.0,
373,373,186.0,禾,魏县,['魏县'],,[['魏县']],[{'LEV1': 'hvd_44796'}],['县'],[],historic,POINT (114.92826 36.35758),['河北省'],['邯郸市'],['魏县'],['魏县'],['大名府'],['明'],[],[],[1370],[1757],3.644338448681455,0.9992778866695118,114.92826,36.35758,0.0,
374,374,186.0,垂,魏县,['魏县'],,[['魏县']],[{'LEV1': 'hvd_44796'}],['县'],[],historic,POINT (114.92826 36.35758),['河北省'],['邯郸市'],['魏县'],['魏县'],['大名府'],['明'],[],[],[1370],[1757],3.644338448681455,0.9992778866695118,114.92826,36.35758,0.0,
375,375,186.0,言阳,魏县,['魏县'],,[['魏县']],[{'LEV1': 'hvd_44796'}],['县'],[],historic,POINT (114.92826 36.35758),['河北省'],['邯郸市'],['魏县'],['魏县'],['大名府'],['明'],[],[],[1370],[1757],3.644338448681455,0.9992778866695118,114.92826,36.35758,0.0,
376,376,186.0,陕,魏县,['魏县'],,[['魏县']],[{'LEV1': 'hvd_44796'}],['县'],[],historic,POINT (114.92826 36.35758),['河北省'],['邯郸市'],['魏县'],['魏县'],['大名府'],['明'],[],[],[1370],[1757],3.644338448681455,0.9992778866695118,114.92826,36.35758,0.0,
377,377,186.0,阴安,魏县,['魏县'],,[['魏县']],[{'LEV1': 'hvd_44796'}],['县'],[],historic,POINT (114.92826 36.35758),['河北省'],['邯郸市'],['魏县'],['魏县'],['大名府'],['明'],[],[],[1370],[1757],3.644338448681455,0.9992778866695118,114.92826,36.35758,0.0,
378,378,186.0,合(沇),魏县,['魏县'],,[['魏县']],[{'LEV1': 'hvd_44796'}],['县'],[],historic,POINT (114.92826 36.35758),['河北省'],['邯郸市'],['魏县'],['魏县'],['大名府'],['明'],[],[],[1370],[1757],3.644338448681455,0.9992778866695118,114.92826,36.35758,0.0,
379,379,186.0,襄垣,魏县,['魏县'],,[['魏县']],[{'LEV1': 'hvd_44796'}],['县'],[],historic,POINT (114.92826 36.35758),['河北省'],['邯郸市'],['魏县'],['魏县'],['大名府'],['明'],[],[],[1370],[1757],3.644338448681455,0.9992778866695118,114.92826,36.35758,0.0,
380,380,186.0,奇氏,魏县,['魏县'],,[['魏县']],[{'LEV1': 'hvd_44796'}],['县'],[],historic,POINT (114.92826 36.35758),['河北省'],['邯郸市'],['魏县'],['魏县'],['大名府'],['明'],[],[],[1370],[1757],3.644338448681455,0.9992778866695118,114.92826,36.35758,0.0,
381,381,186.0,成阳,魏县,['魏县'],,[['魏县']],[{'LEV1': 'hvd_44796'}],['县'],[],historic,POINT (114.92826 36.35758),['河北省'],['邯郸市'],['魏县'],['魏县'],['大名府'],['明'],[],[],[1370],[1757],3.644338448681455,0.9992778866695118,114.92826,36.35758,0.0,
382,382,186.0,虚阳,魏县,['魏县'],,[['魏县']],[{'LEV1': 'hvd_44796'}],['县'],[],historic,POINT (114.92826 36.35758),['河北省'],['邯郸市'],['魏县'],['魏县'],['大名府'],['明'],[],[],[1370],[1757],3.644338448681455,0.9992778866695118,114.92826,36.35758,0.0,
383,383,186.0,土匀(土军),魏县,['魏县'],,[['魏县']],[{'LEV1': 'hvd_44796'}],['县'],[],historic,POINT (114.92826 36.35758),['河北省'],['邯郸市'],['魏县'],['魏县'],['大名府'],['明'],[],[],[1370],[1757],3.644338448681455,0.9992778866695118,114.92826,36.35758,0.0,
384,384,186.0,遽郡,三晋地区,['三晋地区'],,[['晋']],[{'county': 130183}],County,[],modern,POINT (115.08725515145593 37.99490758059366),['河北省'],['石家庄市'],['晋州市'],[],[],[],[],[],[],[],41.98202073094848,0.991681404667116,115.08725515145592,37.99490758059366,0.0,
385,385,187.0,上谷,河北省怀来县东南,['河北省怀来县东南'],东南,"[['河北', '怀来']]",[{'county': 130730}],County,[],modern,POINT (115.77200785501473 40.23234942571935),['河北省'],['张家口市'],['怀来县'],[],[],[],[],[],[],[],61.43451424594982,0.9878269589079685,115.77200785501472,40.23234942571935,0.0,
386,386,187.0,渔阳,北京市密云县西南,['北京市密云县西南'],西南,"[['北京', '密云']]",[{'county': 110118}],County,[],modern,POINT (116.86363974872192 40.35196484413998),['北京市'],['北京市辖区'],['密云区'],[],[],[],[],[],[],[],77.1266316149114,0.9847176189563476,116.86363974872192,40.35196484413998,0.9999999999999928,渔阳
387,387,187.0,右北平,天津市蓟县,['天津市蓟县'],,"[['天津', '蓟']]",[{'county': 120119}],County,[],modern,POINT (117.49261585476611 39.9984463212956),['天津市'],['天津市辖区'],['蓟州区'],[],[],[],[],[],[],[],57.548937820458576,0.9885968727271676,117.49261585476611,39.9984463212956,0.0,
388,388,187.0,辽西,辽宁省义县西,['辽宁省义县西'],西,"[['辽宁', '义']]",[{'county': 210727}],County,[],modern,POINT (121.14163596973492 41.57433157873268),['辽宁省'],['锦州市'],['义县'],[],[],[],[],[],[],[],86.78088543810611,0.9828046612330692,121.14163596973492,41.57433157873268,0.0,
389,389,188.0,令支县,今河北省迁安县西,['今河北省迁安县西'],西,"[['河北', '迁安']]",[{'county': 130283}],County,[],modern,POINT (118.59179770813469 40.03581773318275),['河北省'],['唐山市'],['迁安市'],[],[],[],[],[],[],[],52.28807218949136,0.9896392954481976,118.59179770813468,40.03581773318275,0.9999999999999994,﻿令支
391,391,189.0,襄平,今辽宁省辽阳市,['今辽宁省辽阳市'],,"[['辽宁', '辽阳']]",[{'prefecture': 2110}],Prefecture,[],modern,POINT (123.39738618214825 41.169579119757856),['辽宁省'],['辽阳市'],['NA'],[],[],[],[],[],[],[],98.46942599773416,0.9804886164773704,123.39738618214824,41.169579119757856,0.0,﻿襄平
392,392,190.0,昌城,昌城（今河北固安县南）,['昌城（今河北固安县南）'],,"[['河北', '固安']]",[{'county': 131022}],County,[],modern,POINT (116.29239729706394 39.36307163833256),['河北省'],['廊坊市'],['固安县'],[],[],[],[],[],[],[],47.16281424204228,0.99065484796566,116.29239729706394,39.36307163833256,0.0,
393,393,190.0,涿,涿州,['涿州'],,[['涿州']],[{'county': 130681}],County,[],modern,POINT (115.96450473952339 39.48642971288701),['河北省'],['保定市'],['涿州市'],[],[],[],[],[],[],[],41.235636012909175,0.991829298273091,115.9645047395234,39.48642971288701,0.0,
397,397,191.0,邓,湖北省襄樊市西北,['湖北省襄樊市西北'],西北,[['湖北']],[{'province': 42}],Province,[],modern,POINT (110.92700497356418 32.15883161637984),['湖北省'],['NA'],['NA'],[],[],[],[],[],[],[],750.73917366521,0.8512435733790001,110.92700497356418,32.15883161637984,0.0,﻿邓
398,398,192.0,湖阳,今河南省唐河县西南,['今河南省唐河县西南'],西南,"[['河南', '唐河']]",[{'county': 411328}],County,[],modern,POINT (112.69460497288287 32.48221219542366),['河南省'],['南阳市'],['唐河县'],[],[],[],[],[],[],[],79.25960938735419,0.9842949766291308,112.69460497288289,32.48221219542366,0.9999999999999973,﻿湖阳
399,399,193.0,竟陵,湖北省潜江市西北,['湖北省潜江市西北'],西北,"[['湖北', '潜江']]",[{'county': 429005}],County,[],modern,POINT (112.66363494817152 30.471164239803215),['湖北省'],['省直辖县级行政单位'],['潜江市'],[],[],[],[],[],[],[],63.57980173651369,0.9874018774517644,112.66363494817152,30.471164239803212,0.9999999999999869,﻿竟陵
400,400,194.0,苦,河南省鹿邑县东,['河南省鹿邑县东'],东,"[['河南', '鹿邑']]",[{'county': 411628}],County,[],modern,POINT (115.47993533666437 33.906247185226704),['河南省'],['周口市'],['鹿邑县'],[],[],[],[],[],[],[],60.25245178122582,0.9880611805850348,115.47993533666435,33.906247185226704,0.999999999999992,﻿苦
401,401,195.0,期思,河南省淮滨县东南期思乡,['河南省淮滨县东南期思乡'],,"[['河南', '淮滨']]",[{'county': 411527}],County,[],modern,POINT (115.31412286503618 32.46081562194832),['河南省'],['信阳市'],['淮滨县'],[],[],[],[],[],[],[],55.69217627928692,0.9889647837429248,115.31412286503618,32.46081562194832,0.9999999999999913,﻿期思
402,402,196.0,寝县,安徽省临泉县,['安徽省临泉县'],,"[['安徽', '临泉']]",[{'county': 341221}],County,[],modern,POINT (115.32828737405632 32.85900566936147),['安徽省'],['阜阳市'],['临泉县'],[],[],[],[],[],[],[],71.345042247318,0.9858632213235644,115.32828737405632,32.85900566936147,0.9999999999999971,寝
403,403,197.0,鄀,湖北省宜城市东南,['湖北省宜城市东南'],东南,"[['湖北', '宜城']]",[{'county': 420684}],County,[],modern,POINT (112.54929721526733 31.592039069509852),['湖北省'],['襄阳市'],['宜城市'],[],[],[],[],[],[],[],77.6579610638108,0.9846123378241656,112.54929721526732,31.59203906950985,0.9999999999999991,﻿鄀
404,404,198.0,宛,河南省南阳市,['河南省南阳市'],,"[['河南', '南阳']]",[{'prefecture': 4113}],Prefecture,[],modern,POINT (112.18605667760141 33.06080863027986),['河南省'],['南阳市'],['NA'],[],[],[],[],[],[],[],281.5621607697731,0.9442094107021022,112.1860566776014,33.06080863027986,0.9999999999999999,申；宛
405,405,198.0,申县,河南省南阳市,['河南省南阳市'],,"[['河南', '南阳']]",[{'prefecture': 4113}],Prefecture,[],modern,POINT (112.18605667760141 33.06080863027986),['河南省'],['南阳市'],['NA'],[],[],[],[],[],[],[],281.5621607697731,0.9442094107021022,112.1860566776014,33.06080863027986,0.9999999999999999,申；宛
406,406,198.0,汉中,陕西省汉中市,['陕西省汉中市'],,"[['陕西', '汉中']]",[{'prefecture': 6107}],Prefecture,[],modern,POINT (107.02313109729458 33.01812403770947),['陕西省'],['汉中市'],['NA'],[],[],[],[],[],[],[],262.943312937908,0.947898672390348,107.02313109729458,33.01812403770947,0.0,
407,407,198.0,重丘,陕西省汉中市,['陕西省汉中市'],,"[['陕西', '汉中']]",[{'prefecture': 6107}],Prefecture,[],modern,POINT (107.02313109729458 33.01812403770947),['陕西省'],['汉中市'],['NA'],[],[],[],[],[],[],[],262.943312937908,0.947898672390348,107.02313109729458,33.01812403770947,0.0,
408,408,198.0,郢,湖北省荆州市,['湖北省荆州市'],,"[['湖北', '荆州']]",[{'prefecture': 4210}],Prefecture,[],modern,POINT (112.64273643525132 30.059156941032178),['湖北省'],['荆州市'],['NA'],[],[],[],[],[],[],[],273.3601951915704,0.9458346024244486,112.64273643525132,30.059156941032175,0.0,
409,409,199.0,楚县,河南省西峡县,['河南省西峡县'],,"[['河南', '西峡']]",[{'county': 411323}],County,[],modern,POINT (111.33477339151108 33.463616943856806),['河南省'],['南阳市'],['西峡县'],[],[],[],[],[],[],[],87.43215001714287,0.9826756153607332,111.33477339151108,33.463616943856806,0.0,
410,410,200.0,叶县,今河南省叶县南,['今河南省叶县南'],南,"[['叶县', '河南']]",[{'LEV1': 'hvd_598'}],['县'],[],historic,POINT (113.34553 33.6233),['河南省'],['平顶山市'],['叶县'],['叶县'],['南阳府'],['河南'],[],[],[1820],[1820],4.515929743701452,0.9991051838040304,113.34553,33.6233,0.7183189632417666,﻿叶
411,411,201.0,阴县,今湖北省老河口市北,['今湖北省老河口市北'],北,"[['湖北', '老河口']]",[{'county': 420682}],County,[],modern,POINT (111.67881903115388 32.57905262069674),['湖北省'],['襄阳市'],['老河口市'],[],[],[],[],[],[],[],51.66357793365909,0.989763036871586,111.67881903115388,32.57905262069674,0.999999999999992,﻿阴
412,412,202.0,息县,河南省息县西南,['河南省息县西南'],西南,"[['息县', '河南']]",[{'LEV1': 'hvd_617'}],['县'],[],historic,POINT (114.72909 32.34243),['河南省'],['信阳市'],['息县'],['息县'],['光州'],['河南'],[],[],[1820],[1820],3.9742886596587694,0.9992125081518194,114.72909,32.34243,0.9568576323084672,﻿息
413,413,203.0,武城,今河南省信阳市东北,['今河南省信阳市东北'],东北,"[['河南', '信阳']]",[{'prefecture': 4115}],Prefecture,[],modern,POINT (115.3846284156569 32.34860379712833),['河南省'],['信阳市'],['NA'],[],[],[],[],[],[],[],217.99362149396168,0.9568053016318638,115.3846284156569,32.34860379712833,0.9999999999999999,﻿武城
414,414,204.0,上庸,湖北省竹山县西南,['湖北省竹山县西南'],西南,"[['湖北', '竹山']]",[{'county': 420323}],County,[],modern,POINT (110.02016358021368 32.23409831660457),['湖北省'],['十堰市'],['竹山县'],[],[],[],[],[],[],[],125.85399421180506,0.975062456960216,110.02016358021368,32.23409831660457,0.9999999999999994,﻿上庸
415,415,205.0,随国,湖北省随州市,['湖北省随州市'],,"[['湖北', '随州']]",[{'prefecture': 4213}],Prefecture,[],modern,POINT (113.40714536481974 31.893582994913427),['湖北省'],['随州市'],['NA'],[],[],[],[],[],[],[],138.2134945216437,0.9726134638006654,113.40714536481974,31.893582994913427,0.9999999999999986,﻿随
416,416,206.0,鄢,湖北省宜城县东南楚王城,['湖北省宜城县东南楚王城'],,"[['湖北', '宜城']]",[{'county': 420684}],County,[],modern,POINT (112.40848498654628 31.67562340909594),['湖北省'],['襄阳市'],['宜城市'],[],[],[],[],[],[],[],77.6579610638108,0.9846123378241656,112.40848498654628,31.67562340909594,0.9999999999999993,鄢
417,417,206.0,郢,湖北省宜城县,['湖北省宜城县'],,"[['湖北', '宜城']]",[{'county': 420684}],County,[],modern,POINT (112.40848498654628 31.67562340909594),['湖北省'],['襄阳市'],['宜城市'],[],[],[],[],[],[],[],77.6579610638108,0.9846123378241656,112.40848498654628,31.67562340909594,0.0,
418,418,206.0,鄢子国,县西南九里,['县西南九里'],,[['九里']],[{'LEV1': 'hvd_154059'}],['村镇'],[],historic,POINT (107.06186 25.46711),"['云南省', '山东省']","['青岛市', '普洱市']","['市南区', '西盟佤族自治县']",['九里'],['南丹土州'],['庆远府'],['广西'],[],[1911],[1911],3.5872022559078824,0.9992892080127505,107.06186,25.46711,0.0,鄢
419,419,207.0,陈县,今河南省淮阳县,['今河南省淮阳县'],,"[['河南', '淮阳']]",[{'county': 411603}],County,[],modern,POINT (114.83825605453461 33.678069228952864),['河南省'],['周口市'],['淮阳区'],[],[],[],[],[],[],[],64.09541647393486,0.9872997101364804,114.8382560545346,33.678069228952864,0.9999999999999893,﻿陈
421,421,207.0,陈,楚顷襄王东徒治于陈县,['楚顷襄王东徒治于陈县'],,[['陈县']],[{'LEV1': 'hvd_82001'}],['县'],[],historic,POINT (114.88245 33.73398),[],[],[],['陈县'],['楚国'],[],[],[],[-479],[13],7.377639193787281,0.998538145761052,114.88245,33.73398,0.9671867461885326,﻿陈
422,422,208.0,沈国,河南省平舆县北,['河南省平舆县北'],北,"[['河南', '平舆']]",[{'county': 411723}],County,[],modern,POINT (114.6141132524672 33.090581254088775),['河南省'],['驻马店市'],['平舆县'],[],[],[],[],[],[],[],50.68834719294588,0.9899562755424964,114.6141132524672,33.090581254088775,0.0,
423,423,208.0,平县,河南省平舆县,['河南省平舆县'],,"[['河南', '平舆']]",[{'county': 411723}],County,[],modern,POINT (114.62813044872894 32.94796881069685),['河南省'],['驻马店市'],['平舆县'],[],[],[],[],[],[],[],50.68834719294588,0.9899562755424964,114.62813044872894,32.94796881069685,0.777000656482622,﻿平舆
424,424,209.0,莒,山东省莒县,['山东省莒县'],,"[['山东', '莒']]",[{'county': 371122}],County,[],modern,POINT (118.94914208359154 35.702241869277174),['山东省'],['日照市'],['莒县'],[],[],[],[],[],[],[],79.00482759761026,0.9843454607785398,118.94914208359154,35.702241869277174,0.9999999999999991,莒
425,425,209.0,计斤,山东省胶州市西南,['山东省胶州市西南'],西南,"[['山东', '胶州']]",[{'county': 370281}],County,[],modern,POINT (119.82850693451326 36.11687700930031),['山东省'],['青岛市'],['胶州市'],[],[],[],[],[],[],[],65.01276047904902,0.9871179415263296,119.82850693451326,36.11687700930031,0.0,
426,426,210.0,鲁阳公,河南省鲁山县,['河南省鲁山县'],,"[['河南', '鲁山']]",[{'county': 410423}],County,[],modern,POINT (112.66968658592764 33.77054235455924),['河南省'],['平顶山市'],['鲁山县'],[],[],[],[],[],[],[],91.6839266446544,0.9818331402107936,112.66968658592764,33.77054235455924,0.0,
427,427,211.0,临沅县,湖南省常德市西,['湖南省常德市西'],西,"[['湖南', '常德']]",[{'prefecture': 4307}],Prefecture,[],modern,POINT (111.37972299663335 29.266696335577038),['湖南省'],['常德市'],['NA'],[],[],[],[],[],[],[],227.71869396218517,0.9548783114337364,111.37972299663336,29.26669633557704,1.0,﻿临沅
428,428,212.0,广陵,今江苏省扬州市西北,['今江苏省扬州市西北'],西北,"[['江苏', '扬州']]",[{'prefecture': 3210}],Prefecture,[],modern,POINT (119.41161384179128 33.09173205664527),['江苏省'],['扬州市'],['NA'],[],[],[],[],[],[],[],136.45269763463168,0.9729623597449631,119.41161384179128,33.09173205664527,0.999999999999998,﻿广陵
429,429,213.0,居巢,安徽省六安县东北,['安徽省六安县东北'],东北,"[['安徽', '六安']]",[{'prefecture': 3415}],Prefecture,[],modern,POINT (116.38500765126264 32.11546780411756),['安徽省'],['六安市'],['NA'],[],[],[],[],[],[],[],187.43994125182329,0.9628594099725164,116.38500765126264,32.11546780411756,0.9999999999999984,﻿居巢
430,430,214.0,吴国都城,江苏省苏州市,['江苏省苏州市'],,"[['江苏', '苏州']]",[{'prefecture': 3205}],Prefecture,[],modern,POINT (120.70793150044615 31.401362843263264),['江苏省'],['苏州市'],['NA'],[],[],[],[],[],[],[],139.52345345223057,0.9723538998717138,120.70793150044616,31.401362843263264,0.0,
431,431,215.0,蔡国,河南省上蔡县城关一带,['河南省上蔡县城关一带'],,"[['河南', '上蔡']]",[{'county': 411722}],County,[],modern,POINT (114.43138227105428 33.31576190188675),['河南省'],['驻马店市'],['上蔡县'],[],[],[],[],[],[],[],59.46750170343979,0.9882167157865313,114.43138227105428,33.31576190188675,0.9999999999999949,﻿上蔡
432,432,215.0,新蔡,河南省新蔡县,['河南省新蔡县'],,"[['河南', '新蔡']]",[{'county': 411729}],County,[],modern,POINT (114.93192773327081 32.800446441694675),['河南省'],['驻马店市'],['新蔡县'],[],[],[],[],[],[],[],53.79125465482472,0.9893414449297402,114.9319277332708,32.800446441694675,0.0,
433,433,215.0,州来,安徽省凤台县,['安徽省凤台县'],,"[['安徽', '凤台']]",[{'county': 340421}],County,[],modern,POINT (116.58463247421815 32.77307801044718),['安徽省'],['淮南市'],['凤台县'],[],[],[],[],[],[],[],55.82160224992787,0.9889391384248438,116.58463247421815,32.77307801044718,0.0,
434,434,215.0,上蔡,楚县,['楚县'],,[['楚']],[{'LEV2': 'hvd_115121'}],['国'],[],historic,POINT (112.19077 30.35045),[],[],[],[],['楚'],[],[],[],[-616.0],[-207.0],0.0011085836965403,0.9999997803378922,112.19077,30.35045,0.0,﻿上蔡
435,435,217.0,钟离,安徽省凤阳县东北临淮关,['安徽省凤阳县东北临淮关'],,"[['安徽', '凤阳']]",[{'county': 341126}],County,[],modern,POINT (117.61672510764127 32.84248527073355),['安徽省'],['滁州市'],['凤阳县'],[],[],[],[],[],[],[],78.72892723219927,0.984400129502248,117.61672510764129,32.84248527073355,0.9999999999999998,﻿钟离
436,436,218.0,朱方,江苏省镇江市东丹徒镇,['江苏省镇江市东丹徒镇'],,"[['江苏', '镇江', '丹徒']]",[{'county': 321112}],County,[],modern,POINT (119.41384689493543 32.04274323946893),['江苏省'],['镇江市'],['丹徒区'],[],[],[],[],[],[],[],46.859567957671125,0.9907149351906664,119.41384689493545,32.04274323946893,0.9999999999999998,﻿朱方
437,437,220.0,襄城县,河南省襄城县,['河南省襄城县'],,"[['河南', '襄城']]",[{'county': 411025}],County,[],modern,POINT (113.56201351843009 33.8560914989737),['河南省'],['许昌市'],['襄城县'],[],[],[],[],[],[],[],44.64150679413128,0.9911544365038908,113.56201351843008,33.8560914989737,0.9999999999999964,﻿襄城
438,438,223.0,兰陵,山东省苍山县西南,['山东省苍山县西南'],西南,"[['山东', '苍山']]",[{'county': 371324}],County,[],modern,POINT (117.91594666820498 34.760535810746845),['山东省'],['临沂市'],['兰陵县'],[],[],[],[],[],[],[],58.59692928051611,0.9883892167659548,117.91594666820498,34.760535810746845,0.9999999999999939,﻿兰陵
439,439,224.0,寿春,安徽省寿县,['安徽省寿县'],,"[['安徽', '寿']]",[{'county': 340422}],County,[],modern,POINT (116.78281303829905 32.288368620639915),['安徽省'],['淮南市'],['寿县'],[],[],[],[],[],[],[],83.85817003144743,0.983383787399887,116.78281303829904,32.288368620639915,0.9999999999999954,寿春
440,440,225.0,秦县,甘肃省天水市,['甘肃省天水市'],,"[['甘肃', '天水']]",[{'prefecture': 6205}],Prefecture,[],modern,POINT (105.5352232950286 34.619472378442836),['甘肃省'],['天水市'],['NA'],[],[],[],[],[],[],[],201.4318231166158,0.960086965932134,105.5352232950286,34.61947237844284,0.0,
441,441,225.0,上邽,甘肃省天水市,['甘肃省天水市'],,"[['甘肃', '天水']]",[{'prefecture': 6205}],Prefecture,[],modern,POINT (105.5352232950286 34.619472378442836),['甘肃省'],['天水市'],['NA'],[],[],[],[],[],[],[],201.4318231166158,0.960086965932134,105.5352232950286,34.61947237844284,1.0,﻿上邽
442,442,225.5,秦县,甘肃省甘谷县东,['甘肃省甘谷县东'],东,"[['甘肃', '甘谷']]",[{'county': 620523}],County,[],modern,POINT (105.38786041632565 34.8033147929916),['甘肃省'],['天水市'],['甘谷县'],[],[],[],[],[],[],[],61.324121826153046,0.9878488327923628,105.38786041632564,34.8033147929916,0.0,
443,443,226.0,邽,陕西省渭南市北,['陕西省渭南市北'],北,"[['陕西', '渭南']]",[{'prefecture': 6105}],Prefecture,[],modern,POINT (110.00115251300494 35.400639776140196),['陕西省'],['渭南市'],['NA'],[],[],[],[],[],[],[],197.4939403291829,0.9608672440799372,110.00115251300494,35.4006397761402,0.9999999999999999,下邽
444,444,227.0,秦县,陕西省西安市南,['陕西省西安市南'],南,"[['陕西', '西安']]",[{'prefecture': 6101}],Prefecture,[],modern,POINT (108.37655211009269 33.90806790964804),['陕西省'],['西安市'],['NA'],[],[],[],[],[],[],[],202.7964889995957,0.9598165620057044,108.37655211009267,33.90806790964804,0.0,
445,445,227.0,杜县,陕西省西安市南,['陕西省西安市南'],南,"[['陕西', '西安']]",[{'prefecture': 6101}],Prefecture,[],modern,POINT (108.37655211009269 33.90806790964804),['陕西省'],['西安市'],['NA'],[],[],[],[],[],[],[],202.7964889995957,0.9598165620057044,108.37655211009267,33.90806790964804,0.0,杜
446,446,228.0,秦县,陕西省华县,['陕西省华县'],,"[['陕西', '华']]",[{'county': 610503}],County,[],modern,POINT (109.79253308275264 34.415757407111215),['陕西省'],['渭南市'],['华州区'],[],[],[],[],[],[],[],51.39288001389804,0.9898166747482948,109.79253308275264,34.415757407111215,0.0,
447,447,229.0,小虢,今陕西省宝鸡县西,['今陕西省宝鸡县西'],西,"[['陕西', '宝鸡']]",[{'prefecture': 6103}],Prefecture,[],modern,POINT (106.94613373891386 34.33615837434442),['陕西省'],['宝鸡市'],['NA'],[],[],[],[],[],[],[],192.54875534926427,0.961847115748284,106.94613373891386,34.33615837434442,0.0,
448,448,231.0,大荔,陕西省大荔县东,['陕西省大荔县东'],东,"[['陕西', '大荔']]",[{'county': 610523}],County,[],modern,POINT (110.13906473332085 34.831089168560425),['陕西省'],['渭南市'],['大荔县'],[],[],[],[],[],[],[],67.21920569703477,0.986680741873406,110.13906473332084,34.831089168560425,0.0,
449,449,231.0,临晋,陕西省大荔县,['陕西省大荔县'],,"[['陕西', '大荔']]",[{'county': 610523}],County,[],modern,POINT (110.01210300467098 34.82411115789529),['陕西省'],['渭南市'],['大荔县'],[],[],[],[],[],[],[],67.21920569703477,0.986680741873406,110.01210300467098,34.82411115789529,0.9278176835188758,﻿临晋
450,450,233.0,频阳县,今陕西省富平县东北,['今陕西省富平县东北'],东北,"[['陕西', '富平']]",[{'county': 610528}],County,[],modern,POINT (109.33494986510146 35.00258894572769),['陕西省'],['渭南市'],['富平县'],[],[],[],[],[],[],[],52.34314143168331,0.9896283836642216,109.33494986510146,35.00258894572769,0.9999999999999907,﻿频阳
451,451,234.0,雍城,陕西省凤翔县西南,['陕西省凤翔县西南'],西南,"[['陕西', '凤翔']]",[{'county': 610322}],County,[],modern,POINT (107.3134763512032 34.527650557895754),['陕西省'],['宝鸡市'],['凤翔县'],[],[],[],[],[],[],[],48.04201719141218,0.9904806368766284,107.3134763512032,34.527650557895754,0.0,
452,452,234.0,泾阳,陕西省泾阳县,['陕西省泾阳县'],,"[['陕西', '泾阳']]",[{'county': 610423}],County,[],modern,POINT (108.76507167104455 34.5977177725984),['陕西省'],['咸阳市'],['泾阳县'],[],[],[],[],[],[],[],53.221666747827314,0.9894543068459204,108.76507167104457,34.5977177725984,0.0,
453,453,235.0,籍姑,陕西省韩城市北,['陕西省韩城市北'],北,"[['陕西', '韩城']]",[{'county': 610581}],County,[],modern,POINT (110.37062928554487 35.70511797847071),['陕西省'],['渭南市'],['韩城市'],[],[],[],[],[],[],[],60.05591235794816,0.9881001242066312,110.37062928554488,35.70511797847071,0.9999999999999989,﻿籍姑
454,454,235.0,庞,陕西省韩城市东南,['陕西省韩城市东南'],东南,"[['陕西', '韩城']]",[{'county': 610581}],County,[],modern,POINT (110.44928720726946 35.42669175191095),['陕西省'],['渭南市'],['韩城市'],[],[],[],[],[],[],[],60.05591235794816,0.9881001242066312,110.44928720726946,35.42669175191095,0.9999999999999997,庞
455,455,236.0,堑洛,蒲城县南,['蒲城县南'],南,[['蒲城']],[{'county': 610526}],County,[],modern,POINT (109.54878441162299 34.86525386003879),['陕西省'],['渭南市'],['蒲城县'],[],[],[],[],[],[],[],55.66178187377762,0.988970806291516,109.548784411623,34.86525386003879,0.0,
456,456,236.0,城重泉,蒲城县南,['蒲城县南'],南,[['蒲城']],[{'county': 610526}],County,[],modern,POINT (109.54878441162299 34.86525386003879),['陕西省'],['渭南市'],['蒲城县'],[],[],[],[],[],[],[],55.66178187377762,0.988970806291516,109.548784411623,34.86525386003879,0.0,
457,457,237.0,栎阳,陕西省临潼县东北,['陕西省临潼县东北'],东北,"[['陕西', '临潼']]",[{'county': 610115}],County,[],modern,POINT (109.34907300242497 34.55444291971308),['陕西省'],['西安市'],['临潼区'],[],[],[],[],[],[],[],47.55745337607611,0.9905766515567832,109.34907300242496,34.55444291971308,1.0,﻿栎阳
458,458,238.0,蓝田,陕西省蓝田县西,['陕西省蓝田县西'],西,"[['陕西', '蓝田']]",[{'county': 610122}],County,[],modern,POINT (109.27892635219146 34.08263121859176),['陕西省'],['西安市'],['蓝田县'],[],[],[],[],[],[],[],63.36555053323605,0.987444330602628,109.27892635219146,34.08263121859176,0.999999999999988,蓝田
459,459,242.0,高陵,陕西省高陵县,['陕西省高陵县'],,"[['陕西', '高陵']]",[{'county': 610117}],County,[],modern,POINT (109.06911747025248 34.510268812237626),['陕西省'],['西安市'],['高陵区'],[],[],[],[],[],[],[],24.515089102850563,0.9951424180578836,109.06911747025248,34.510268812237626,0.9999999999999691,﻿高陵
460,460,243.0,邰国,陕西省武功县西南,['陕西省武功县西南'],西南,"[['陕西', '武功']]",[{'county': 610431}],County,[],modern,POINT (108.14858934043724 34.270679564909784),['陕西省'],['咸阳市'],['武功县'],[],[],[],[],[],[],[],36.90183488870528,0.9926880262994644,108.14858934043724,34.270679564909784,0.0,
461,461,243.0,斄县,陕西省武功县西北,['陕西省武功县西北'],西北,"[['陕西', '武功']]",[{'county': 610431}],County,[],modern,POINT (108.10264563970856 34.371274503164045),['陕西省'],['咸阳市'],['武功县'],[],[],[],[],[],[],[],36.90183488870528,0.9926880262994644,108.10264563970856,34.371274503164045,0.7634231015687194,﻿斄
462,462,243.0,美阳县,陕西省武功县西北,['陕西省武功县西北'],西北,"[['陕西', '武功']]",[{'county': 610431}],County,[],modern,POINT (108.10264563970856 34.371274503164045),['陕西省'],['咸阳市'],['武功县'],[],[],[],[],[],[],[],36.90183488870528,0.9926880262994644,108.10264563970856,34.371274503164045,0.9999999999999756,美阳
463,463,243.0,武功县,陕西省眉县东,['陕西省眉县东'],东,"[['陕西', '眉']]",[{'county': 610326}],County,[],modern,POINT (107.89926559127012 34.15615944358678),['陕西省'],['宝鸡市'],['眉县'],[],[],[],[],[],[],[],42.31770957752598,0.9916148890582,107.89926559127012,34.15615944358678,0.9999999999999989,武功
464,464,244.0,咸阳,陕西省咸阳市东,['陕西省咸阳市东'],东,"[['陕西', '咸阳']]",[{'prefecture': 6104}],Prefecture,[],modern,POINT (108.55681784087722 34.885061392510835),['陕西省'],['咸阳市'],['NA'],[],[],[],[],[],[],[],154.25314211593607,0.969435261911002,108.55681784087722,34.885061392510835,0.9999999999999986,咸阳
465,465,245.0,武城,陕西华县东北,['陕西华县东北'],东北,"[['陕西', '华']]",[{'county': 610503}],County,[],modern,POINT (109.84804060727446 34.49222526629286),['陕西省'],['渭南市'],['华州区'],[],[],[],[],[],[],[],51.39288001389804,0.9898166747482948,109.84804060727446,34.49222526629286,0.9999999999999994,﻿武城
466,466,246.0,商县,陕西省丹凤县西北,['陕西省丹凤县西北'],西北,"[['陕西', '丹凤']]",[{'county': 611022}],County,[],modern,POINT (110.31910484136895 33.81936465878717),['陕西省'],['商洛市'],['丹凤县'],[],[],[],[],[],[],[],67.09282882311423,0.9867057830232904,110.31910484136895,33.81936465878717,0.999999999999992,﻿商（於商）
467,467,249.0,陕县,今河南省陕县西南,['今河南省陕县西南'],西南,"[['河南', '陕']]",[{'county': 411203}],County,[],modern,POINT (111.24186643263359 34.5378990500108),['河南省'],['三门峡市'],['陕州区'],[],[],[],[],[],[],[],65.87087084212816,0.9869479098618902,111.2418664326336,34.5378990500108,0.9999999999999949,﻿陕
468,468,255.0,义渠,甘肃省庆阳市西南,['甘肃省庆阳市西南'],西南,"[['甘肃', '庆阳']]",[{'prefecture': 6210}],Prefecture,[],modern,POINT (107.2510416493361 35.80698140934946),['甘肃省'],['庆阳市'],['NA'],[],[],[],[],[],[],[],262.0798602487937,0.9480697626186118,107.2510416493361,35.80698140934946,0.9999999999999993,﻿义渠
469,469,256.0,南郑,陕西省汉中市,['陕西省汉中市'],,"[['陕西', '汉中']]",[{'prefecture': 6107}],Prefecture,[],modern,POINT (107.02313109729458 33.01812403770947),['陕西省'],['汉中市'],['NA'],[],[],[],[],[],[],[],262.943312937908,0.947898672390348,107.02313109729458,33.01812403770947,1.0,﻿南郑
470,470,258.0,朐衍,宁夏回族自治区盐池县境,['宁夏回族自治区盐池县境'],,"[['宁夏', '盐池']]",[{'county': 640323}],County,[],modern,POINT (106.98778738738284 37.63455424942703),['宁夏回族自治区'],['吴忠市'],['盐池县'],[],[],[],[],[],[],[],128.111521146414,0.9746151356380136,106.98778738738284,37.63455424942703,0.9999999999999998,﻿朐衍
471,471,259.0,巴子国都城,重庆市嘉陵江北岸,['重庆市嘉陵江北岸'],,"[['重庆', '江北']]",[{'county': 500105}],County,[],modern,POINT (106.67583477107067 29.60435456341),['重庆市'],['重庆市辖区'],['江北区'],[],[],[],[],[],[],[],42.26976500073053,0.9916243891138388,106.67583477107068,29.60435456341,0.0,
472,472,259.0,江州县,重庆市嘉陵江北岸,['重庆市嘉陵江北岸'],,"[['重庆', '江北']]",[{'county': 500105}],County,[],modern,POINT (106.67583477107067 29.60435456341),['重庆市'],['重庆市辖区'],['江北区'],[],[],[],[],[],[],[],42.26976500073053,0.9916243891138388,106.67583477107068,29.60435456341,0.9999999999999889,﻿江州
473,473,259.0,巴郡,江州,['江州'],,[['江州']],[{'county': 451402}],County,[],modern,POINT (107.33901676791362 22.523708629513393),['广西壮族自治区'],['崇左市'],['江州区'],[],[],[],[],[],[],[],86.28812977527534,0.9829022991000824,107.33901676791362,22.523708629513397,0.0,
474,474,260.0,鱼复县,今重庆市奉节县东白帝城,['今重庆市奉节县东白帝城'],,"[['重庆', '奉节']]",[{'county': 500236}],County,[],modern,POINT (109.38425764019328 30.953245560781887),['重庆市'],['重庆市辖县'],['奉节县'],[],[],[],[],[],[],[],99.40356819018764,0.9803035193632464,109.38425764019328,30.953245560781887,0.9999999999999963,﻿鱼复
475,475,261.0,阆中县,四川省阆中市,['四川省阆中市'],,"[['四川', '阆中']]",[{'county': 511381}],County,[],modern,POINT (105.97345273943043 31.60576248897682),['四川省'],['南充市'],['阆中市'],[],[],[],[],[],[],[],69.6606122253841,0.9861969854319864,105.97345273943044,31.60576248897682,0.9999999999999929,﻿阆中
476,476,262.0,汶山,天彭门,['天彭门'],,[['彭']],[{'county': 510182}],County,[],modern,POINT (103.85574921160539 31.177529415743784),['四川省'],['成都市'],['彭州市'],[],[],[],[],[],[],[],67.43732991696592,0.9866375212973996,103.8557492116054,31.177529415743784,0.0,
477,477,262.0,湔氏县,天彭阙,['天彭阙'],,[['彭']],[{'county': 510182}],County,[],modern,POINT (103.85574921160539 31.177529415743784),['四川省'],['成都市'],['彭州市'],[],[],[],[],[],[],[],67.43732991696592,0.9866375212973996,103.8557492116054,31.177529415743784,0.0,﻿湔氏
478,478,262.0,氏道县,陇西郡,['陇西郡'],,[['陇西']],[{'county': 621122}],County,[],modern,POINT (104.62533511339038 35.1146927561706),['甘肃省'],['定西市'],['陇西县'],[],[],[],[],[],[],[],65.80638553231081,0.9869606874078002,104.62533511339038,35.1146927561706,0.0,
479,479,262.0,湔氐县,四川省松潘县西北,['四川省松潘县西北'],西北,"[['四川', '松潘']]",[{'county': 513224}],County,[],modern,POINT (103.40900801854353 32.88525757117182),['四川省'],['阿坝藏族羌族自治州'],['松潘县'],[],[],[],[],[],[],[],151.35218384189454,0.970010076975622,103.40900801854352,32.88525757117182,0.9999999999999997,湔氐
480,480,264.0,乌氏,乌氏县在今宁夏回族自治区固原市东南,['乌氏县在今宁夏回族自治区固原市东南'],东南,"[['宁夏', '固原']]",[{'prefecture': 6404}],Prefecture,[],modern,POINT (106.33435613141629 35.63195698548123),['宁夏回族自治区'],['固原市'],['NA'],[],[],[],[],[],[],[],148.17760362207522,0.9706391093028102,106.33435613141629,35.63195698548123,0.9999999999999991,﻿乌氏
481,481,265.0,成都,四川省成都市,['四川省成都市'],,"[['四川', '成都']]",[{'prefecture': 5101}],Prefecture,[],modern,POINT (103.89980761022714 30.76683476917567),['四川省'],['成都市'],['NA'],[],[],[],[],[],[],[],184.4087563448245,0.9634600290037456,103.89980761022714,30.76683476917567,0.3518045493571713,﻿成都
482,482,266.0,成都,四川省成都市,['四川省成都市'],,"[['四川', '成都']]",[{'prefecture': 5101}],Prefecture,[],modern,POINT (103.89980761022714 30.76683476917567),['四川省'],['成都市'],['NA'],[],[],[],[],[],[],[],184.4087563448245,0.9634600290037456,103.89980761022714,30.76683476917567,0.0,
483,483,266.0,郫县,四川省郫县,['四川省郫县'],,"[['郫县', '四川']]",[{'LEV1': 'hvd_1223'}],['县'],[],historic,POINT (103.88877 30.80707),['四川省'],['成都市'],['郫都区'],['郫县'],['成都府'],['四川'],[],[],[1820],[1820],0.2015133316987893,0.9999600708152824,103.88877,30.80707,0.9823132517628453,﻿郫
484,484,267.0,成都,四川省,['四川省'],,[['四川']],[{'province': 51}],Province,[],modern,POINT (102.32344509525691 30.196911024550563),['四川省'],['NA'],['NA'],[],[],[],[],[],[],[],1084.799881772152,0.7850505745910745,102.32344509525691,30.196911024550563,0.0,
485,485,267.0,郫城,四川省,['四川省'],,[['四川']],[{'province': 51}],Province,[],modern,POINT (102.32344509525691 30.196911024550563),['四川省'],['NA'],['NA'],[],[],[],[],[],[],[],1084.799881772152,0.7850505745910745,102.32344509525691,30.196911024550563,0.0,
486,486,267.0,临邛城,四川省邛崃市,['四川省邛崃市'],,"[['四川', '邛崃']]",[{'county': 510183}],County,[],modern,POINT (103.43078694949861 30.376885528351863),['四川省'],['成都市'],['邛崃市'],[],[],[],[],[],[],[],68.89228960238495,0.9863492259595874,103.4307869494986,30.376885528351863,0.0,
487,487,268.0,郿邑,陕西省眉县东北,['陕西省眉县东北'],东北,"[['陕西', '眉']]",[{'county': 610326}],County,[],modern,POINT (107.89926559127012 34.17936920883804),['陕西省'],['宝鸡市'],['眉县'],[],[],[],[],[],[],[],42.31770957752598,0.9916148890582,107.89926559127012,34.17936920883804,0.0,
488,488,268.0,郿县,陕西省眉县东北,['陕西省眉县东北'],东北,"[['陕西', '眉']]",[{'county': 610326}],County,[],modern,POINT (107.89926559127012 34.17936920883804),['陕西省'],['宝鸡市'],['眉县'],[],[],[],[],[],[],[],42.31770957752598,0.9916148890582,107.89926559127012,34.17936920883804,0.9999999999999991,﻿郿
489,489,270.0,宜阳城,山西省垣曲县东南,['山西省垣曲县东南'],东南,"[['山西', '垣曲']]",[{'county': 140827}],County,[],modern,POINT (111.95547897846053 35.17075479973811),['山西省'],['运城市'],['垣曲县'],[],[],[],[],[],[],[],55.8526680635654,0.988932982839004,111.95547897846052,35.17075479973811,0.0,
490,490,270.0,武遂,山西省临汾市西南,['山西省临汾市西南'],西南,"[['山西', '临汾']]",[{'prefecture': 1410}],Prefecture,[],modern,POINT (110.95969003614391 35.8697002512513),['山西省'],['临汾市'],['NA'],[],[],[],[],[],[],[],219.4164835937833,0.9565233663220136,110.95969003614393,35.8697002512513,0.0,﻿武遂
491,491,270.0,武遂县,韩国,['韩国'],,[['韩国']],[{'LEV2': 'hvd_112597'}],['国'],[],historic,POINT (113.46706 34.16249),[],[],[],[],['韩国'],['西汉'],[],[],[-202.0],[-202.0],3.86855046051956,0.9992334598181412,113.46706,34.16249,0.0,﻿武遂
492,492,275.0,广衍,内蒙古自治区准格尔旗西南,['内蒙古自治区准格尔旗西南'],西南,"[['内蒙古', '准格尔旗']]",[{'county': 150622}],County,[],modern,POINT (110.61314772747882 39.562919507989925),['内蒙古自治区'],['鄂尔多斯市'],['准格尔旗'],[],[],[],[],[],[],[],119.53576043328532,0.9763143936013532,110.61314772747882,39.562919507989925,0.999999999999999,广衍
493,493,277.0,邯郸,陕西省延安市东南,['陕西省延安市东南'],东南,"[['陕西', '延安']]",[{'prefecture': 6106}],Prefecture,[],modern,POINT (109.90557162811635 36.029932889983094),['陕西省'],['延安市'],['NA'],[],[],[],[],[],[],[],294.1588302526417,0.9417134232735402,109.90557162811636,36.02993288998309,0.0,
494,494,277.0,定阳,陕西省延安市东南,['陕西省延安市东南'],东南,"[['陕西', '延安']]",[{'prefecture': 6106}],Prefecture,[],modern,POINT (109.90557162811635 36.029932889983094),['陕西省'],['延安市'],['NA'],[],[],[],[],[],[],[],294.1588302526417,0.9417134232735402,109.90557162811636,36.02993288998309,0.9999999999999998,﻿定阳
495,495,284.0,梗阳,赵县,['赵县'],,[['赵']],[{'county': 130133}],County,[],modern,POINT (114.84986570556961 37.7772686779257),['河北省'],['石家庄市'],['赵县'],[],[],[],[],[],[],[],40.59704450289596,0.9919558330196878,114.8498657055696,37.7772686779257,0.0,﻿梗阳
496,496,290.0,狄道,甘肃省临洮县,['甘肃省临洮县'],,"[['甘肃', '临洮']]",[{'county': 621124}],County,[],modern,POINT (104.03289503000583 35.52038835747743),['甘肃省'],['定西市'],['临洮县'],[],[],[],[],[],[],[],99.80944108488713,0.9802230970227108,104.03289503000585,35.52038835747743,0.9999999999999982,﻿狄道
497,497,293.0,穰,河南省邓州市,['河南省邓州市'],,"[['河南', '邓州']]",[{'county': 411381}],County,[],modern,POINT (112.09207514991527 32.70213990455176),['河南省'],['南阳市'],['邓州市'],[],[],[],[],[],[],[],73.69042944612337,0.9853984907873468,112.09207514991527,32.70213990455176,0.99999999999999,﻿穰
498,498,293.0,鄢,穰县故城南,['穰县故城南'],南,[['故城']],[{'county': 131126}],County,[],modern,POINT (115.83947959860129 37.205434133471144),['河北省'],['衡水市'],['故城县'],[],[],[],[],[],[],[],58.382367671961305,0.9884317314225736,115.83947959860129,37.20543413347114,0.0,
499,499,294.0,筑阳县,湖北省谷城县东,['湖北省谷城县东'],东,"[['湖北', '谷城']]",[{'county': 420625}],County,[],modern,POINT (111.60537401688737 32.226937456873486),['湖北省'],['襄阳市'],['谷城县'],[],[],[],[],[],[],[],70.24257297962865,0.9860816718779962,111.60537401688735,32.226937456873486,0.9999999999999987,﻿筑阳
500,500,295.0,枳,重庆市涪陵区东北,['重庆市涪陵区东北'],东北,"[['重庆', '涪陵']]",[{'county': 500102}],County,[],modern,POINT (107.47158982960522 29.803349296687948),['重庆市'],['重庆市辖区'],['涪陵区'],[],[],[],[],[],[],[],79.65273664934335,0.9842170797925834,107.47158982960522,29.803349296687948,0.9999999999999968,﻿枳
501,501,296.0,郢,湖北省江陵县西北纪南城,['湖北省江陵县西北纪南城'],,"[['湖北', '江陵']]",[{'county': 421024}],County,[],modern,POINT (112.46316854623493 30.091462266142543),['湖北省'],['荆州市'],['江陵县'],[],[],[],[],[],[],[],52.83034985695383,0.989531844963558,112.46316854623493,30.091462266142543,0.9999999999999822,﻿郢
502,502,299.0,巫本,重庆市巫山县北,['重庆市巫山县北'],北,"[['重庆', '巫山']]",[{'county': 500237}],County,[],modern,POINT (109.93246161656182 31.336727825061292),['重庆市'],['重庆市辖县'],['巫山县'],[],[],[],[],[],[],[],88.58474514957328,0.982447232535838,109.93246161656182,31.33672782506129,0.0,
503,503,299.0,巫县,重庆市巫山县,['重庆市巫山县'],,"[['重庆', '巫山']]",[{'county': 500237}],County,[],modern,POINT (109.96630345162689 31.142293026111695),['重庆市'],['重庆市辖县'],['巫山县'],[],[],[],[],[],[],[],88.58474514957328,0.982447232535838,109.96630345162689,31.14229302611169,0.8578992475723523,﻿巫
504,504,303.0,华阳,河南省新郑市北,['河南省新郑市北'],北,"[['河南', '新郑']]",[{'county': 410184}],County,[],modern,POINT (113.75323506341584 34.567189221284956),['河南省'],['郑州市'],['新郑市'],[],[],[],[],[],[],[],41.76272480774678,0.9917248574121602,113.75323506341584,34.56718922128496,0.999999999999984,﻿华阳
505,505,304.0,卷地,今河南省原阳县西南原武西北,['今河南省原阳县西南原武西北'],西北,"[['河南', '原阳']]",[{'county': 410725}],County,[],modern,POINT (113.87174639248101 35.11626934245543),['河南省'],['新乡市'],['原阳县'],[],[],[],[],[],[],[],63.93833858648497,0.987330834588298,113.871746392481,35.11626934245543,0.0,
506,506,304.0,卷县,今河南省原阳县西南原武西北,['今河南省原阳县西南原武西北'],西北,"[['河南', '原阳']]",[{'county': 410725}],County,[],modern,POINT (113.87174639248101 35.11626934245543),['河南省'],['新乡市'],['原阳县'],[],[],[],[],[],[],[],63.93833858648497,0.987330834588298,113.871746392481,35.11626934245543,0.9999999999999997,﻿卷
507,507,307.0,陶,山东省定陶县,['山东省定陶县'],,"[['山东', '定陶']]",[{'county': 371703}],County,[],modern,POINT (115.62928609886544 35.131485986724925),['山东省'],['菏泽市'],['定陶区'],[],[],[],[],[],[],[],44.59219611395431,0.9911642072482916,115.62928609886544,35.131485986724925,0.9999999999999998,﻿陶
508,508,308.0,郏地,河南省洛阳市西,['河南省洛阳市西'],西,"[['河南', '洛阳']]",[{'prefecture': 4103}],Prefecture,[],modern,POINT (111.5952484042518 34.340656502886404),['河南省'],['洛阳市'],['NA'],[],[],[],[],[],[],[],184.09203691871096,0.9635227858861928,111.5952484042518,34.340656502886404,0.0,
509,509,309.0,梁县,今河南省汝州市西南,['今河南省汝州市西南'],西南,"[['河南', '汝州']]",[{'county': 410482}],County,[],modern,POINT (112.6889180656963 34.037985744007),['河南省'],['平顶山市'],['汝州市'],[],[],[],[],[],[],[],57.184412763632416,0.9886691021335572,112.6889180656963,34.037985744007,0.9999999999999922,﻿梁
510,510,311.0,缑氏,河南偃师市东南,['河南偃师市东南'],东南,"[['河南', '偃师']]",[{'county': 410381}],County,[],modern,POINT (112.81733550072434 34.55477811443505),['河南省'],['洛阳市'],['偃师市'],[],[],[],[],[],[],[],44.69381359443931,0.9911440720884258,112.81733550072434,34.55477811443505,0.9999999999999998,﻿缑氏
512,512,312.0,蔺,纶氏,['纶氏'],,[['纶氏']],[{'LEV1': 'hvd_82900'}],['县'],[],historic,POINT (112.74514 34.42054),[],[],[],['纶氏县'],['颍川郡'],['秦'],[],[],[-206],[78],1.8955510126699089,0.999624402981736,112.74514,34.42054,0.0,
513,513,314.0,宁新中,河南省安阳市南,['河南省安阳市南'],南,"[['河南', '安阳']]",[{'prefecture': 4105}],Prefecture,[],modern,POINT (114.70460181217771 35.549333655835994),['河南省'],['安阳市'],['NA'],[],[],[],[],[],[],[],151.16032408128245,0.970048093337898,114.70460181217771,35.549333655835994,0.9999999999999998,﻿宁新中
514,514,314.0,安阳城,今相州外城,['今相州外城'],,[['相州']],[{'LEV2': 'hvd_112948'}],['州'],[],historic,POINT (114.41195 36.27238),['山西省'],['阳泉市'],['城区'],[],['相州'],['北周'],[],[],[578.0],[606.0],1.899326932350818,0.9996236547960295,114.41195,36.27238,0.4082035916132857,安阳
515,515,315.0,郑县,今河南新郑,['今河南新郑'],,"[['河南', '新郑']]",[{'county': 410184}],County,[],modern,POINT (113.78138131984028 34.480015827257546),['河南省'],['郑州市'],['新郑市'],[],[],[],[],[],[],[],41.76272480774678,0.9917248574121602,113.78138131984028,34.480015827257546,0.9999999999999951,﻿郑
516,516,315.0,韩都,郑县,['郑县'],,[['郑县']],[{'LEV1': 'hvd_70321'}],['县'],[],historic,POINT (109.85004 34.53556),[],[],[],['郑县'],[],[],[],[],[583],[583],5.517793468952785,0.9989066678973646,109.85004,34.53556,0.0,
517,517,316.0,曲阳,今安徽省淮南市东南,['今安徽省淮南市东南'],东南,"[['安徽', '淮南']]",[{'prefecture': 3404}],Prefecture,[],modern,POINT (116.89658297180326 32.19715357131682),['安徽省'],['淮南市'],['NA'],[],[],[],[],[],[],[],127.33251239154336,0.9747694935864808,116.89658297180326,32.19715357131682,0.0,﻿曲阳
518,518,318.0,穀城,河南省洛阳市西北,['河南省洛阳市西北'],西北,"[['河南', '洛阳']]",[{'prefecture': 4103}],Prefecture,[],modern,POINT (112.00587770416683 34.67363961176599),['河南省'],['洛阳市'],['NA'],[],[],[],[],[],[],[],184.09203691871096,0.9635227858861928,112.00587770416683,34.67363961176599,1.0,﻿穀城
519,519,318.0,平阴,河南省孟津县东北,['河南省孟津县东北'],东北,"[['河南', '孟津']]",[{'county': 410322}],County,[],modern,POINT (112.50149908901741 34.891413229118484),['河南省'],['洛阳市'],['孟津县'],[],[],[],[],[],[],[],53.968000477801866,0.989306423343058,112.5014990890174,34.891413229118484,0.9999999999999991,平阴
520,520,318.0,偃师,河南省偃师市东,['河南省偃师市东'],东,"[['河南', '偃师']]",[{'county': 410381}],County,[],modern,POINT (112.77570825593591 34.63491047676301),['河南省'],['洛阳市'],['偃师市'],[],[],[],[],[],[],[],44.69381359443931,0.9911440720884258,112.77570825593592,34.63491047676301,0.9999999999999797,偃师
521,521,318.0,巩,河南省巩义西南,['河南省巩义西南'],西南,"[['河南', '巩义']]",[{'county': 410181}],County,[],modern,POINT (112.93211342986267 34.613607627379224),['河南省'],['郑州市'],['巩义市'],[],[],[],[],[],[],[],44.34613734570631,0.9912129629605112,112.93211342986268,34.613607627379224,0.9999999999999905,巩
522,522,319.0,成周城,洛阳县东北二十六里,['洛阳县东北二十六里'],,[['洛阳']],[{'LEV1': 'hvd_550'}],['县'],[],historic,POINT (112.38263 34.66528),['山东省'],['青岛市'],['市北区'],['洛阳县'],['河南府'],['河南'],[],[],[1820],[1820],3.4663493177509856,0.9993131546134574,112.38263,34.66528,0.0,
523,523,319.0,洛阳,河南郡,['河南郡'],,[['河南']],[{'province': 41}],Province,[],modern,POINT (113.12092453524787 33.871153246001654),['河南省'],['NA'],['NA'],[],[],[],[],[],[],[],602.402864236179,0.8806359110947484,113.12092453524788,33.871153246001654,0.3494929447714861,﻿洛阳
524,524,324.0,尉氏县,河南省尉氏县,['河南省尉氏县'],,"[['河南', '尉氏']]",[{'county': 410223}],County,[],modern,POINT (114.11673570360213 34.40078404655394),['河南省'],['开封市'],['尉氏县'],[],[],[],[],[],[],[],53.3988334220357,0.989419201868991,114.11673570360212,34.40078404655394,0.9999999999999998,﻿尉氏
525,525,325.0,邘国,河南省沁阳市西北,['河南省沁阳市西北'],西北,"[['河南', '沁阳']]",[{'county': 410882}],County,[],modern,POINT (112.82138557806744 35.190658622595265),['河南省'],['焦作市'],['沁阳市'],[],[],[],[],[],[],[],36.01866515826829,0.99286302339274,112.82138557806744,35.190658622595265,0.9999999999999922,﻿邘
527,527,325.0,邘台,野王县,['野王县'],,[['野王']],[{'LEV1': 'hvd_82485'}],['县'],[],historic,POINT (112.93699 35.0893),[],[],[],['野王县'],['河内郡'],[],[],[],[-221],[13],8.354392651326481,0.9983446053689556,112.93699,35.0893,0.0,
528,528,326.0,安陆,湖北省云梦县,['湖北省云梦县'],,"[['湖北', '云梦']]",[{'county': 420923}],County,[],modern,POINT (113.76986584334651 30.987990195600457),['湖北省'],['孝感市'],['云梦县'],[],[],[],[],[],[],[],48.56801718966592,0.990376411757056,113.76986584334652,30.987990195600457,0.9999999999999818,﻿安陆
529,529,327.0,酸枣,陈留郡,['陈留郡'],,[['陈留']],[{'LEV1': 'hvd_573'}],['县'],[],historic,POINT (114.52453 34.67319),[],[],[],['陈留县'],['开封府'],['河南'],[],[],[1820],[1820],0.001109346031981,0.999999780186838,114.52453,34.67319,0.0,﻿酸枣
531,531,327.0,长平,汝南县,['汝南县'],,[['汝南']],[{'county': 411727}],County,[],modern,POINT (114.28378837944982 32.91278058629857),['河南省'],['驻马店市'],['汝南县'],[],[],[],[],[],[],[],62.55839383463925,0.9876042659708868,114.28378837944982,32.91278058629857,0.9999999999999976,长平
532,532,327.0,雍丘,陈留郡,['陈留郡'],,[['陈留']],[{'LEV1': 'hvd_573'}],['县'],[],historic,POINT (114.52453 34.67319),[],[],[],['陈留县'],['开封府'],['河南'],[],[],[1820],[1820],0.001109346031981,0.999999780186838,114.52453,34.67319,0.0,雍丘
533,533,327.0,山阳,河内郡,['河内郡'],,[['河内']],[{'LEV1': 'hvd_528'}],['县'],[],historic,POINT (112.93699 35.0893),[],[],[],['河内县'],['怀庆府'],['河南'],[],[],[1820],[1820],8.354392651326481,0.9983446053689556,112.93699,35.0893,0.0,山阳
534,534,328.0,濮阳,河南省濮阳市西南,['河南省濮阳市西南'],西南,"[['河南', '濮阳']]",[{'prefecture': 4109}],Prefecture,[],modern,POINT (115.1009658337048 35.576298613824555),['河南省'],['濮阳市'],['NA'],[],[],[],[],[],[],[],126.62504622850018,0.974909675612491,115.1009658337048,35.576298613824555,0.9999999999999986,﻿濮阳
535,535,328.0,野王,河南省濮阳市,['河南省濮阳市'],,"[['河南', '濮阳']]",[{'prefecture': 4109}],Prefecture,[],modern,POINT (115.25904961881203 35.78477199233791),['河南省'],['濮阳市'],['NA'],[],[],[],[],[],[],[],126.62504622850018,0.974909675612491,115.25904961881204,35.78477199233791,0.0,
536,536,332.0,云阳县,今陕西省淳化县西北,['今陕西省淳化县西北'],西北,"[['陕西', '淳化']]",[{'county': 610430}],County,[],modern,POINT (108.44780821231842 34.91982365147152),['陕西省'],['咸阳市'],['淳化县'],[],[],[],[],[],[],[],46.86912292374485,0.9907130419064746,108.44780821231842,34.91982365147152,0.9999999999999986,﻿云阳
537,537,334.0,骊戎邑,新丰县,['新丰县'],,[['新丰']],[{'county': 440233}],County,[],modern,POINT (114.13855369742598 24.08828742758893),['广东省'],['韶关市'],['新丰县'],[],[],[],[],[],[],[],88.57811936340838,0.9824485454129438,114.13855369742598,24.08828742758893,0.0,
538,538,334.0,丽邑,陕西省临潼县东北,['陕西省临潼县东北'],东北,"[['陕西', '临潼']]",[{'county': 610115}],County,[],modern,POINT (109.34907300242497 34.55444291971308),['陕西省'],['西安市'],['临潼区'],[],[],[],[],[],[],[],47.55745337607611,0.9905766515567832,109.34907300242496,34.55444291971308,1.0,丽邑
539,539,335.0,颍川郡,阳翟县,['阳翟县'],,[['阳翟']],[{'LEV1': 'hvd_82453'}],['县'],[],historic,POINT (113.46706 34.16249),[],[],[],['阳翟县'],['颍川郡'],['秦'],[],[],[-230],[13],3.86855046051956,0.9992334598181412,113.46706,34.16249,0.0,
540,540,342.0,蓟,北京城西南隅,['北京城西南隅'],西南,"[['北京'], ['城']]","[{'province': 11}, {'county': 140302}]",County,['Multiple Matches'],modern,POINT (114.98366190566739 39.02043035869576),"['山西省', '北京市']","['NA', '阳泉市']","['NA', '城区']",[],[],[],[],[],[],[],206.3727352006882,0.959107940923639,114.9836619056674,39.02043035869576,0.34491682567237336,﻿蓟
541,541,342.0,蓟县,蓟城,['蓟城'],,"[['城'], ['蓟']]","[{'county': 140302}, {'county': 120119}]",County,['Multiple Matches'],modern,POINT (115.49330240617985 38.92878528471776),"['山西省', '天津市']","['阳泉市', '天津市辖区']","['蓟州区', '城区']",[],[],[],[],[],[],[],57.548937820458576,0.9885968727271676,115.49330240617984,38.92878528471776,0.4610160899113629,﻿蓟
542,542,345.0,承匡,河南省睢县,['河南省睢县'],,"[['睢县', '河南']]",[{'LEV1': 'hvd_82165'}],['县'],[],historic,POINT (115.06597 34.4305),['河南省'],['商丘市'],['睢县'],['睢县'],['开封府'],['河南布政使司'],['明'],[],[1377],[1379],7.260805827182603,0.9985612958972588,115.06597,34.4305,0.0,
543,543,345.0,襄陵,河南省睢县,['河南省睢县'],,"[['睢县', '河南']]",[{'LEV1': 'hvd_82165'}],['县'],[],historic,POINT (115.06597 34.4305),['河南省'],['商丘市'],['睢县'],['睢县'],['开封府'],['河南布政使司'],['明'],[],[1377],[1379],7.260805827182603,0.9985612958972588,115.06597,34.4305,0.0,
544,544,345.0,襄邑,河南省睢县,['河南省睢县'],,"[['睢县', '河南']]",[{'LEV1': 'hvd_82165'}],['县'],[],historic,POINT (115.06597 34.4305),['河南省'],['商丘市'],['睢县'],['睢县'],['开封府'],['河南布政使司'],['明'],[],[1377],[1379],7.260805827182603,0.9985612958972588,115.06597,34.4305,0.975574438802862,襄邑
545,545,347.0,砀山县,安徽省砀山县南,['安徽省砀山县南'],南,"[['安徽', '砀山']]",[{'county': 341321}],County,[],modern,POINT (116.44416795583285 34.368706098787925),['安徽省'],['宿州市'],['砀山县'],[],[],[],[],[],[],[],48.75258791652574,0.9903398396921504,116.44416795583284,34.368706098787925,0.0,
546,546,348.0,睢阳,河南省商丘市南,['河南省商丘市南'],南,"[['河南', '商丘']]",[{'prefecture': 4114}],Prefecture,[],modern,POINT (116.31095789518307 34.01390854688643),['河南省'],['商丘市'],['NA'],[],[],[],[],[],[],[],188.620049398258,0.9626255755370056,116.31095789518308,34.01390854688643,1.0,﻿睢阳
547,547,350.0,新都,安徽省太和县北,['安徽省太和县北'],北,"[['安徽', '太和']]",[{'county': 341222}],County,[],modern,POINT (115.61521606085273 33.47240304533855),['安徽省'],['阜阳市'],['太和县'],[],[],[],[],[],[],[],59.75525352249759,0.9881596987373904,115.61521606085272,33.47240304533855,0.0,
548,548,351.0,鲁县,山东省曲阜市,['山东省曲阜市'],,"[['山东', '曲阜']]",[{'county': 370881}],County,[],modern,POINT (116.99218825632055 35.63486109652786),['山东省'],['济宁市'],['曲阜市'],[],[],[],[],[],[],[],40.84760908962161,0.9919061844947852,116.99218825632056,35.63486109652786,0.9999999999999767,﻿鲁
549,549,356.0,沛,江苏省沛县,['江苏省沛县'],,"[['沛县', '江苏']]",[{'LEV1': 'hvd_753'}],['县'],[],historic,POINT (116.79961 34.62825),['江苏省'],['徐州市'],['沛县'],['沛县'],['徐州府'],['江苏省'],['清'],[],[1820],[1820],6.211133822079324,0.9987692848527852,116.79961,34.62825,0.8546916593846631,﻿沛
550,550,357.0,相邑,安徽省濉溪县西北,['安徽省濉溪县西北'],西北,"[['安徽', '濉溪']]",[{'county': 340621}],County,[],modern,POINT (116.57220905011505 33.81557706191165),['安徽省'],['淮北市'],['濉溪县'],[],[],[],[],[],[],[],78.00848626887532,0.9845428824410246,116.57220905011503,33.81557706191165,0.9999999999999913,﻿相；相邑
551,551,357.0,相县,安徽省濉溪县,['安徽省濉溪县'],,"[['安徽', '濉溪']]",[{'county': 340621}],County,[],modern,POINT (116.68704625329389 33.644688491439496),['安徽省'],['淮北市'],['濉溪县'],[],[],[],[],[],[],[],78.00848626887532,0.9845428824410246,116.68704625329389,33.644688491439496,0.820328829617916,﻿相；相邑
552,552,363.0,临湘,湖南省长沙市,['湖南省长沙市'],,"[['湖南', '长沙']]",[{'prefecture': 4301}],Prefecture,[],modern,POINT (113.22546618981625 28.251447487533937),['湖南省'],['长沙市'],['NA'],[],[],[],[],[],[],[],235.7772928495344,0.9532815273360032,113.22546618981625,28.251447487533937,0.0,﻿临湘
553,553,363.0,青阳,湖南省长沙市,['湖南省长沙市'],,"[['湖南', '长沙']]",[{'prefecture': 4301}],Prefecture,[],modern,POINT (113.22546618981625 28.251447487533937),['湖南省'],['长沙市'],['NA'],[],[],[],[],[],[],[],235.7772928495344,0.9532815273360032,113.22546618981625,28.251447487533937,0.0,
554,554,364.0,罗本,湖北省宜城市,['湖北省宜城市'],,"[['湖北', '宜城']]",[{'county': 420684}],County,[],modern,POINT (112.40848498654628 31.67562340909594),['湖北省'],['襄阳市'],['宜城市'],[],[],[],[],[],[],[],77.6579610638108,0.9846123378241656,112.40848498654628,31.67562340909594,0.0,
555,555,364.0,罗国,湖北省枝江市东北,['湖北省枝江市东北'],东北,"[['湖北', '枝江']]",[{'county': 420583}],County,[],modern,POINT (111.81785152329252 30.54698759566027),['湖北省'],['宜昌市'],['枝江市'],[],[],[],[],[],[],[],63.86762537959982,0.9873448461709357,111.81785152329252,30.54698759566027,0.0,﻿罗
556,556,364.0,罗县,湖南省汨罗市西北,['湖南省汨罗市西北'],西北,"[['湖南', '汨罗']]",[{'county': 430681}],County,[],modern,POINT (112.99686845714868 28.91161641968847),['湖南省'],['岳阳市'],['汨罗市'],[],[],[],[],[],[],[],64.27941200108404,0.9872632520454508,112.99686845714868,28.91161641968847,0.9999999999999896,﻿罗
557,557,364.0,罗水,湖北省宜城县西,['湖北省宜城县西'],西,"[['湖北', '宜城']]",[{'county': 420684}],County,[],modern,POINT (112.23451827992028 31.698903014797366),['湖北省'],['襄阳市'],['宜城市'],[],[],[],[],[],[],[],77.6579610638108,0.9846123378241656,112.23451827992028,31.698903014797366,0.0,
558,558,366.0,吴国都城,江苏省苏州市,['江苏省苏州市'],,"[['江苏', '苏州']]",[{'prefecture': 3205}],Prefecture,[],modern,POINT (120.70793150044615 31.401362843263264),['江苏省'],['苏州市'],['NA'],[],[],[],[],[],[],[],139.52345345223057,0.9723538998717138,120.70793150044616,31.401362843263264,0.0,
559,559,366.0,吴,浙江,['浙江'],,[['浙江']],[{'province': 33}],Province,[],modern,POINT (119.64008146723786 29.161456810553158),['浙江省'],['NA'],['NA'],[],[],[],[],[],[],[],454.06752572467127,0.9100280564264752,119.64008146723786,29.16145681055316,0.0,﻿吴
560,560,366.0,会稽郡,江苏省苏州市,['江苏省苏州市'],,"[['江苏', '苏州']]",[{'prefecture': 3205}],Prefecture,[],modern,POINT (120.70793150044615 31.401362843263264),['江苏省'],['苏州市'],['NA'],[],[],[],[],[],[],[],139.52345345223057,0.9723538998717138,120.70793150044616,31.401362843263264,0.0,
561,561,367.0,朱方,丹徒,['丹徒'],,[['丹徒']],[{'county': 321112}],County,[],modern,POINT (119.41384689493543 32.04274323946893),['江苏省'],['镇江市'],['丹徒区'],[],[],[],[],[],[],[],46.859567957671125,0.9907149351906664,119.41384689493545,32.04274323946893,0.0,
562,562,370.0,迁陵县,湖南龙山里耶城址,['湖南龙山里耶城址'],,"[['湖南', '龙山']]",[{'county': 433130}],County,[],modern,POINT (109.46454076136605 29.20563679612888),['湖南省'],['湘西土家族苗族自治州'],['龙山县'],[],[],[],[],[],[],[],103.4029749392412,0.9795110504506565,109.46454076136604,29.20563679612888,0.9999999999999967,﻿迁陵
563,563,371.0,酉阳,湖南省永顺县南,['湖南省永顺县南'],南,"[['湖南', '永顺']]",[{'county': 433127}],County,[],modern,POINT (110.02819007430975 28.842707731418407),['湖南省'],['湘西土家族苗族自治州'],['永顺县'],[],[],[],[],[],[],[],86.9305727415417,0.982775001200463,110.02819007430976,28.842707731418407,0.999999999999998,﻿酉阳
564,564,372.0,益阳,湖南益阳东,['湖南益阳东'],东,"[['湖南', '益阳']]",[{'prefecture': 4309}],Prefecture,[],modern,POINT (112.4681614095617 28.862153604880376),['湖南省'],['益阳市'],['NA'],[],[],[],[],[],[],[],234.70170085286844,0.9534946522501394,112.4681614095617,28.862153604880376,0.15236985030708566,﻿益阳
565,565,373.0,零阳,湖南省慈利县东,['湖南省慈利县东'],东,"[['湖南', '慈利']]",[{'county': 430821}],County,[],modern,POINT (111.10635278559474 29.480760706076342),['湖南省'],['张家界市'],['慈利县'],[],[],[],[],[],[],[],84.01251964286557,0.9833532035467322,111.10635278559474,29.480760706076342,0.9999999999999993,﻿零阳
566,566,374.0,孱陵,湖南安乡县,['湖南安乡县'],,"[['湖南', '安乡']]",[{'county': 430721}],County,[],modern,POINT (112.14553733627226 29.41751063917132),['湖南省'],['常德市'],['安乡县'],[],[],[],[],[],[],[],61.950556931546025,0.9877247067962018,112.14553733627226,29.41751063917132,0.999999999999992,孱陵
567,567,374.0,索,湖南汉寿县,['湖南汉寿县'],,"[['湖南', '汉寿']]",[{'county': 430722}],County,[],modern,POINT (112.019087647659 28.878837553384805),['湖南省'],['常德市'],['汉寿县'],[],[],[],[],[],[],[],68.72114026308925,0.9863831386219676,112.019087647659,28.878837553384805,0.9999999999999887,索
